{
  "generatedAtUtc": "2026-07-18T18:09:59.358316Z",
  "baseExpectedHourUtc": "2026071817",
  "targetHourUtc": "2026071818",
  "expectedHourUtc": "2026071818",
  "pendingFreshUpdate": false,
  "data": [
    {
      "code": "AEP",
      "label": "Aeroparque",
      "icaoId": "SABE",
      "station_id": "SABE",
      "rawOb": "181800Z 10009KT 3000 -DZ BR OVC006 15/13 Q1000 TEMPO 4000 BR OVC006",
      "raw_text": "181800Z 10009KT 3000 -DZ BR OVC006 15/13 Q1000 TEMPO 4000 BR OVC006",
      "obsTime": "2026-07-18T18:00:00Z",
      "source": "linux-noaa-txt",
      "updatedAt": "2026-07-18T18:09:59.358316Z",
      "reportHourUtc": "2026071818",
      "baseExpectedHourUtc": "2026071817",
      "targetHourUtc": "2026071818",
      "expectedHourUtc": "2026071818",
      "freshForExpectedHour": true,
      "error": null
    },
    {
      "code": "EZE",
      "label": "Ezeiza",
      "icaoId": "SAEZ",
      "station_id": "SAEZ",
      "rawOb": "181800Z 14007KT 3000 BR OVC004 15/14 Q1000 TEMPO 14007KT AT1800 3000 BR OVC004",
      "raw_text": "181800Z 14007KT 3000 BR OVC004 15/14 Q1000 TEMPO 14007KT AT1800 3000 BR OVC004",
      "obsTime": "2026-07-18T18:00:00Z",
      "source": "linux-noaa-txt",
      "updatedAt": "2026-07-18T18:09:59.358316Z",
      "reportHourUtc": "2026071818",
      "baseExpectedHourUtc": "2026071817",
      "targetHourUtc": "2026071818",
      "expectedHourUtc": "2026071818",
      "freshForExpectedHour": true,
      "error": null
    }
  ]
}
