{
  "generatedAtUtc": "2026-07-14T02:09:59.253172Z",
  "baseExpectedHourUtc": "2026071401",
  "targetHourUtc": "2026071402",
  "expectedHourUtc": "2026071402",
  "pendingFreshUpdate": false,
  "data": [
    {
      "code": "AEP",
      "label": "Aeroparque",
      "icaoId": "SABE",
      "station_id": "SABE",
      "rawOb": "140200Z 01009KT 320V040 9999 BKN011 09/07 Q1020 NOSIG",
      "raw_text": "140200Z 01009KT 320V040 9999 BKN011 09/07 Q1020 NOSIG",
      "obsTime": "2026-07-14T02:00:00Z",
      "source": "linux-noaa-txt",
      "updatedAt": "2026-07-14T02:09:59.253172Z",
      "reportHourUtc": "2026071402",
      "baseExpectedHourUtc": "2026071401",
      "targetHourUtc": "2026071402",
      "expectedHourUtc": "2026071402",
      "freshForExpectedHour": true,
      "error": null
    },
    {
      "code": "EZE",
      "label": "Ezeiza",
      "icaoId": "SAEZ",
      "station_id": "SAEZ",
      "rawOb": "140200Z 04008KT CAVOK 09/07 Q1019 NOSIG",
      "raw_text": "140200Z 04008KT CAVOK 09/07 Q1019 NOSIG",
      "obsTime": "2026-07-14T02:00:00Z",
      "source": "linux-noaa-txt",
      "updatedAt": "2026-07-14T02:09:59.253172Z",
      "reportHourUtc": "2026071402",
      "baseExpectedHourUtc": "2026071401",
      "targetHourUtc": "2026071402",
      "expectedHourUtc": "2026071402",
      "freshForExpectedHour": true,
      "error": null
    }
  ]
}
