{
  "generatedAtUtc": "2026-07-22T02:09:59.161804Z",
  "baseExpectedHourUtc": "2026072201",
  "targetHourUtc": "2026072202",
  "expectedHourUtc": "2026072202",
  "pendingFreshUpdate": false,
  "data": [
    {
      "code": "AEP",
      "label": "Aeroparque",
      "icaoId": "SABE",
      "station_id": "SABE",
      "rawOb": "220200Z 17006KT 120V230 9000 SCT010 OVC018 11/09 Q1016 NOSIG",
      "raw_text": "220200Z 17006KT 120V230 9000 SCT010 OVC018 11/09 Q1016 NOSIG",
      "obsTime": "2026-07-22T02:00:00Z",
      "source": "linux-noaa-txt",
      "updatedAt": "2026-07-22T02:09:59.161804Z",
      "reportHourUtc": "2026072202",
      "baseExpectedHourUtc": "2026072201",
      "targetHourUtc": "2026072202",
      "expectedHourUtc": "2026072202",
      "freshForExpectedHour": true,
      "error": null
    },
    {
      "code": "EZE",
      "label": "Ezeiza",
      "icaoId": "SAEZ",
      "station_id": "SAEZ",
      "rawOb": "220200Z 19007KT 170V230 9999 FEW008 OVC026 11/10 Q1016 NOSIG",
      "raw_text": "220200Z 19007KT 170V230 9999 FEW008 OVC026 11/10 Q1016 NOSIG",
      "obsTime": "2026-07-22T02:00:00Z",
      "source": "linux-noaa-txt",
      "updatedAt": "2026-07-22T02:09:59.161804Z",
      "reportHourUtc": "2026072202",
      "baseExpectedHourUtc": "2026072201",
      "targetHourUtc": "2026072202",
      "expectedHourUtc": "2026072202",
      "freshForExpectedHour": true,
      "error": null
    }
  ]
}
