{
  "generatedAtUtc": "2026-07-22T11:09:59.239417Z",
  "baseExpectedHourUtc": "2026072210",
  "targetHourUtc": "2026072211",
  "expectedHourUtc": "2026072211",
  "pendingFreshUpdate": false,
  "data": [
    {
      "code": "AEP",
      "label": "Aeroparque",
      "icaoId": "SABE",
      "station_id": "SABE",
      "rawOb": "221100Z 17006KT 120V200 9999 BKN029 OVC070 10/07 Q1019 NOSIG",
      "raw_text": "221100Z 17006KT 120V200 9999 BKN029 OVC070 10/07 Q1019 NOSIG",
      "obsTime": "2026-07-22T11:00:00Z",
      "source": "linux-noaa-txt",
      "updatedAt": "2026-07-22T11:09:59.239417Z",
      "reportHourUtc": "2026072211",
      "baseExpectedHourUtc": "2026072210",
      "targetHourUtc": "2026072211",
      "expectedHourUtc": "2026072211",
      "freshForExpectedHour": true,
      "error": null
    },
    {
      "code": "EZE",
      "label": "Ezeiza",
      "icaoId": "SAEZ",
      "station_id": "SAEZ",
      "rawOb": "221100Z 19005KT 9999 OVC036 09/07 Q1019 NOSIG",
      "raw_text": "221100Z 19005KT 9999 OVC036 09/07 Q1019 NOSIG",
      "obsTime": "2026-07-22T11:00:00Z",
      "source": "linux-noaa-txt",
      "updatedAt": "2026-07-22T11:09:59.239417Z",
      "reportHourUtc": "2026072211",
      "baseExpectedHourUtc": "2026072210",
      "targetHourUtc": "2026072211",
      "expectedHourUtc": "2026072211",
      "freshForExpectedHour": true,
      "error": null
    }
  ]
}
