{
  "generatedAtUtc": "2026-07-13T00:09:59.781858Z",
  "baseExpectedHourUtc": "2026071223",
  "targetHourUtc": "2026071300",
  "expectedHourUtc": "2026071300",
  "pendingFreshUpdate": false,
  "data": [
    {
      "code": "AEP",
      "label": "Aeroparque",
      "icaoId": "SABE",
      "station_id": "SABE",
      "rawOb": "130000Z VRB02KT CAVOK 10/03 Q1026 NOSIG",
      "raw_text": "130000Z VRB02KT CAVOK 10/03 Q1026 NOSIG",
      "obsTime": "2026-07-13T00:00:00Z",
      "source": "linux-noaa-txt",
      "updatedAt": "2026-07-13T00:09:59.781858Z",
      "reportHourUtc": "2026071300",
      "baseExpectedHourUtc": "2026071223",
      "targetHourUtc": "2026071300",
      "expectedHourUtc": "2026071300",
      "freshForExpectedHour": true,
      "error": null
    },
    {
      "code": "EZE",
      "label": "Ezeiza",
      "icaoId": "SAEZ",
      "station_id": "SAEZ",
      "rawOb": "130000Z 00000KT CAVOK 03/02 Q1025 NOSIG",
      "raw_text": "130000Z 00000KT CAVOK 03/02 Q1025 NOSIG",
      "obsTime": "2026-07-13T00:00:00Z",
      "source": "linux-noaa-txt",
      "updatedAt": "2026-07-13T00:09:59.781858Z",
      "reportHourUtc": "2026071300",
      "baseExpectedHourUtc": "2026071223",
      "targetHourUtc": "2026071300",
      "expectedHourUtc": "2026071300",
      "freshForExpectedHour": true,
      "error": null
    }
  ]
}
