{
  "generatedAtUtc": "2026-07-19T03:09:59.706910Z",
  "baseExpectedHourUtc": "2026071902",
  "targetHourUtc": "2026071903",
  "expectedHourUtc": "2026071903",
  "pendingFreshUpdate": false,
  "data": [
    {
      "code": "AEP",
      "label": "Aeroparque",
      "icaoId": "SABE",
      "station_id": "SABE",
      "rawOb": "190300Z 15007KT 120V200 1000 R13/P2000N -DZ BR OVC004 13/12 Q1004 NOSIG",
      "raw_text": "190300Z 15007KT 120V200 1000 R13/P2000N -DZ BR OVC004 13/12 Q1004 NOSIG",
      "obsTime": "2026-07-19T03:00:00Z",
      "source": "linux-noaa-txt",
      "updatedAt": "2026-07-19T03:09:59.706910Z",
      "reportHourUtc": "2026071903",
      "baseExpectedHourUtc": "2026071902",
      "targetHourUtc": "2026071903",
      "expectedHourUtc": "2026071903",
      "freshForExpectedHour": true,
      "error": null
    },
    {
      "code": "EZE",
      "label": "Ezeiza",
      "icaoId": "SAEZ",
      "station_id": "SAEZ",
      "rawOb": "190300Z 15008KT 9999 OVC006 12/11 Q1004 NOSIG",
      "raw_text": "190300Z 15008KT 9999 OVC006 12/11 Q1004 NOSIG",
      "obsTime": "2026-07-19T03:00:00Z",
      "source": "linux-noaa-txt",
      "updatedAt": "2026-07-19T03:09:59.706910Z",
      "reportHourUtc": "2026071903",
      "baseExpectedHourUtc": "2026071902",
      "targetHourUtc": "2026071903",
      "expectedHourUtc": "2026071903",
      "freshForExpectedHour": true,
      "error": null
    }
  ]
}
