{
  "generatedAtUtc": "2026-07-12T20:09:59.639351Z",
  "baseExpectedHourUtc": "2026071219",
  "targetHourUtc": "2026071220",
  "expectedHourUtc": "2026071220",
  "pendingFreshUpdate": false,
  "data": [
    {
      "code": "AEP",
      "label": "Aeroparque",
      "icaoId": "SABE",
      "station_id": "SABE",
      "rawOb": "122000Z VRB03KT 9999 FEW025 12/04 Q1024 NOSIG",
      "raw_text": "122000Z VRB03KT 9999 FEW025 12/04 Q1024 NOSIG",
      "obsTime": "2026-07-12T20:00:00Z",
      "source": "linux-noaa-txt",
      "updatedAt": "2026-07-12T20:09:59.639351Z",
      "reportHourUtc": "2026071220",
      "baseExpectedHourUtc": "2026071219",
      "targetHourUtc": "2026071220",
      "expectedHourUtc": "2026071220",
      "freshForExpectedHour": true,
      "error": null
    },
    {
      "code": "EZE",
      "label": "Ezeiza",
      "icaoId": "SAEZ",
      "station_id": "SAEZ",
      "rawOb": "122000Z 23005KT 9999 FEW032 12/05 Q1024 NOSIG",
      "raw_text": "122000Z 23005KT 9999 FEW032 12/05 Q1024 NOSIG",
      "obsTime": "2026-07-12T20:00:00Z",
      "source": "linux-noaa-txt",
      "updatedAt": "2026-07-12T20:09:59.639351Z",
      "reportHourUtc": "2026071220",
      "baseExpectedHourUtc": "2026071219",
      "targetHourUtc": "2026071220",
      "expectedHourUtc": "2026071220",
      "freshForExpectedHour": true,
      "error": null
    }
  ]
}
