{
  "generatedAtUtc": "2026-07-12T16:09:59.917111Z",
  "baseExpectedHourUtc": "2026071215",
  "targetHourUtc": "2026071216",
  "expectedHourUtc": "2026071216",
  "pendingFreshUpdate": false,
  "data": [
    {
      "code": "AEP",
      "label": "Aeroparque",
      "icaoId": "SABE",
      "station_id": "SABE",
      "rawOb": "121600Z VRB05KT 9999 BKN016 10/05 Q1025 BECMG 9999 SCT015",
      "raw_text": "121600Z VRB05KT 9999 BKN016 10/05 Q1025 BECMG 9999 SCT015",
      "obsTime": "2026-07-12T16:00:00Z",
      "source": "linux-noaa-txt",
      "updatedAt": "2026-07-12T16:09:59.917111Z",
      "reportHourUtc": "2026071216",
      "baseExpectedHourUtc": "2026071215",
      "targetHourUtc": "2026071216",
      "expectedHourUtc": "2026071216",
      "freshForExpectedHour": true,
      "error": null
    },
    {
      "code": "EZE",
      "label": "Ezeiza",
      "icaoId": "SAEZ",
      "station_id": "SAEZ",
      "rawOb": "121600Z 21006KT 9999 BKN016 10/06 Q1025 NOSIG",
      "raw_text": "121600Z 21006KT 9999 BKN016 10/06 Q1025 NOSIG",
      "obsTime": "2026-07-12T16:00:00Z",
      "source": "linux-noaa-txt",
      "updatedAt": "2026-07-12T16:09:59.917111Z",
      "reportHourUtc": "2026071216",
      "baseExpectedHourUtc": "2026071215",
      "targetHourUtc": "2026071216",
      "expectedHourUtc": "2026071216",
      "freshForExpectedHour": true,
      "error": null
    }
  ]
}
