{
  "generatedAtUtc": "2026-07-14T15:09:59.217023Z",
  "baseExpectedHourUtc": "2026071414",
  "targetHourUtc": "2026071415",
  "expectedHourUtc": "2026071415",
  "pendingFreshUpdate": false,
  "data": [
    {
      "code": "AEP",
      "label": "Aeroparque",
      "icaoId": "SABE",
      "station_id": "SABE",
      "rawOb": "141500Z 01009KT 9999 SCT008 BKN011 11/08 Q1019 NOSIG",
      "raw_text": "141500Z 01009KT 9999 SCT008 BKN011 11/08 Q1019 NOSIG",
      "obsTime": "2026-07-14T15:00:00Z",
      "source": "linux-noaa-txt",
      "updatedAt": "2026-07-14T15:09:59.217023Z",
      "reportHourUtc": "2026071415",
      "baseExpectedHourUtc": "2026071414",
      "targetHourUtc": "2026071415",
      "expectedHourUtc": "2026071415",
      "freshForExpectedHour": true,
      "error": null
    },
    {
      "code": "EZE",
      "label": "Ezeiza",
      "icaoId": "SAEZ",
      "station_id": "SAEZ",
      "rawOb": "141500Z 03012KT 9999 FEW017 SCT200 12/07 Q1018 NOSIG",
      "raw_text": "141500Z 03012KT 9999 FEW017 SCT200 12/07 Q1018 NOSIG",
      "obsTime": "2026-07-14T15:00:00Z",
      "source": "linux-noaa-txt",
      "updatedAt": "2026-07-14T15:09:59.217023Z",
      "reportHourUtc": "2026071415",
      "baseExpectedHourUtc": "2026071414",
      "targetHourUtc": "2026071415",
      "expectedHourUtc": "2026071415",
      "freshForExpectedHour": true,
      "error": null
    }
  ]
}
