{
  "generatedAtUtc": "2026-07-19T14:09:59.809862Z",
  "baseExpectedHourUtc": "2026071913",
  "targetHourUtc": "2026071914",
  "expectedHourUtc": "2026071914",
  "pendingFreshUpdate": false,
  "data": [
    {
      "code": "AEP",
      "label": "Aeroparque",
      "icaoId": "SABE",
      "station_id": "SABE",
      "rawOb": "191400Z 17011KT 130V210 4000 DZ BKN009 OVC018 09/07 Q1004 NOSIG",
      "raw_text": "191400Z 17011KT 130V210 4000 DZ BKN009 OVC018 09/07 Q1004 NOSIG",
      "obsTime": "2026-07-19T14:00:00Z",
      "source": "linux-noaa-txt",
      "updatedAt": "2026-07-19T14:09:59.809862Z",
      "reportHourUtc": "2026071914",
      "baseExpectedHourUtc": "2026071913",
      "targetHourUtc": "2026071914",
      "expectedHourUtc": "2026071914",
      "freshForExpectedHour": true,
      "error": null
    },
    {
      "code": "EZE",
      "label": "Ezeiza",
      "icaoId": "SAEZ",
      "station_id": "SAEZ",
      "rawOb": "191400Z 16012G28KT 5000 -DZ OVC022 09/06 Q1005 TEMPO 5000 -RADZ",
      "raw_text": "191400Z 16012G28KT 5000 -DZ OVC022 09/06 Q1005 TEMPO 5000 -RADZ",
      "obsTime": "2026-07-19T14:00:00Z",
      "source": "linux-noaa-txt",
      "updatedAt": "2026-07-19T14:09:59.809862Z",
      "reportHourUtc": "2026071914",
      "baseExpectedHourUtc": "2026071913",
      "targetHourUtc": "2026071914",
      "expectedHourUtc": "2026071914",
      "freshForExpectedHour": true,
      "error": null
    }
  ]
}
