{
  "generatedAtUtc": "2026-07-18T08:09:59.173454Z",
  "baseExpectedHourUtc": "2026071807",
  "targetHourUtc": "2026071808",
  "expectedHourUtc": "2026071808",
  "pendingFreshUpdate": false,
  "data": [
    {
      "code": "AEP",
      "label": "Aeroparque",
      "icaoId": "SABE",
      "station_id": "SABE",
      "rawOb": "180800Z 16005KT 5000 BR OVC007 18/17 Q0998 NOSIG",
      "raw_text": "180800Z 16005KT 5000 BR OVC007 18/17 Q0998 NOSIG",
      "obsTime": "2026-07-18T08:00:00Z",
      "source": "linux-noaa-txt",
      "updatedAt": "2026-07-18T08:09:59.173454Z",
      "reportHourUtc": "2026071808",
      "baseExpectedHourUtc": "2026071807",
      "targetHourUtc": "2026071808",
      "expectedHourUtc": "2026071808",
      "freshForExpectedHour": true,
      "error": null
    },
    {
      "code": "EZE",
      "label": "Ezeiza",
      "icaoId": "SAEZ",
      "station_id": "SAEZ",
      "rawOb": "180800Z 14005KT 5000 BR OVC004 17/17 Q0997 NOSIG",
      "raw_text": "180800Z 14005KT 5000 BR OVC004 17/17 Q0997 NOSIG",
      "obsTime": "2026-07-18T08:00:00Z",
      "source": "linux-noaa-txt",
      "updatedAt": "2026-07-18T08:09:59.173454Z",
      "reportHourUtc": "2026071808",
      "baseExpectedHourUtc": "2026071807",
      "targetHourUtc": "2026071808",
      "expectedHourUtc": "2026071808",
      "freshForExpectedHour": true,
      "error": null
    }
  ]
}
