{
  "generatedAtUtc": "2026-07-19T01:09:59.109159Z",
  "baseExpectedHourUtc": "2026071900",
  "targetHourUtc": "2026071901",
  "expectedHourUtc": "2026071901",
  "pendingFreshUpdate": false,
  "data": [
    {
      "code": "AEP",
      "label": "Aeroparque",
      "icaoId": "SABE",
      "station_id": "SABE",
      "rawOb": "190100Z 12011KT 4000 BR OVC005 13/12 Q1005 NOSIG",
      "raw_text": "190100Z 12011KT 4000 BR OVC005 13/12 Q1005 NOSIG",
      "obsTime": "2026-07-19T01:00:00Z",
      "source": "linux-noaa-txt",
      "updatedAt": "2026-07-19T01:09:59.109159Z",
      "reportHourUtc": "2026071901",
      "baseExpectedHourUtc": "2026071900",
      "targetHourUtc": "2026071901",
      "expectedHourUtc": "2026071901",
      "freshForExpectedHour": true,
      "error": null
    },
    {
      "code": "EZE",
      "label": "Ezeiza",
      "icaoId": "SAEZ",
      "station_id": "SAEZ",
      "rawOb": "190100Z 14009KT 9999 OVC009 13/12 Q1004 NOSIG",
      "raw_text": "190100Z 14009KT 9999 OVC009 13/12 Q1004 NOSIG",
      "obsTime": "2026-07-19T01:00:00Z",
      "source": "linux-noaa-txt",
      "updatedAt": "2026-07-19T01:09:59.109159Z",
      "reportHourUtc": "2026071901",
      "baseExpectedHourUtc": "2026071900",
      "targetHourUtc": "2026071901",
      "expectedHourUtc": "2026071901",
      "freshForExpectedHour": true,
      "error": null
    }
  ]
}
