{
  "generatedAtUtc": "2026-07-18T01:09:59.770487Z",
  "baseExpectedHourUtc": "2026071800",
  "targetHourUtc": "2026071801",
  "expectedHourUtc": "2026071801",
  "pendingFreshUpdate": false,
  "data": [
    {
      "code": "AEP",
      "label": "Aeroparque",
      "icaoId": "SABE",
      "station_id": "SABE",
      "rawOb": "180100Z VRB01KT 6000 NSC 20/18 Q1000 NOSIG",
      "raw_text": "180100Z VRB01KT 6000 NSC 20/18 Q1000 NOSIG",
      "obsTime": "2026-07-18T01:00:00Z",
      "source": "linux-noaa-txt",
      "updatedAt": "2026-07-18T01:09:59.770487Z",
      "reportHourUtc": "2026071801",
      "baseExpectedHourUtc": "2026071800",
      "targetHourUtc": "2026071801",
      "expectedHourUtc": "2026071801",
      "freshForExpectedHour": true,
      "error": null
    },
    {
      "code": "EZE",
      "label": "Ezeiza",
      "icaoId": "SAEZ",
      "station_id": "SAEZ",
      "rawOb": "180100Z 24003KT 9000 OVC017 20/19 Q1000 NOSIG",
      "raw_text": "180100Z 24003KT 9000 OVC017 20/19 Q1000 NOSIG",
      "obsTime": "2026-07-18T01:00:00Z",
      "source": "linux-noaa-txt",
      "updatedAt": "2026-07-18T01:09:59.770487Z",
      "reportHourUtc": "2026071801",
      "baseExpectedHourUtc": "2026071800",
      "targetHourUtc": "2026071801",
      "expectedHourUtc": "2026071801",
      "freshForExpectedHour": true,
      "error": null
    }
  ]
}
