{
  "generatedAtUtc": "2026-07-19T09:09:59.221056Z",
  "baseExpectedHourUtc": "2026071908",
  "targetHourUtc": "2026071909",
  "expectedHourUtc": "2026071909",
  "pendingFreshUpdate": false,
  "data": [
    {
      "code": "AEP",
      "label": "Aeroparque",
      "icaoId": "SABE",
      "station_id": "SABE",
      "rawOb": "190900Z 17008G20KT 130V210 4500 DZ BR OVC005 10/09 Q1002 NOSIG",
      "raw_text": "190900Z 17008G20KT 130V210 4500 DZ BR OVC005 10/09 Q1002 NOSIG",
      "obsTime": "2026-07-19T09:00:00Z",
      "source": "linux-noaa-txt",
      "updatedAt": "2026-07-19T09:09:59.221056Z",
      "reportHourUtc": "2026071909",
      "baseExpectedHourUtc": "2026071908",
      "targetHourUtc": "2026071909",
      "expectedHourUtc": "2026071909",
      "freshForExpectedHour": true,
      "error": null
    },
    {
      "code": "EZE",
      "label": "Ezeiza",
      "icaoId": "SAEZ",
      "station_id": "SAEZ",
      "rawOb": "190900Z 18010KT 5000 -DZ BR OVC015 09/08 Q1003 TEMPO 5000 -TSRA OVC005",
      "raw_text": "190900Z 18010KT 5000 -DZ BR OVC015 09/08 Q1003 TEMPO 5000 -TSRA OVC005",
      "obsTime": "2026-07-19T09:00:00Z",
      "source": "linux-noaa-txt",
      "updatedAt": "2026-07-19T09:09:59.221056Z",
      "reportHourUtc": "2026071909",
      "baseExpectedHourUtc": "2026071908",
      "targetHourUtc": "2026071909",
      "expectedHourUtc": "2026071909",
      "freshForExpectedHour": true,
      "error": null
    }
  ]
}
