{
  "generatedAtUtc": "2026-07-13T21:09:59.266058Z",
  "baseExpectedHourUtc": "2026071320",
  "targetHourUtc": "2026071321",
  "expectedHourUtc": "2026071321",
  "pendingFreshUpdate": false,
  "data": [
    {
      "code": "AEP",
      "label": "Aeroparque",
      "icaoId": "SABE",
      "station_id": "SABE",
      "rawOb": "132100Z 01008KT 9999 SCT016 09/06 Q1021 NOSIG",
      "raw_text": "132100Z 01008KT 9999 SCT016 09/06 Q1021 NOSIG",
      "obsTime": "2026-07-13T21:00:00Z",
      "source": "linux-noaa-txt",
      "updatedAt": "2026-07-13T21:09:59.266058Z",
      "reportHourUtc": "2026071321",
      "baseExpectedHourUtc": "2026071320",
      "targetHourUtc": "2026071321",
      "expectedHourUtc": "2026071321",
      "freshForExpectedHour": true,
      "error": null
    },
    {
      "code": "EZE",
      "label": "Ezeiza",
      "icaoId": "SAEZ",
      "station_id": "SAEZ",
      "rawOb": "132100Z 04006KT CAVOK 08/05 Q1020 NOSIG",
      "raw_text": "132100Z 04006KT CAVOK 08/05 Q1020 NOSIG",
      "obsTime": "2026-07-13T21:00:00Z",
      "source": "linux-noaa-txt",
      "updatedAt": "2026-07-13T21:09:59.266058Z",
      "reportHourUtc": "2026071321",
      "baseExpectedHourUtc": "2026071320",
      "targetHourUtc": "2026071321",
      "expectedHourUtc": "2026071321",
      "freshForExpectedHour": true,
      "error": null
    }
  ]
}
