{
  "generatedAtUtc": "2026-07-23T09:09:59.198814Z",
  "baseExpectedHourUtc": "2026072308",
  "targetHourUtc": "2026072309",
  "expectedHourUtc": "2026072309",
  "pendingFreshUpdate": false,
  "data": [
    {
      "code": "AEP",
      "label": "Aeroparque",
      "icaoId": "SABE",
      "station_id": "SABE",
      "rawOb": "230900Z 06008KT 9999 BKN011 11/08 Q1023 NOSIG",
      "raw_text": "230900Z 06008KT 9999 BKN011 11/08 Q1023 NOSIG",
      "obsTime": "2026-07-23T09:00:00Z",
      "source": "linux-noaa-txt",
      "updatedAt": "2026-07-23T09:09:59.198814Z",
      "reportHourUtc": "2026072309",
      "baseExpectedHourUtc": "2026072308",
      "targetHourUtc": "2026072309",
      "expectedHourUtc": "2026072309",
      "freshForExpectedHour": true,
      "error": null
    },
    {
      "code": "EZE",
      "label": "Ezeiza",
      "icaoId": "SAEZ",
      "station_id": "SAEZ",
      "rawOb": "230900Z 14002KT 9999 OVC013 08/07 Q1022 NOSIG",
      "raw_text": "230900Z 14002KT 9999 OVC013 08/07 Q1022 NOSIG",
      "obsTime": "2026-07-23T09:00:00Z",
      "source": "linux-noaa-txt",
      "updatedAt": "2026-07-23T09:09:59.198814Z",
      "reportHourUtc": "2026072309",
      "baseExpectedHourUtc": "2026072308",
      "targetHourUtc": "2026072309",
      "expectedHourUtc": "2026072309",
      "freshForExpectedHour": true,
      "error": null
    }
  ]
}
