{
  "generatedAtUtc": "2026-07-16T23:09:59.489662Z",
  "baseExpectedHourUtc": "2026071622",
  "targetHourUtc": "2026071623",
  "expectedHourUtc": "2026071623",
  "pendingFreshUpdate": false,
  "data": [
    {
      "code": "AEP",
      "label": "Aeroparque",
      "icaoId": "SABE",
      "station_id": "SABE",
      "rawOb": "162300Z 08006KT 050V110 CAVOK 18/14 Q0998 NOSIG",
      "raw_text": "162300Z 08006KT 050V110 CAVOK 18/14 Q0998 NOSIG",
      "obsTime": "2026-07-16T23:00:00Z",
      "source": "linux-noaa-txt",
      "updatedAt": "2026-07-16T23:09:59.489662Z",
      "reportHourUtc": "2026071623",
      "baseExpectedHourUtc": "2026071622",
      "targetHourUtc": "2026071623",
      "expectedHourUtc": "2026071623",
      "freshForExpectedHour": true,
      "error": null
    },
    {
      "code": "EZE",
      "label": "Ezeiza",
      "icaoId": "SAEZ",
      "station_id": "SAEZ",
      "rawOb": "162300Z 05010KT CAVOK 22/16 Q0997 NOSIG",
      "raw_text": "162300Z 05010KT CAVOK 22/16 Q0997 NOSIG",
      "obsTime": "2026-07-16T23:00:00Z",
      "source": "linux-noaa-txt",
      "updatedAt": "2026-07-16T23:09:59.489662Z",
      "reportHourUtc": "2026071623",
      "baseExpectedHourUtc": "2026071622",
      "targetHourUtc": "2026071623",
      "expectedHourUtc": "2026071623",
      "freshForExpectedHour": true,
      "error": null
    }
  ]
}
