{
  "generatedAtUtc": "2026-07-22T07:09:59.603180Z",
  "baseExpectedHourUtc": "2026072206",
  "targetHourUtc": "2026072207",
  "expectedHourUtc": "2026072207",
  "pendingFreshUpdate": false,
  "data": [
    {
      "code": "AEP",
      "label": "Aeroparque",
      "icaoId": "SABE",
      "station_id": "SABE",
      "rawOb": "220700Z 16007KT 130V210 9999 FEW015 OVC028 10/07 Q1017 NOSIG",
      "raw_text": "220700Z 16007KT 130V210 9999 FEW015 OVC028 10/07 Q1017 NOSIG",
      "obsTime": "2026-07-22T07:00:00Z",
      "source": "linux-noaa-txt",
      "updatedAt": "2026-07-22T07:09:59.603180Z",
      "reportHourUtc": "2026072207",
      "baseExpectedHourUtc": "2026072206",
      "targetHourUtc": "2026072207",
      "expectedHourUtc": "2026072207",
      "freshForExpectedHour": true,
      "error": null
    },
    {
      "code": "EZE",
      "label": "Ezeiza",
      "icaoId": "SAEZ",
      "station_id": "SAEZ",
      "rawOb": "220700Z 18006KT 150V210 9999 OVC040 09/07 Q1017 NOSIG",
      "raw_text": "220700Z 18006KT 150V210 9999 OVC040 09/07 Q1017 NOSIG",
      "obsTime": "2026-07-22T07:00:00Z",
      "source": "linux-noaa-txt",
      "updatedAt": "2026-07-22T07:09:59.603180Z",
      "reportHourUtc": "2026072207",
      "baseExpectedHourUtc": "2026072206",
      "targetHourUtc": "2026072207",
      "expectedHourUtc": "2026072207",
      "freshForExpectedHour": true,
      "error": null
    }
  ]
}
