{
  "generatedAtUtc": "2026-07-21T08:09:59.961663Z",
  "baseExpectedHourUtc": "2026072107",
  "targetHourUtc": "2026072108",
  "expectedHourUtc": "2026072108",
  "pendingFreshUpdate": false,
  "data": [
    {
      "code": "AEP",
      "label": "Aeroparque",
      "icaoId": "SABE",
      "station_id": "SABE",
      "rawOb": "210800Z 18003KT 140V220 3000 -DZ BR OVC006 11/10 Q1011 NOSIG",
      "raw_text": "210800Z 18003KT 140V220 3000 -DZ BR OVC006 11/10 Q1011 NOSIG",
      "obsTime": "2026-07-21T08:00:00Z",
      "source": "linux-noaa-txt",
      "updatedAt": "2026-07-21T08:09:59.961663Z",
      "reportHourUtc": "2026072108",
      "baseExpectedHourUtc": "2026072107",
      "targetHourUtc": "2026072108",
      "expectedHourUtc": "2026072108",
      "freshForExpectedHour": true,
      "error": null
    },
    {
      "code": "EZE",
      "label": "Ezeiza",
      "icaoId": "SAEZ",
      "station_id": "SAEZ",
      "rawOb": "210800Z 18004KT 5000 -DZ BR OVC003 10/10 Q1011 NOSIG",
      "raw_text": "210800Z 18004KT 5000 -DZ BR OVC003 10/10 Q1011 NOSIG",
      "obsTime": "2026-07-21T08:00:00Z",
      "source": "linux-noaa-txt",
      "updatedAt": "2026-07-21T08:09:59.961663Z",
      "reportHourUtc": "2026072108",
      "baseExpectedHourUtc": "2026072107",
      "targetHourUtc": "2026072108",
      "expectedHourUtc": "2026072108",
      "freshForExpectedHour": true,
      "error": null
    }
  ]
}
