{
  "generatedAtUtc": "2026-07-21T07:09:59.278134Z",
  "baseExpectedHourUtc": "2026072106",
  "targetHourUtc": "2026072107",
  "expectedHourUtc": "2026072107",
  "pendingFreshUpdate": false,
  "data": [
    {
      "code": "AEP",
      "label": "Aeroparque",
      "icaoId": "SABE",
      "station_id": "SABE",
      "rawOb": "210700Z 16003KT 110V210 7000 OVC006 11/10 Q1011 NOSIG",
      "raw_text": "210700Z 16003KT 110V210 7000 OVC006 11/10 Q1011 NOSIG",
      "obsTime": "2026-07-21T07:00:00Z",
      "source": "linux-noaa-txt",
      "updatedAt": "2026-07-21T07:09:59.278134Z",
      "reportHourUtc": "2026072107",
      "baseExpectedHourUtc": "2026072106",
      "targetHourUtc": "2026072107",
      "expectedHourUtc": "2026072107",
      "freshForExpectedHour": true,
      "error": null
    },
    {
      "code": "EZE",
      "label": "Ezeiza",
      "icaoId": "SAEZ",
      "station_id": "SAEZ",
      "rawOb": "210700Z 19003KT 5000 -DZ BR OVC003 10/10 Q1011 NOSIG",
      "raw_text": "210700Z 19003KT 5000 -DZ BR OVC003 10/10 Q1011 NOSIG",
      "obsTime": "2026-07-21T07:00:00Z",
      "source": "linux-noaa-txt",
      "updatedAt": "2026-07-21T07:09:59.278134Z",
      "reportHourUtc": "2026072107",
      "baseExpectedHourUtc": "2026072106",
      "targetHourUtc": "2026072107",
      "expectedHourUtc": "2026072107",
      "freshForExpectedHour": true,
      "error": null
    }
  ]
}
