{
  "generatedAtUtc": "2026-07-14T08:09:59.633311Z",
  "baseExpectedHourUtc": "2026071407",
  "targetHourUtc": "2026071408",
  "expectedHourUtc": "2026071408",
  "pendingFreshUpdate": false,
  "data": [
    {
      "code": "AEP",
      "label": "Aeroparque",
      "icaoId": "SABE",
      "station_id": "SABE",
      "rawOb": "140800Z 36011KT 9999 SCT010 10/08 Q1019 NOSIG",
      "raw_text": "140800Z 36011KT 9999 SCT010 10/08 Q1019 NOSIG",
      "obsTime": "2026-07-14T08:00:00Z",
      "source": "linux-noaa-txt",
      "updatedAt": "2026-07-14T08:09:59.633311Z",
      "reportHourUtc": "2026071408",
      "baseExpectedHourUtc": "2026071407",
      "targetHourUtc": "2026071408",
      "expectedHourUtc": "2026071408",
      "freshForExpectedHour": true,
      "error": null
    },
    {
      "code": "EZE",
      "label": "Ezeiza",
      "icaoId": "SAEZ",
      "station_id": "SAEZ",
      "rawOb": "140800Z 02009KT CAVOK 09/07 Q1018 NOSIG",
      "raw_text": "140800Z 02009KT CAVOK 09/07 Q1018 NOSIG",
      "obsTime": "2026-07-14T08:00:00Z",
      "source": "linux-noaa-txt",
      "updatedAt": "2026-07-14T08:09:59.633311Z",
      "reportHourUtc": "2026071408",
      "baseExpectedHourUtc": "2026071407",
      "targetHourUtc": "2026071408",
      "expectedHourUtc": "2026071408",
      "freshForExpectedHour": true,
      "error": null
    }
  ]
}
