{
  "generatedAtUtc": "2026-07-21T13:09:59.430797Z",
  "baseExpectedHourUtc": "2026072112",
  "targetHourUtc": "2026072113",
  "expectedHourUtc": "2026072113",
  "pendingFreshUpdate": false,
  "data": [
    {
      "code": "AEP",
      "label": "Aeroparque",
      "icaoId": "SABE",
      "station_id": "SABE",
      "rawOb": "211300Z 17006KT 120V210 5000 -DZ OVC008 11/09 Q1012 NOSIG",
      "raw_text": "211300Z 17006KT 120V210 5000 -DZ OVC008 11/09 Q1012 NOSIG",
      "obsTime": "2026-07-21T13:00:00Z",
      "source": "linux-noaa-txt",
      "updatedAt": "2026-07-21T13:09:59.430797Z",
      "reportHourUtc": "2026072113",
      "baseExpectedHourUtc": "2026072112",
      "targetHourUtc": "2026072113",
      "expectedHourUtc": "2026072113",
      "freshForExpectedHour": true,
      "error": null
    },
    {
      "code": "EZE",
      "label": "Ezeiza",
      "icaoId": "SAEZ",
      "station_id": "SAEZ",
      "rawOb": "211300Z 17008KT 5000 -DZ OVC005 11/10 Q1012 NOSIG",
      "raw_text": "211300Z 17008KT 5000 -DZ OVC005 11/10 Q1012 NOSIG",
      "obsTime": "2026-07-21T13:00:00Z",
      "source": "linux-noaa-txt",
      "updatedAt": "2026-07-21T13:09:59.430797Z",
      "reportHourUtc": "2026072113",
      "baseExpectedHourUtc": "2026072112",
      "targetHourUtc": "2026072113",
      "expectedHourUtc": "2026072113",
      "freshForExpectedHour": true,
      "error": null
    }
  ]
}
