{
  "generatedAtUtc": "2026-07-12T01:09:59.985521Z",
  "baseExpectedHourUtc": "2026071200",
  "targetHourUtc": "2026071201",
  "expectedHourUtc": "2026071201",
  "pendingFreshUpdate": false,
  "data": [
    {
      "code": "AEP",
      "label": "Aeroparque",
      "icaoId": "SABE",
      "station_id": "SABE",
      "rawOb": "120100Z 19006KT 150V240 9999 BKN012 OVC020 11/08 Q1020 NOSIG",
      "raw_text": "120100Z 19006KT 150V240 9999 BKN012 OVC020 11/08 Q1020 NOSIG",
      "obsTime": "2026-07-12T01:00:00Z",
      "source": "linux-noaa-txt",
      "updatedAt": "2026-07-12T01:09:59.985521Z",
      "reportHourUtc": "2026071201",
      "baseExpectedHourUtc": "2026071200",
      "targetHourUtc": "2026071201",
      "expectedHourUtc": "2026071201",
      "freshForExpectedHour": true,
      "error": null
    },
    {
      "code": "EZE",
      "label": "Ezeiza",
      "icaoId": "SAEZ",
      "station_id": "SAEZ",
      "rawOb": "120100Z 23004KT 9000 MIFG SCT015 BKN041 08/08 Q1020 NOSIG",
      "raw_text": "120100Z 23004KT 9000 MIFG SCT015 BKN041 08/08 Q1020 NOSIG",
      "obsTime": "2026-07-12T01:00:00Z",
      "source": "linux-noaa-txt",
      "updatedAt": "2026-07-12T01:09:59.985521Z",
      "reportHourUtc": "2026071201",
      "baseExpectedHourUtc": "2026071200",
      "targetHourUtc": "2026071201",
      "expectedHourUtc": "2026071201",
      "freshForExpectedHour": true,
      "error": null
    }
  ]
}
