{
  "generatedAtUtc": "2026-07-19T15:11:02.481988Z",
  "baseExpectedHourUtc": "2026071915",
  "targetHourUtc": "2026071915",
  "expectedHourUtc": "2026071915",
  "pendingFreshUpdate": false,
  "data": [
    {
      "code": "AEP",
      "label": "Aeroparque",
      "icaoId": "SABE",
      "station_id": "SABE",
      "rawOb": "191500Z 16011KT 120V200 3500 DZ FEW010 BKN013 OVC031 09/07 Q1005 BECMG 9999 SCT015 BKN020",
      "raw_text": "191500Z 16011KT 120V200 3500 DZ FEW010 BKN013 OVC031 09/07 Q1005 BECMG 9999 SCT015 BKN020",
      "obsTime": "2026-07-19T15:00:00Z",
      "source": "linux-noaa-txt",
      "updatedAt": "2026-07-19T15:11:02.481988Z",
      "reportHourUtc": "2026071915",
      "baseExpectedHourUtc": "2026071915",
      "targetHourUtc": "2026071915",
      "expectedHourUtc": "2026071915",
      "freshForExpectedHour": true,
      "error": null
    },
    {
      "code": "EZE",
      "label": "Ezeiza",
      "icaoId": "SAEZ",
      "station_id": "SAEZ",
      "rawOb": "191500Z 17014KT 9000 -RA SCT022 BKN027 10/07 Q1005 TEMPO 5000 -RADZ",
      "raw_text": "191500Z 17014KT 9000 -RA SCT022 BKN027 10/07 Q1005 TEMPO 5000 -RADZ",
      "obsTime": "2026-07-19T15:00:00Z",
      "source": "linux-noaa-txt",
      "updatedAt": "2026-07-19T15:11:02.481988Z",
      "reportHourUtc": "2026071915",
      "baseExpectedHourUtc": "2026071915",
      "targetHourUtc": "2026071915",
      "expectedHourUtc": "2026071915",
      "freshForExpectedHour": true,
      "error": null
    }
  ]
}
