{
  "generatedAtUtc": "2026-07-11T04:09:59.353316Z",
  "expectedHourUtc": "2026071103",
  "pendingFreshUpdate": false,
  "data": [
    {
      "code": "AEP",
      "label": "Aeroparque",
      "icaoId": "SABE",
      "station_id": "SABE",
      "rawOb": "110400Z VRB02KT 7000 NSC 12/10 Q1016 NOSIG",
      "raw_text": "110400Z VRB02KT 7000 NSC 12/10 Q1016 NOSIG",
      "obsTime": "2026-07-11T04:00:00Z",
      "source": "linux-noaa-txt",
      "updatedAt": "2026-07-11T04:09:59.353316Z",
      "reportHourUtc": "2026071104",
      "expectedHourUtc": "2026071103",
      "freshForExpectedHour": true,
      "error": null
    },
    {
      "code": "EZE",
      "label": "Ezeiza",
      "icaoId": "SAEZ",
      "station_id": "SAEZ",
      "rawOb": "110400Z 18003KT 9999 OVC004 10/10 Q1016 NOSIG",
      "raw_text": "110400Z 18003KT 9999 OVC004 10/10 Q1016 NOSIG",
      "obsTime": "2026-07-11T04:00:00Z",
      "source": "linux-noaa-txt",
      "updatedAt": "2026-07-11T04:09:59.353316Z",
      "reportHourUtc": "2026071104",
      "expectedHourUtc": "2026071103",
      "freshForExpectedHour": true,
      "error": null
    }
  ]
}
