{
  "generatedAtUtc": "2026-07-21T16:10:00.013693Z",
  "baseExpectedHourUtc": "2026072116",
  "targetHourUtc": "2026072116",
  "expectedHourUtc": "2026072116",
  "pendingFreshUpdate": false,
  "data": [
    {
      "code": "AEP",
      "label": "Aeroparque",
      "icaoId": "SABE",
      "station_id": "SABE",
      "rawOb": "211600Z 16006KT 130V210 8000 -DZ OVC009 12/10 Q1013 NOSIG",
      "raw_text": "211600Z 16006KT 130V210 8000 -DZ OVC009 12/10 Q1013 NOSIG",
      "obsTime": "2026-07-21T16:00:00Z",
      "source": "linux-noaa-txt",
      "updatedAt": "2026-07-21T16:10:00.013693Z",
      "reportHourUtc": "2026072116",
      "baseExpectedHourUtc": "2026072116",
      "targetHourUtc": "2026072116",
      "expectedHourUtc": "2026072116",
      "freshForExpectedHour": true,
      "error": null
    },
    {
      "code": "EZE",
      "label": "Ezeiza",
      "icaoId": "SAEZ",
      "station_id": "SAEZ",
      "rawOb": "211600Z 14009KT 7000 -DZ BKN008 OVC012 12/10 Q1012 NOSIG",
      "raw_text": "211600Z 14009KT 7000 -DZ BKN008 OVC012 12/10 Q1012 NOSIG",
      "obsTime": "2026-07-21T16:00:00Z",
      "source": "linux-noaa-txt",
      "updatedAt": "2026-07-21T16:10:00.013693Z",
      "reportHourUtc": "2026072116",
      "baseExpectedHourUtc": "2026072116",
      "targetHourUtc": "2026072116",
      "expectedHourUtc": "2026072116",
      "freshForExpectedHour": true,
      "error": null
    }
  ]
}
