{
  "generatedAtUtc": "2026-07-21T15:09:59.911465Z",
  "baseExpectedHourUtc": "2026072114",
  "targetHourUtc": "2026072115",
  "expectedHourUtc": "2026072115",
  "pendingFreshUpdate": false,
  "data": [
    {
      "code": "AEP",
      "label": "Aeroparque",
      "icaoId": "SABE",
      "station_id": "SABE",
      "rawOb": "211500Z 17007KT 130V200 5000 -DZ BR OVC008 12/10 Q1012 NOSIG",
      "raw_text": "211500Z 17007KT 130V200 5000 -DZ BR OVC008 12/10 Q1012 NOSIG",
      "obsTime": "2026-07-21T15:00:00Z",
      "source": "linux-noaa-txt",
      "updatedAt": "2026-07-21T15:09:59.911465Z",
      "reportHourUtc": "2026072115",
      "baseExpectedHourUtc": "2026072114",
      "targetHourUtc": "2026072115",
      "expectedHourUtc": "2026072115",
      "freshForExpectedHour": true,
      "error": null
    },
    {
      "code": "EZE",
      "label": "Ezeiza",
      "icaoId": "SAEZ",
      "station_id": "SAEZ",
      "rawOb": "211500Z 16008KT 9000 -DZ BKN007 OVC010 11/11 Q1012 NOSIG",
      "raw_text": "211500Z 16008KT 9000 -DZ BKN007 OVC010 11/11 Q1012 NOSIG",
      "obsTime": "2026-07-21T15:00:00Z",
      "source": "linux-noaa-txt",
      "updatedAt": "2026-07-21T15:09:59.911465Z",
      "reportHourUtc": "2026072115",
      "baseExpectedHourUtc": "2026072114",
      "targetHourUtc": "2026072115",
      "expectedHourUtc": "2026072115",
      "freshForExpectedHour": true,
      "error": null
    }
  ]
}
