{
  "generatedAtUtc": "2026-07-19T00:09:59.510181Z",
  "baseExpectedHourUtc": "2026071823",
  "targetHourUtc": "2026071900",
  "expectedHourUtc": "2026071900",
  "pendingFreshUpdate": false,
  "data": [
    {
      "code": "AEP",
      "label": "Aeroparque",
      "icaoId": "SABE",
      "station_id": "SABE",
      "rawOb": "190000Z 12014KT 4000 BR OVC006 14/12 Q1004 NOSIG",
      "raw_text": "190000Z 12014KT 4000 BR OVC006 14/12 Q1004 NOSIG",
      "obsTime": "2026-07-19T00:00:00Z",
      "source": "linux-noaa-txt",
      "updatedAt": "2026-07-19T00:09:59.510181Z",
      "reportHourUtc": "2026071900",
      "baseExpectedHourUtc": "2026071823",
      "targetHourUtc": "2026071900",
      "expectedHourUtc": "2026071900",
      "freshForExpectedHour": true,
      "error": null
    },
    {
      "code": "EZE",
      "label": "Ezeiza",
      "icaoId": "SAEZ",
      "station_id": "SAEZ",
      "rawOb": "190000Z 14009KT 8000 OVC007 14/14 Q1003 TEMPO 0800 DZ BR OVC003",
      "raw_text": "190000Z 14009KT 8000 OVC007 14/14 Q1003 TEMPO 0800 DZ BR OVC003",
      "obsTime": "2026-07-19T00:00:00Z",
      "source": "linux-noaa-txt",
      "updatedAt": "2026-07-19T00:09:59.510181Z",
      "reportHourUtc": "2026071900",
      "baseExpectedHourUtc": "2026071823",
      "targetHourUtc": "2026071900",
      "expectedHourUtc": "2026071900",
      "freshForExpectedHour": true,
      "error": null
    }
  ]
}
