{
  "generatedAtUtc": "2026-07-14T05:10:00.017492Z",
  "baseExpectedHourUtc": "2026071405",
  "targetHourUtc": "2026071405",
  "expectedHourUtc": "2026071405",
  "pendingFreshUpdate": false,
  "data": [
    {
      "code": "AEP",
      "label": "Aeroparque",
      "icaoId": "SABE",
      "station_id": "SABE",
      "rawOb": "140500Z 01011KT 9999 SCT010 BKN200 09/07 Q1020 NOSIG",
      "raw_text": "140500Z 01011KT 9999 SCT010 BKN200 09/07 Q1020 NOSIG",
      "obsTime": "2026-07-14T05:00:00Z",
      "source": "linux-noaa-txt",
      "updatedAt": "2026-07-14T05:10:00.017492Z",
      "reportHourUtc": "2026071405",
      "baseExpectedHourUtc": "2026071405",
      "targetHourUtc": "2026071405",
      "expectedHourUtc": "2026071405",
      "freshForExpectedHour": true,
      "error": null
    },
    {
      "code": "EZE",
      "label": "Ezeiza",
      "icaoId": "SAEZ",
      "station_id": "SAEZ",
      "rawOb": "140500Z 02007KT CAVOK 09/07 Q1020 NOSIG",
      "raw_text": "140500Z 02007KT CAVOK 09/07 Q1020 NOSIG",
      "obsTime": "2026-07-14T05:00:00Z",
      "source": "linux-noaa-txt",
      "updatedAt": "2026-07-14T05:10:00.017492Z",
      "reportHourUtc": "2026071405",
      "baseExpectedHourUtc": "2026071405",
      "targetHourUtc": "2026071405",
      "expectedHourUtc": "2026071405",
      "freshForExpectedHour": true,
      "error": null
    }
  ]
}
