{
  "generatedAtUtc": "2026-07-22T20:09:59.449501Z",
  "baseExpectedHourUtc": "2026072219",
  "targetHourUtc": "2026072220",
  "expectedHourUtc": "2026072220",
  "pendingFreshUpdate": false,
  "data": [
    {
      "code": "AEP",
      "label": "Aeroparque",
      "icaoId": "SABE",
      "station_id": "SABE",
      "rawOb": "222000Z 11011KT 9999 BKN033 12/09 Q1020 NOSIG",
      "raw_text": "222000Z 11011KT 9999 BKN033 12/09 Q1020 NOSIG",
      "obsTime": "2026-07-22T20:00:00Z",
      "source": "linux-noaa-txt",
      "updatedAt": "2026-07-22T20:09:59.449501Z",
      "reportHourUtc": "2026072220",
      "baseExpectedHourUtc": "2026072219",
      "targetHourUtc": "2026072220",
      "expectedHourUtc": "2026072220",
      "freshForExpectedHour": true,
      "error": null
    },
    {
      "code": "EZE",
      "label": "Ezeiza",
      "icaoId": "SAEZ",
      "station_id": "SAEZ",
      "rawOb": "222000Z 15007KT 9999 BKN026 13/08 Q1020 NOSIG",
      "raw_text": "222000Z 15007KT 9999 BKN026 13/08 Q1020 NOSIG",
      "obsTime": "2026-07-22T20:00:00Z",
      "source": "linux-noaa-txt",
      "updatedAt": "2026-07-22T20:09:59.449501Z",
      "reportHourUtc": "2026072220",
      "baseExpectedHourUtc": "2026072219",
      "targetHourUtc": "2026072220",
      "expectedHourUtc": "2026072220",
      "freshForExpectedHour": true,
      "error": null
    }
  ]
}
