{
  "generatedAtUtc": "2026-07-16T11:09:59.825485Z",
  "baseExpectedHourUtc": "2026071610",
  "targetHourUtc": "2026071611",
  "expectedHourUtc": "2026071611",
  "pendingFreshUpdate": false,
  "data": [
    {
      "code": "AEP",
      "label": "Aeroparque",
      "icaoId": "SABE",
      "station_id": "SABE",
      "rawOb": "161100Z 08004KT CAVOK 15/12 Q1006 NOSIG",
      "raw_text": "161100Z 08004KT CAVOK 15/12 Q1006 NOSIG",
      "obsTime": "2026-07-16T11:00:00Z",
      "source": "linux-noaa-txt",
      "updatedAt": "2026-07-16T11:09:59.825485Z",
      "reportHourUtc": "2026071611",
      "baseExpectedHourUtc": "2026071610",
      "targetHourUtc": "2026071611",
      "expectedHourUtc": "2026071611",
      "freshForExpectedHour": true,
      "error": null
    },
    {
      "code": "EZE",
      "label": "Ezeiza",
      "icaoId": "SAEZ",
      "station_id": "SAEZ",
      "rawOb": "161100Z 05006KT CAVOK 17/12 Q1005 NOSIG",
      "raw_text": "161100Z 05006KT CAVOK 17/12 Q1005 NOSIG",
      "obsTime": "2026-07-16T11:00:00Z",
      "source": "linux-noaa-txt",
      "updatedAt": "2026-07-16T11:09:59.825485Z",
      "reportHourUtc": "2026071611",
      "baseExpectedHourUtc": "2026071610",
      "targetHourUtc": "2026071611",
      "expectedHourUtc": "2026071611",
      "freshForExpectedHour": true,
      "error": null
    }
  ]
}
