{
  "generatedAtUtc": "2026-07-16T17:09:59.137772Z",
  "baseExpectedHourUtc": "2026071616",
  "targetHourUtc": "2026071617",
  "expectedHourUtc": "2026071617",
  "pendingFreshUpdate": false,
  "data": [
    {
      "code": "AEP",
      "label": "Aeroparque",
      "icaoId": "SABE",
      "station_id": "SABE",
      "rawOb": "161700Z 05003KT 360V100 CAVOK 19/13 Q1001 NOSIG",
      "raw_text": "161700Z 05003KT 360V100 CAVOK 19/13 Q1001 NOSIG",
      "obsTime": "2026-07-16T17:00:00Z",
      "source": "linux-noaa-txt",
      "updatedAt": "2026-07-16T17:09:59.137772Z",
      "reportHourUtc": "2026071617",
      "baseExpectedHourUtc": "2026071616",
      "targetHourUtc": "2026071617",
      "expectedHourUtc": "2026071617",
      "freshForExpectedHour": true,
      "error": null
    },
    {
      "code": "EZE",
      "label": "Ezeiza",
      "icaoId": "SAEZ",
      "station_id": "SAEZ",
      "rawOb": "161700Z 03009KT CAVOK 22/12 Q1001 NOSIG",
      "raw_text": "161700Z 03009KT CAVOK 22/12 Q1001 NOSIG",
      "obsTime": "2026-07-16T17:00:00Z",
      "source": "linux-noaa-txt",
      "updatedAt": "2026-07-16T17:09:59.137772Z",
      "reportHourUtc": "2026071617",
      "baseExpectedHourUtc": "2026071616",
      "targetHourUtc": "2026071617",
      "expectedHourUtc": "2026071617",
      "freshForExpectedHour": true,
      "error": null
    }
  ]
}
