{
  "generatedAtUtc": "2026-07-18T12:09:59.945554Z",
  "baseExpectedHourUtc": "2026071811",
  "targetHourUtc": "2026071812",
  "expectedHourUtc": "2026071812",
  "pendingFreshUpdate": false,
  "data": [
    {
      "code": "AEP",
      "label": "Aeroparque",
      "icaoId": "SABE",
      "station_id": "SABE",
      "rawOb": "181200Z 15008KT 110V220 3000 -DZ OVC003 15/14 Q1000 TEMPO 4000 -RADZ",
      "raw_text": "181200Z 15008KT 110V220 3000 -DZ OVC003 15/14 Q1000 TEMPO 4000 -RADZ",
      "obsTime": "2026-07-18T12:00:00Z",
      "source": "linux-noaa-txt",
      "updatedAt": "2026-07-18T12:09:59.945554Z",
      "reportHourUtc": "2026071812",
      "baseExpectedHourUtc": "2026071811",
      "targetHourUtc": "2026071812",
      "expectedHourUtc": "2026071812",
      "freshForExpectedHour": true,
      "error": null
    },
    {
      "code": "EZE",
      "label": "Ezeiza",
      "icaoId": "SAEZ",
      "station_id": "SAEZ",
      "rawOb": "181200Z 12010KT 3000 BR OVC004 15/15 Q1000 TEMPO 2000 -DZ BR OVC004",
      "raw_text": "181200Z 12010KT 3000 BR OVC004 15/15 Q1000 TEMPO 2000 -DZ BR OVC004",
      "obsTime": "2026-07-18T12:00:00Z",
      "source": "linux-noaa-txt",
      "updatedAt": "2026-07-18T12:09:59.945554Z",
      "reportHourUtc": "2026071812",
      "baseExpectedHourUtc": "2026071811",
      "targetHourUtc": "2026071812",
      "expectedHourUtc": "2026071812",
      "freshForExpectedHour": true,
      "error": null
    }
  ]
}
