{
  "generatedAtUtc": "2026-07-19T06:09:59.568358Z",
  "baseExpectedHourUtc": "2026071905",
  "targetHourUtc": "2026071906",
  "expectedHourUtc": "2026071906",
  "pendingFreshUpdate": false,
  "data": [
    {
      "code": "AEP",
      "label": "Aeroparque",
      "icaoId": "SABE",
      "station_id": "SABE",
      "rawOb": "190600Z 15008KT 130V210 4000 -DZ BR OVC007 11/10 Q1003 NOSIG",
      "raw_text": "190600Z 15008KT 130V210 4000 -DZ BR OVC007 11/10 Q1003 NOSIG",
      "obsTime": "2026-07-19T06:00:00Z",
      "source": "linux-noaa-txt",
      "updatedAt": "2026-07-19T06:09:59.568358Z",
      "reportHourUtc": "2026071906",
      "baseExpectedHourUtc": "2026071905",
      "targetHourUtc": "2026071906",
      "expectedHourUtc": "2026071906",
      "freshForExpectedHour": true,
      "error": null
    },
    {
      "code": "EZE",
      "label": "Ezeiza",
      "icaoId": "SAEZ",
      "station_id": "SAEZ",
      "rawOb": "190600Z 18007KT 3000 -DZ BR OVC008 10/09 Q1003 NOSIG",
      "raw_text": "190600Z 18007KT 3000 -DZ BR OVC008 10/09 Q1003 NOSIG",
      "obsTime": "2026-07-19T06:00:00Z",
      "source": "linux-noaa-txt",
      "updatedAt": "2026-07-19T06:09:59.568358Z",
      "reportHourUtc": "2026071906",
      "baseExpectedHourUtc": "2026071905",
      "targetHourUtc": "2026071906",
      "expectedHourUtc": "2026071906",
      "freshForExpectedHour": true,
      "error": null
    }
  ]
}
