{
  "generatedAtUtc": "2026-07-16T15:09:59.406323Z",
  "baseExpectedHourUtc": "2026071614",
  "targetHourUtc": "2026071615",
  "expectedHourUtc": "2026071615",
  "pendingFreshUpdate": false,
  "data": [
    {
      "code": "AEP",
      "label": "Aeroparque",
      "icaoId": "SABE",
      "station_id": "SABE",
      "rawOb": "161500Z 09004KT 050V110 CAVOK 16/12 Q1005 NOSIG",
      "raw_text": "161500Z 09004KT 050V110 CAVOK 16/12 Q1005 NOSIG",
      "obsTime": "2026-07-16T15:00:00Z",
      "source": "linux-noaa-txt",
      "updatedAt": "2026-07-16T15:09:59.406323Z",
      "reportHourUtc": "2026071615",
      "baseExpectedHourUtc": "2026071614",
      "targetHourUtc": "2026071615",
      "expectedHourUtc": "2026071615",
      "freshForExpectedHour": true,
      "error": null
    },
    {
      "code": "EZE",
      "label": "Ezeiza",
      "icaoId": "SAEZ",
      "station_id": "SAEZ",
      "rawOb": "161500Z 02012KT CAVOK 20/12 Q1004 NOSIG",
      "raw_text": "161500Z 02012KT CAVOK 20/12 Q1004 NOSIG",
      "obsTime": "2026-07-16T15:00:00Z",
      "source": "linux-noaa-txt",
      "updatedAt": "2026-07-16T15:09:59.406323Z",
      "reportHourUtc": "2026071615",
      "baseExpectedHourUtc": "2026071614",
      "targetHourUtc": "2026071615",
      "expectedHourUtc": "2026071615",
      "freshForExpectedHour": true,
      "error": null
    }
  ]
}
