{
  "generatedAtUtc": "2026-07-19T08:09:59.553364Z",
  "baseExpectedHourUtc": "2026071907",
  "targetHourUtc": "2026071908",
  "expectedHourUtc": "2026071908",
  "pendingFreshUpdate": false,
  "data": [
    {
      "code": "AEP",
      "label": "Aeroparque",
      "icaoId": "SABE",
      "station_id": "SABE",
      "rawOb": "190800Z 17008KT 130V210 6000 -DZ OVC006 11/10 Q1003 NOSIG",
      "raw_text": "190800Z 17008KT 130V210 6000 -DZ OVC006 11/10 Q1003 NOSIG",
      "obsTime": "2026-07-19T08:00:00Z",
      "source": "linux-noaa-txt",
      "updatedAt": "2026-07-19T08:09:59.553364Z",
      "reportHourUtc": "2026071908",
      "baseExpectedHourUtc": "2026071907",
      "targetHourUtc": "2026071908",
      "expectedHourUtc": "2026071908",
      "freshForExpectedHour": true,
      "error": null
    },
    {
      "code": "EZE",
      "label": "Ezeiza",
      "icaoId": "SAEZ",
      "station_id": "SAEZ",
      "rawOb": "190800Z 17009KT 3000 DZ BR OVC005 10/09 Q1003 TEMPO 5000 -TSRA OVC005",
      "raw_text": "190800Z 17009KT 3000 DZ BR OVC005 10/09 Q1003 TEMPO 5000 -TSRA OVC005",
      "obsTime": "2026-07-19T08:00:00Z",
      "source": "linux-noaa-txt",
      "updatedAt": "2026-07-19T08:09:59.553364Z",
      "reportHourUtc": "2026071908",
      "baseExpectedHourUtc": "2026071907",
      "targetHourUtc": "2026071908",
      "expectedHourUtc": "2026071908",
      "freshForExpectedHour": true,
      "error": null
    }
  ]
}
