{
  "generatedAtUtc": "2026-07-18T21:09:59.329825Z",
  "baseExpectedHourUtc": "2026071820",
  "targetHourUtc": "2026071821",
  "expectedHourUtc": "2026071821",
  "pendingFreshUpdate": false,
  "data": [
    {
      "code": "AEP",
      "label": "Aeroparque",
      "icaoId": "SABE",
      "station_id": "SABE",
      "rawOb": "182100Z 16005KT 120V200 4000 BR OVC007 15/13 Q1002 NOSIG",
      "raw_text": "182100Z 16005KT 120V200 4000 BR OVC007 15/13 Q1002 NOSIG",
      "obsTime": "2026-07-18T21:00:00Z",
      "source": "linux-noaa-txt",
      "updatedAt": "2026-07-18T21:09:59.329825Z",
      "reportHourUtc": "2026071821",
      "baseExpectedHourUtc": "2026071820",
      "targetHourUtc": "2026071821",
      "expectedHourUtc": "2026071821",
      "freshForExpectedHour": true,
      "error": null
    },
    {
      "code": "EZE",
      "label": "Ezeiza",
      "icaoId": "SAEZ",
      "station_id": "SAEZ",
      "rawOb": "182100Z 16007KT 1500 -DZ BR OVC004 14/14 Q1002 TEMPO 16007KT 1200 DZ BR OVC004",
      "raw_text": "182100Z 16007KT 1500 -DZ BR OVC004 14/14 Q1002 TEMPO 16007KT 1200 DZ BR OVC004",
      "obsTime": "2026-07-18T21:00:00Z",
      "source": "linux-noaa-txt",
      "updatedAt": "2026-07-18T21:09:59.329825Z",
      "reportHourUtc": "2026071821",
      "baseExpectedHourUtc": "2026071820",
      "targetHourUtc": "2026071821",
      "expectedHourUtc": "2026071821",
      "freshForExpectedHour": true,
      "error": null
    }
  ]
}
