{
  "generatedAtUtc": "2026-07-18T20:09:59.498476Z",
  "baseExpectedHourUtc": "2026071819",
  "targetHourUtc": "2026071820",
  "expectedHourUtc": "2026071820",
  "pendingFreshUpdate": false,
  "data": [
    {
      "code": "AEP",
      "label": "Aeroparque",
      "icaoId": "SABE",
      "station_id": "SABE",
      "rawOb": "182000Z 13007KT 110V180 4000 BR OVC007 16/14 Q1002 NOSIG",
      "raw_text": "182000Z 13007KT 110V180 4000 BR OVC007 16/14 Q1002 NOSIG",
      "obsTime": "2026-07-18T20:00:00Z",
      "source": "linux-noaa-txt",
      "updatedAt": "2026-07-18T20:09:59.498476Z",
      "reportHourUtc": "2026071820",
      "baseExpectedHourUtc": "2026071819",
      "targetHourUtc": "2026071820",
      "expectedHourUtc": "2026071820",
      "freshForExpectedHour": true,
      "error": null
    },
    {
      "code": "EZE",
      "label": "Ezeiza",
      "icaoId": "SAEZ",
      "station_id": "SAEZ",
      "rawOb": "182000Z 16006KT 0800 R11/P2000 -DZ FG OVC003 14/14 Q1002 TEMPO 16006KT 1200 DZ BR OVC004",
      "raw_text": "182000Z 16006KT 0800 R11/P2000 -DZ FG OVC003 14/14 Q1002 TEMPO 16006KT 1200 DZ BR OVC004",
      "obsTime": "2026-07-18T20:00:00Z",
      "source": "linux-noaa-txt",
      "updatedAt": "2026-07-18T20:09:59.498476Z",
      "reportHourUtc": "2026071820",
      "baseExpectedHourUtc": "2026071819",
      "targetHourUtc": "2026071820",
      "expectedHourUtc": "2026071820",
      "freshForExpectedHour": true,
      "error": null
    }
  ]
}
