{
  "generatedAtUtc": "2026-07-11T16:09:59.145376Z",
  "expectedHourUtc": "2026071115",
  "pendingFreshUpdate": false,
  "data": [
    {
      "code": "AEP",
      "label": "Aeroparque",
      "icaoId": "SABE",
      "station_id": "SABE",
      "rawOb": "111600Z 22006KT 130V300 9999 FEW015 BKN080 12/08 Q1018 NOSIG",
      "raw_text": "111600Z 22006KT 130V300 9999 FEW015 BKN080 12/08 Q1018 NOSIG",
      "obsTime": "2026-07-11T16:00:00Z",
      "source": "linux-noaa-txt",
      "updatedAt": "2026-07-11T16:09:59.145376Z",
      "reportHourUtc": "2026071116",
      "expectedHourUtc": "2026071115",
      "freshForExpectedHour": true,
      "error": null
    },
    {
      "code": "EZE",
      "label": "Ezeiza",
      "icaoId": "SAEZ",
      "station_id": "SAEZ",
      "rawOb": "111600Z 23010KT 9999 OVC012 12/09 Q1018 NOSIG",
      "raw_text": "111600Z 23010KT 9999 OVC012 12/09 Q1018 NOSIG",
      "obsTime": "2026-07-11T16:00:00Z",
      "source": "linux-noaa-txt",
      "updatedAt": "2026-07-11T16:09:59.145376Z",
      "reportHourUtc": "2026071116",
      "expectedHourUtc": "2026071115",
      "freshForExpectedHour": true,
      "error": null
    }
  ]
}
