{
  "generatedAtUtc": "2026-07-17T09:09:59.653522Z",
  "baseExpectedHourUtc": "2026071708",
  "targetHourUtc": "2026071709",
  "expectedHourUtc": "2026071709",
  "pendingFreshUpdate": false,
  "data": [
    {
      "code": "AEP",
      "label": "Aeroparque",
      "icaoId": "SABE",
      "station_id": "SABE",
      "rawOb": "170900Z 09006KT CAVOK 19/15 Q0994 NOSIG",
      "raw_text": "170900Z 09006KT CAVOK 19/15 Q0994 NOSIG",
      "obsTime": "2026-07-17T09:00:00Z",
      "source": "linux-noaa-txt",
      "updatedAt": "2026-07-17T09:09:59.653522Z",
      "reportHourUtc": "2026071709",
      "baseExpectedHourUtc": "2026071708",
      "targetHourUtc": "2026071709",
      "expectedHourUtc": "2026071709",
      "freshForExpectedHour": true,
      "error": null
    },
    {
      "code": "EZE",
      "label": "Ezeiza",
      "icaoId": "SAEZ",
      "station_id": "SAEZ",
      "rawOb": "170900Z 04008KT 9999 SCT045 BKN060 BKN200 21/16 Q0994 NOSIG",
      "raw_text": "170900Z 04008KT 9999 SCT045 BKN060 BKN200 21/16 Q0994 NOSIG",
      "obsTime": "2026-07-17T09:00:00Z",
      "source": "linux-noaa-txt",
      "updatedAt": "2026-07-17T09:09:59.653522Z",
      "reportHourUtc": "2026071709",
      "baseExpectedHourUtc": "2026071708",
      "targetHourUtc": "2026071709",
      "expectedHourUtc": "2026071709",
      "freshForExpectedHour": true,
      "error": null
    }
  ]
}
