{
  "generatedAtUtc": "2026-07-23T23:09:59.212983Z",
  "baseExpectedHourUtc": "2026072322",
  "targetHourUtc": "2026072323",
  "expectedHourUtc": "2026072323",
  "pendingFreshUpdate": false,
  "data": [
    {
      "code": "AEP",
      "label": "Aeroparque",
      "icaoId": "SABE",
      "station_id": "SABE",
      "rawOb": "232300Z 01008KT 350V050 9999 BKN043 BKN200 14/10 Q1020 NOSIG",
      "raw_text": "232300Z 01008KT 350V050 9999 BKN043 BKN200 14/10 Q1020 NOSIG",
      "obsTime": "2026-07-23T23:00:00Z",
      "source": "linux-noaa-txt",
      "updatedAt": "2026-07-23T23:09:59.212983Z",
      "reportHourUtc": "2026072323",
      "baseExpectedHourUtc": "2026072322",
      "targetHourUtc": "2026072323",
      "expectedHourUtc": "2026072323",
      "freshForExpectedHour": true,
      "error": null
    },
    {
      "code": "EZE",
      "label": "Ezeiza",
      "icaoId": "SAEZ",
      "station_id": "SAEZ",
      "rawOb": "232300Z 05008KT 9999 SCT032 BKN200 13/10 Q1019 NOSIG",
      "raw_text": "232300Z 05008KT 9999 SCT032 BKN200 13/10 Q1019 NOSIG",
      "obsTime": "2026-07-23T23:00:00Z",
      "source": "linux-noaa-txt",
      "updatedAt": "2026-07-23T23:09:59.212983Z",
      "reportHourUtc": "2026072323",
      "baseExpectedHourUtc": "2026072322",
      "targetHourUtc": "2026072323",
      "expectedHourUtc": "2026072323",
      "freshForExpectedHour": true,
      "error": null
    }
  ]
}
