{
  "generatedAtUtc": "2026-07-12T00:10:00.069604Z",
  "baseExpectedHourUtc": "2026071200",
  "targetHourUtc": "2026071200",
  "expectedHourUtc": "2026071200",
  "pendingFreshUpdate": false,
  "data": [
    {
      "code": "AEP",
      "label": "Aeroparque",
      "icaoId": "SABE",
      "station_id": "SABE",
      "rawOb": "120000Z 22004KT 160V270 9999 BKN008 OVC016 10/09 Q1019 NOSIG",
      "raw_text": "120000Z 22004KT 160V270 9999 BKN008 OVC016 10/09 Q1019 NOSIG",
      "obsTime": "2026-07-12T00:00:00Z",
      "source": "linux-noaa-txt",
      "updatedAt": "2026-07-12T00:10:00.069604Z",
      "reportHourUtc": "2026071200",
      "baseExpectedHourUtc": "2026071200",
      "targetHourUtc": "2026071200",
      "expectedHourUtc": "2026071200",
      "freshForExpectedHour": true,
      "error": null
    },
    {
      "code": "EZE",
      "label": "Ezeiza",
      "icaoId": "SAEZ",
      "station_id": "SAEZ",
      "rawOb": "120000Z 23003KT 9000 MIFG FEW008 SCT017 09/08 Q1019 NOSIG",
      "raw_text": "120000Z 23003KT 9000 MIFG FEW008 SCT017 09/08 Q1019 NOSIG",
      "obsTime": "2026-07-12T00:00:00Z",
      "source": "linux-noaa-txt",
      "updatedAt": "2026-07-12T00:10:00.069604Z",
      "reportHourUtc": "2026071200",
      "baseExpectedHourUtc": "2026071200",
      "targetHourUtc": "2026071200",
      "expectedHourUtc": "2026071200",
      "freshForExpectedHour": true,
      "error": null
    }
  ]
}
