{
  "generatedAtUtc": "2026-07-12T22:09:59.949498Z",
  "baseExpectedHourUtc": "2026071221",
  "targetHourUtc": "2026071222",
  "expectedHourUtc": "2026071222",
  "pendingFreshUpdate": false,
  "data": [
    {
      "code": "AEP",
      "label": "Aeroparque",
      "icaoId": "SABE",
      "station_id": "SABE",
      "rawOb": "122200Z 17003KT 120V260 CAVOK 10/04 Q1025 NOSIG",
      "raw_text": "122200Z 17003KT 120V260 CAVOK 10/04 Q1025 NOSIG",
      "obsTime": "2026-07-12T22:00:00Z",
      "source": "linux-noaa-txt",
      "updatedAt": "2026-07-12T22:09:59.949498Z",
      "reportHourUtc": "2026071222",
      "baseExpectedHourUtc": "2026071221",
      "targetHourUtc": "2026071222",
      "expectedHourUtc": "2026071222",
      "freshForExpectedHour": true,
      "error": null
    },
    {
      "code": "EZE",
      "label": "Ezeiza",
      "icaoId": "SAEZ",
      "station_id": "SAEZ",
      "rawOb": "122200Z 20002KT CAVOK 05/03 Q1025 NOSIG",
      "raw_text": "122200Z 20002KT CAVOK 05/03 Q1025 NOSIG",
      "obsTime": "2026-07-12T22:00:00Z",
      "source": "linux-noaa-txt",
      "updatedAt": "2026-07-12T22:09:59.949498Z",
      "reportHourUtc": "2026071222",
      "baseExpectedHourUtc": "2026071221",
      "targetHourUtc": "2026071222",
      "expectedHourUtc": "2026071222",
      "freshForExpectedHour": true,
      "error": null
    }
  ]
}
