{
  "generatedAtUtc": "2026-07-22T00:09:59.557290Z",
  "baseExpectedHourUtc": "2026072123",
  "targetHourUtc": "2026072200",
  "expectedHourUtc": "2026072200",
  "pendingFreshUpdate": false,
  "data": [
    {
      "code": "AEP",
      "label": "Aeroparque",
      "icaoId": "SABE",
      "station_id": "SABE",
      "rawOb": "220000Z 17006KT 130V230 8000 OVC007 12/11 Q1015 NOSIG",
      "raw_text": "220000Z 17006KT 130V230 8000 OVC007 12/11 Q1015 NOSIG",
      "obsTime": "2026-07-22T00:00:00Z",
      "source": "linux-noaa-txt",
      "updatedAt": "2026-07-22T00:09:59.557290Z",
      "reportHourUtc": "2026072200",
      "baseExpectedHourUtc": "2026072123",
      "targetHourUtc": "2026072200",
      "expectedHourUtc": "2026072200",
      "freshForExpectedHour": true,
      "error": null
    },
    {
      "code": "EZE",
      "label": "Ezeiza",
      "icaoId": "SAEZ",
      "station_id": "SAEZ",
      "rawOb": "220000Z 17005KT 150V220 9999 OVC010 11/10 Q1015 NOSIG",
      "raw_text": "220000Z 17005KT 150V220 9999 OVC010 11/10 Q1015 NOSIG",
      "obsTime": "2026-07-22T00:00:00Z",
      "source": "linux-noaa-txt",
      "updatedAt": "2026-07-22T00:09:59.557290Z",
      "reportHourUtc": "2026072200",
      "baseExpectedHourUtc": "2026072123",
      "targetHourUtc": "2026072200",
      "expectedHourUtc": "2026072200",
      "freshForExpectedHour": true,
      "error": null
    }
  ]
}
