{
  "generatedAtUtc": "2026-07-23T05:09:59.289764Z",
  "baseExpectedHourUtc": "2026072304",
  "targetHourUtc": "2026072305",
  "expectedHourUtc": "2026072305",
  "pendingFreshUpdate": false,
  "data": [
    {
      "code": "AEP",
      "label": "Aeroparque",
      "icaoId": "SABE",
      "station_id": "SABE",
      "rawOb": "230500Z 14006KT 9999 OVC012 10/08 Q1024 NOSIG",
      "raw_text": "230500Z 14006KT 9999 OVC012 10/08 Q1024 NOSIG",
      "obsTime": "2026-07-23T05:00:00Z",
      "source": "linux-noaa-txt",
      "updatedAt": "2026-07-23T05:09:59.289764Z",
      "reportHourUtc": "2026072305",
      "baseExpectedHourUtc": "2026072304",
      "targetHourUtc": "2026072305",
      "expectedHourUtc": "2026072305",
      "freshForExpectedHour": true,
      "error": null
    },
    {
      "code": "EZE",
      "label": "Ezeiza",
      "icaoId": "SAEZ",
      "station_id": "SAEZ",
      "rawOb": "230500Z 11003KT 9999 OVC014 07/06 Q1023 NOSIG",
      "raw_text": "230500Z 11003KT 9999 OVC014 07/06 Q1023 NOSIG",
      "obsTime": "2026-07-23T05:00:00Z",
      "source": "linux-noaa-txt",
      "updatedAt": "2026-07-23T05:09:59.289764Z",
      "reportHourUtc": "2026072305",
      "baseExpectedHourUtc": "2026072304",
      "targetHourUtc": "2026072305",
      "expectedHourUtc": "2026072305",
      "freshForExpectedHour": true,
      "error": null
    }
  ]
}
