{
  "generatedAtUtc": "2026-07-11T22:09:59.941111Z",
  "baseExpectedHourUtc": "2026071121",
  "targetHourUtc": "2026071122",
  "expectedHourUtc": "2026071122",
  "pendingFreshUpdate": false,
  "data": [
    {
      "code": "AEP",
      "label": "Aeroparque",
      "icaoId": "SABE",
      "station_id": "SABE",
      "rawOb": "112200Z 25006KT 200V320 9999 BKN014 11/08 Q1019 NOSIG",
      "raw_text": "112200Z 25006KT 200V320 9999 BKN014 11/08 Q1019 NOSIG",
      "obsTime": "2026-07-11T22:00:00Z",
      "source": "linux-noaa-txt",
      "updatedAt": "2026-07-11T22:09:59.941111Z",
      "reportHourUtc": "2026071122",
      "baseExpectedHourUtc": "2026071121",
      "targetHourUtc": "2026071122",
      "expectedHourUtc": "2026071122",
      "freshForExpectedHour": true,
      "error": null
    },
    {
      "code": "EZE",
      "label": "Ezeiza",
      "icaoId": "SAEZ",
      "station_id": "SAEZ",
      "rawOb": "112200Z 26008KT 3000 DZ OVC005 10/09 Q1018 NOSIG",
      "raw_text": "112200Z 26008KT 3000 DZ OVC005 10/09 Q1018 NOSIG",
      "obsTime": "2026-07-11T22:00:00Z",
      "source": "linux-noaa-txt",
      "updatedAt": "2026-07-11T22:09:59.941111Z",
      "reportHourUtc": "2026071122",
      "baseExpectedHourUtc": "2026071121",
      "targetHourUtc": "2026071122",
      "expectedHourUtc": "2026071122",
      "freshForExpectedHour": true,
      "error": null
    }
  ]
}
