{
  "generatedAtUtc": "2026-07-11T14:09:59.509714Z",
  "expectedHourUtc": "2026071113",
  "pendingFreshUpdate": false,
  "data": [
    {
      "code": "AEP",
      "label": "Aeroparque",
      "icaoId": "SABE",
      "station_id": "SABE",
      "rawOb": "111400Z VRB02KT 9999 FEW049 BKN080 11/08 Q1019 NOSIG",
      "raw_text": "111400Z VRB02KT 9999 FEW049 BKN080 11/08 Q1019 NOSIG",
      "obsTime": "2026-07-11T14:00:00Z",
      "source": "linux-noaa-txt",
      "updatedAt": "2026-07-11T14:09:59.509714Z",
      "reportHourUtc": "2026071114",
      "expectedHourUtc": "2026071113",
      "freshForExpectedHour": true,
      "error": null
    },
    {
      "code": "EZE",
      "label": "Ezeiza",
      "icaoId": "SAEZ",
      "station_id": "SAEZ",
      "rawOb": "111400Z 27005KT 9999 BKN010 11/10 Q1018 NOSIG",
      "raw_text": "111400Z 27005KT 9999 BKN010 11/10 Q1018 NOSIG",
      "obsTime": "2026-07-11T14:00:00Z",
      "source": "linux-noaa-txt",
      "updatedAt": "2026-07-11T14:09:59.509714Z",
      "reportHourUtc": "2026071114",
      "expectedHourUtc": "2026071113",
      "freshForExpectedHour": true,
      "error": null
    }
  ]
}
