{
  "generatedAtUtc": "2026-07-22T14:09:59.199808Z",
  "baseExpectedHourUtc": "2026072213",
  "targetHourUtc": "2026072214",
  "expectedHourUtc": "2026072214",
  "pendingFreshUpdate": false,
  "data": [
    {
      "code": "AEP",
      "label": "Aeroparque",
      "icaoId": "SABE",
      "station_id": "SABE",
      "rawOb": "221400Z 16006KT 110V210 9999 BKN026 10/06 Q1021 NOSIG",
      "raw_text": "221400Z 16006KT 110V210 9999 BKN026 10/06 Q1021 NOSIG",
      "obsTime": "2026-07-22T14:00:00Z",
      "source": "linux-noaa-txt",
      "updatedAt": "2026-07-22T14:09:59.199808Z",
      "reportHourUtc": "2026072214",
      "baseExpectedHourUtc": "2026072213",
      "targetHourUtc": "2026072214",
      "expectedHourUtc": "2026072214",
      "freshForExpectedHour": true,
      "error": null
    },
    {
      "code": "EZE",
      "label": "Ezeiza",
      "icaoId": "SAEZ",
      "station_id": "SAEZ",
      "rawOb": "221400Z 16006KT 9999 FEW030 SCT050 BKN100 10/07 Q1022 NOSIG",
      "raw_text": "221400Z 16006KT 9999 FEW030 SCT050 BKN100 10/07 Q1022 NOSIG",
      "obsTime": "2026-07-22T14:00:00Z",
      "source": "linux-noaa-txt",
      "updatedAt": "2026-07-22T14:09:59.199808Z",
      "reportHourUtc": "2026072214",
      "baseExpectedHourUtc": "2026072213",
      "targetHourUtc": "2026072214",
      "expectedHourUtc": "2026072214",
      "freshForExpectedHour": true,
      "error": null
    }
  ]
}
