{
  "generatedAtUtc": "2026-07-13T08:09:59.805102Z",
  "baseExpectedHourUtc": "2026071307",
  "targetHourUtc": "2026071308",
  "expectedHourUtc": "2026071308",
  "pendingFreshUpdate": false,
  "data": [
    {
      "code": "AEP",
      "label": "Aeroparque",
      "icaoId": "SABE",
      "station_id": "SABE",
      "rawOb": "130800Z 31005KT 8000 SCT010 06/05 Q1024 NOSIG",
      "raw_text": "130800Z 31005KT 8000 SCT010 06/05 Q1024 NOSIG",
      "obsTime": "2026-07-13T08:00:00Z",
      "source": "linux-noaa-txt",
      "updatedAt": "2026-07-13T08:09:59.805102Z",
      "reportHourUtc": "2026071308",
      "baseExpectedHourUtc": "2026071307",
      "targetHourUtc": "2026071308",
      "expectedHourUtc": "2026071308",
      "freshForExpectedHour": true,
      "error": null
    },
    {
      "code": "EZE",
      "label": "Ezeiza",
      "icaoId": "SAEZ",
      "station_id": "SAEZ",
      "rawOb": "130800Z 00000KT 5000 BR NSC M01/M01 Q1024 BECMG 3000 BR",
      "raw_text": "130800Z 00000KT 5000 BR NSC M01/M01 Q1024 BECMG 3000 BR",
      "obsTime": "2026-07-13T08:00:00Z",
      "source": "linux-noaa-txt",
      "updatedAt": "2026-07-13T08:09:59.805102Z",
      "reportHourUtc": "2026071308",
      "baseExpectedHourUtc": "2026071307",
      "targetHourUtc": "2026071308",
      "expectedHourUtc": "2026071308",
      "freshForExpectedHour": true,
      "error": null
    }
  ]
}
