{
  "generatedAtUtc": "2026-07-15T15:09:59.265040Z",
  "baseExpectedHourUtc": "2026071514",
  "targetHourUtc": "2026071515",
  "expectedHourUtc": "2026071515",
  "pendingFreshUpdate": false,
  "data": [
    {
      "code": "AEP",
      "label": "Aeroparque",
      "icaoId": "SABE",
      "station_id": "SABE",
      "rawOb": "151500Z 05003KT 010V090 CAVOK 14/10 Q1013 NOSIG",
      "raw_text": "151500Z 05003KT 010V090 CAVOK 14/10 Q1013 NOSIG",
      "obsTime": "2026-07-15T15:00:00Z",
      "source": "linux-noaa-txt",
      "updatedAt": "2026-07-15T15:09:59.265040Z",
      "reportHourUtc": "2026071515",
      "baseExpectedHourUtc": "2026071514",
      "targetHourUtc": "2026071515",
      "expectedHourUtc": "2026071515",
      "freshForExpectedHour": true,
      "error": null
    },
    {
      "code": "EZE",
      "label": "Ezeiza",
      "icaoId": "SAEZ",
      "station_id": "SAEZ",
      "rawOb": "151500Z 03006KT CAVOK 16/10 Q1012 NOSIG",
      "raw_text": "151500Z 03006KT CAVOK 16/10 Q1012 NOSIG",
      "obsTime": "2026-07-15T15:00:00Z",
      "source": "linux-noaa-txt",
      "updatedAt": "2026-07-15T15:09:59.265040Z",
      "reportHourUtc": "2026071515",
      "baseExpectedHourUtc": "2026071514",
      "targetHourUtc": "2026071515",
      "expectedHourUtc": "2026071515",
      "freshForExpectedHour": true,
      "error": null
    }
  ]
}
