{
  "generatedAtUtc": "2026-07-15T05:09:59.841508Z",
  "baseExpectedHourUtc": "2026071504",
  "targetHourUtc": "2026071505",
  "expectedHourUtc": "2026071505",
  "pendingFreshUpdate": false,
  "data": [
    {
      "code": "AEP",
      "label": "Aeroparque",
      "icaoId": "SABE",
      "station_id": "SABE",
      "rawOb": "150500Z 35005KT 320V030 CAVOK 13/09 Q1014 NOSIG",
      "raw_text": "150500Z 35005KT 320V030 CAVOK 13/09 Q1014 NOSIG",
      "obsTime": "2026-07-15T05:00:00Z",
      "source": "linux-noaa-txt",
      "updatedAt": "2026-07-15T05:09:59.841508Z",
      "reportHourUtc": "2026071505",
      "baseExpectedHourUtc": "2026071504",
      "targetHourUtc": "2026071505",
      "expectedHourUtc": "2026071505",
      "freshForExpectedHour": true,
      "error": null
    },
    {
      "code": "EZE",
      "label": "Ezeiza",
      "icaoId": "SAEZ",
      "station_id": "SAEZ",
      "rawOb": "150500Z 03007KT CAVOK 13/08 Q1013 NOSIG",
      "raw_text": "150500Z 03007KT CAVOK 13/08 Q1013 NOSIG",
      "obsTime": "2026-07-15T05:00:00Z",
      "source": "linux-noaa-txt",
      "updatedAt": "2026-07-15T05:09:59.841508Z",
      "reportHourUtc": "2026071505",
      "baseExpectedHourUtc": "2026071504",
      "targetHourUtc": "2026071505",
      "expectedHourUtc": "2026071505",
      "freshForExpectedHour": true,
      "error": null
    }
  ]
}
