{
  "generatedAtUtc": "2026-07-19T16:09:59.590624Z",
  "baseExpectedHourUtc": "2026071915",
  "targetHourUtc": "2026071916",
  "expectedHourUtc": "2026071916",
  "pendingFreshUpdate": true,
  "data": [
    {
      "code": "AEP",
      "label": "Aeroparque",
      "icaoId": "SABE",
      "station_id": "SABE",
      "rawOb": "191519Z 17009KT 120V210 4000 DZ BKN010 BKN025 OVC032 09/07 Q1006 NOSIG",
      "raw_text": "191519Z 17009KT 120V210 4000 DZ BKN010 BKN025 OVC032 09/07 Q1006 NOSIG",
      "obsTime": "2026-07-19T15:19:00Z",
      "source": "linux-noaa-txt",
      "updatedAt": "2026-07-19T16:09:59.590624Z",
      "reportHourUtc": "2026071915",
      "baseExpectedHourUtc": "2026071915",
      "targetHourUtc": "2026071916",
      "expectedHourUtc": "2026071916",
      "freshForExpectedHour": false,
      "error": "Esperando actualización de 2026071916…"
    },
    {
      "code": "EZE",
      "label": "Ezeiza",
      "icaoId": "SAEZ",
      "station_id": "SAEZ",
      "rawOb": "191600Z 15009KT 7000 -DZ SCT007 OVC013 10/09 Q1005 NOSIG",
      "raw_text": "191600Z 15009KT 7000 -DZ SCT007 OVC013 10/09 Q1005 NOSIG",
      "obsTime": "2026-07-19T16:00:00Z",
      "source": "linux-noaa-txt",
      "updatedAt": "2026-07-19T16:09:59.590624Z",
      "reportHourUtc": "2026071916",
      "baseExpectedHourUtc": "2026071915",
      "targetHourUtc": "2026071916",
      "expectedHourUtc": "2026071916",
      "freshForExpectedHour": true,
      "error": null
    }
  ]
}
