{
  "generatedAtUtc": "2026-07-22T21:09:59.206155Z",
  "baseExpectedHourUtc": "2026072220",
  "targetHourUtc": "2026072221",
  "expectedHourUtc": "2026072221",
  "pendingFreshUpdate": false,
  "data": [
    {
      "code": "AEP",
      "label": "Aeroparque",
      "icaoId": "SABE",
      "station_id": "SABE",
      "rawOb": "222100Z 13008KT 9999 BKN034 12/09 Q1021 NOSIG",
      "raw_text": "222100Z 13008KT 9999 BKN034 12/09 Q1021 NOSIG",
      "obsTime": "2026-07-22T21:00:00Z",
      "source": "linux-noaa-txt",
      "updatedAt": "2026-07-22T21:09:59.206155Z",
      "reportHourUtc": "2026072221",
      "baseExpectedHourUtc": "2026072220",
      "targetHourUtc": "2026072221",
      "expectedHourUtc": "2026072221",
      "freshForExpectedHour": true,
      "error": null
    },
    {
      "code": "EZE",
      "label": "Ezeiza",
      "icaoId": "SAEZ",
      "station_id": "SAEZ",
      "rawOb": "222100Z 15007KT 9999 SCT029 12/07 Q1021 NOSIG",
      "raw_text": "222100Z 15007KT 9999 SCT029 12/07 Q1021 NOSIG",
      "obsTime": "2026-07-22T21:00:00Z",
      "source": "linux-noaa-txt",
      "updatedAt": "2026-07-22T21:09:59.206155Z",
      "reportHourUtc": "2026072221",
      "baseExpectedHourUtc": "2026072220",
      "targetHourUtc": "2026072221",
      "expectedHourUtc": "2026072221",
      "freshForExpectedHour": true,
      "error": null
    }
  ]
}
