{
  "generatedAtUtc": "2026-07-16T16:09:59.406905Z",
  "baseExpectedHourUtc": "2026071615",
  "targetHourUtc": "2026071616",
  "expectedHourUtc": "2026071616",
  "pendingFreshUpdate": false,
  "data": [
    {
      "code": "AEP",
      "label": "Aeroparque",
      "icaoId": "SABE",
      "station_id": "SABE",
      "rawOb": "161600Z 08006KT CAVOK 17/12 Q1003 NOSIG",
      "raw_text": "161600Z 08006KT CAVOK 17/12 Q1003 NOSIG",
      "obsTime": "2026-07-16T16:00:00Z",
      "source": "linux-noaa-txt",
      "updatedAt": "2026-07-16T16:09:59.406905Z",
      "reportHourUtc": "2026071616",
      "baseExpectedHourUtc": "2026071615",
      "targetHourUtc": "2026071616",
      "expectedHourUtc": "2026071616",
      "freshForExpectedHour": true,
      "error": null
    },
    {
      "code": "EZE",
      "label": "Ezeiza",
      "icaoId": "SAEZ",
      "station_id": "SAEZ",
      "rawOb": "161600Z 05009KT CAVOK 20/12 Q1002 NOSIG",
      "raw_text": "161600Z 05009KT CAVOK 20/12 Q1002 NOSIG",
      "obsTime": "2026-07-16T16:00:00Z",
      "source": "linux-noaa-txt",
      "updatedAt": "2026-07-16T16:09:59.406905Z",
      "reportHourUtc": "2026071616",
      "baseExpectedHourUtc": "2026071615",
      "targetHourUtc": "2026071616",
      "expectedHourUtc": "2026071616",
      "freshForExpectedHour": true,
      "error": null
    }
  ]
}
