{
  "generatedAtUtc": "2026-07-24T13:09:59.358087Z",
  "baseExpectedHourUtc": "2026072412",
  "targetHourUtc": "2026072413",
  "expectedHourUtc": "2026072413",
  "pendingFreshUpdate": false,
  "data": [
    {
      "code": "AEP",
      "label": "Aeroparque",
      "icaoId": "SABE",
      "station_id": "SABE",
      "rawOb": "241300Z 03005KT 360V070 9999 SCT010 OVC070 14/11 Q1020 TEMPO 5000 -DZ BKN013",
      "raw_text": "241300Z 03005KT 360V070 9999 SCT010 OVC070 14/11 Q1020 TEMPO 5000 -DZ BKN013",
      "obsTime": "2026-07-24T13:00:00Z",
      "source": "linux-noaa-txt",
      "updatedAt": "2026-07-24T13:09:59.358087Z",
      "reportHourUtc": "2026072413",
      "baseExpectedHourUtc": "2026072412",
      "targetHourUtc": "2026072413",
      "expectedHourUtc": "2026072413",
      "freshForExpectedHour": true,
      "error": null
    },
    {
      "code": "EZE",
      "label": "Ezeiza",
      "icaoId": "SAEZ",
      "station_id": "SAEZ",
      "rawOb": "241300Z 05007KT CAVOK 14/12 Q1019 TEMPO 6000 -DZ BKN015",
      "raw_text": "241300Z 05007KT CAVOK 14/12 Q1019 TEMPO 6000 -DZ BKN015",
      "obsTime": "2026-07-24T13:00:00Z",
      "source": "linux-noaa-txt",
      "updatedAt": "2026-07-24T13:09:59.358087Z",
      "reportHourUtc": "2026072413",
      "baseExpectedHourUtc": "2026072412",
      "targetHourUtc": "2026072413",
      "expectedHourUtc": "2026072413",
      "freshForExpectedHour": true,
      "error": null
    }
  ]
}
