{
  "generatedAtUtc": "2026-07-23T12:09:59.646490Z",
  "baseExpectedHourUtc": "2026072311",
  "targetHourUtc": "2026072312",
  "expectedHourUtc": "2026072312",
  "pendingFreshUpdate": false,
  "data": [
    {
      "code": "AEP",
      "label": "Aeroparque",
      "icaoId": "SABE",
      "station_id": "SABE",
      "rawOb": "231200Z 07007KT 9999 BKN008 11/09 Q1023 NOSIG",
      "raw_text": "231200Z 07007KT 9999 BKN008 11/09 Q1023 NOSIG",
      "obsTime": "2026-07-23T12:00:00Z",
      "source": "linux-noaa-txt",
      "updatedAt": "2026-07-23T12:09:59.646490Z",
      "reportHourUtc": "2026072312",
      "baseExpectedHourUtc": "2026072311",
      "targetHourUtc": "2026072312",
      "expectedHourUtc": "2026072312",
      "freshForExpectedHour": true,
      "error": null
    },
    {
      "code": "EZE",
      "label": "Ezeiza",
      "icaoId": "SAEZ",
      "station_id": "SAEZ",
      "rawOb": "231200Z 11004KT 9000 SCT013 BKN200 09/08 Q1023 TEMPO 3000 BR OVC010",
      "raw_text": "231200Z 11004KT 9000 SCT013 BKN200 09/08 Q1023 TEMPO 3000 BR OVC010",
      "obsTime": "2026-07-23T12:00:00Z",
      "source": "linux-noaa-txt",
      "updatedAt": "2026-07-23T12:09:59.646490Z",
      "reportHourUtc": "2026072312",
      "baseExpectedHourUtc": "2026072311",
      "targetHourUtc": "2026072312",
      "expectedHourUtc": "2026072312",
      "freshForExpectedHour": true,
      "error": null
    }
  ]
}
