{
  "generatedAtUtc": "2026-07-17T13:11:02.125814Z",
  "baseExpectedHourUtc": "2026071713",
  "targetHourUtc": "2026071713",
  "expectedHourUtc": "2026071713",
  "pendingFreshUpdate": false,
  "data": [
    {
      "code": "AEP",
      "label": "Aeroparque",
      "icaoId": "SABE",
      "station_id": "SABE",
      "rawOb": "171300Z 32006KT 290V350 9999 BKN042 21/16 Q0994 NOSIG",
      "raw_text": "171300Z 32006KT 290V350 9999 BKN042 21/16 Q0994 NOSIG",
      "obsTime": "2026-07-17T13:00:00Z",
      "source": "linux-noaa-txt",
      "updatedAt": "2026-07-17T13:11:02.125814Z",
      "reportHourUtc": "2026071713",
      "baseExpectedHourUtc": "2026071713",
      "targetHourUtc": "2026071713",
      "expectedHourUtc": "2026071713",
      "freshForExpectedHour": true,
      "error": null
    },
    {
      "code": "EZE",
      "label": "Ezeiza",
      "icaoId": "SAEZ",
      "station_id": "SAEZ",
      "rawOb": "171300Z 04004KT 8000 SCT038 SCT050 OVC200 20/19 Q0994 NOSIG",
      "raw_text": "171300Z 04004KT 8000 SCT038 SCT050 OVC200 20/19 Q0994 NOSIG",
      "obsTime": "2026-07-17T13:00:00Z",
      "source": "linux-noaa-txt",
      "updatedAt": "2026-07-17T13:11:02.125814Z",
      "reportHourUtc": "2026071713",
      "baseExpectedHourUtc": "2026071713",
      "targetHourUtc": "2026071713",
      "expectedHourUtc": "2026071713",
      "freshForExpectedHour": true,
      "error": null
    }
  ]
}
