{
  "generatedAtUtc": "2026-07-11T20:09:59.685795Z",
  "baseExpectedHourUtc": "2026071119",
  "targetHourUtc": "2026071120",
  "expectedHourUtc": "2026071120",
  "pendingFreshUpdate": false,
  "data": [
    {
      "code": "AEP",
      "label": "Aeroparque",
      "icaoId": "SABE",
      "station_id": "SABE",
      "rawOb": "112000Z 24005KT 200V300 9999 OVC017 12/08 Q1018 NOSIG",
      "raw_text": "112000Z 24005KT 200V300 9999 OVC017 12/08 Q1018 NOSIG",
      "obsTime": "2026-07-11T20:00:00Z",
      "source": "linux-noaa-txt",
      "updatedAt": "2026-07-11T20:09:59.685795Z",
      "reportHourUtc": "2026071120",
      "baseExpectedHourUtc": "2026071119",
      "targetHourUtc": "2026071120",
      "expectedHourUtc": "2026071120",
      "freshForExpectedHour": true,
      "error": null
    },
    {
      "code": "EZE",
      "label": "Ezeiza",
      "icaoId": "SAEZ",
      "station_id": "SAEZ",
      "rawOb": "112000Z 27007KT 9999 BKN011 11/09 Q1017 NOSIG",
      "raw_text": "112000Z 27007KT 9999 BKN011 11/09 Q1017 NOSIG",
      "obsTime": "2026-07-11T20:00:00Z",
      "source": "linux-noaa-txt",
      "updatedAt": "2026-07-11T20:09:59.685795Z",
      "reportHourUtc": "2026071120",
      "baseExpectedHourUtc": "2026071119",
      "targetHourUtc": "2026071120",
      "expectedHourUtc": "2026071120",
      "freshForExpectedHour": true,
      "error": null
    }
  ]
}
