{
  "generatedAtUtc": "2026-07-17T21:09:59.253056Z",
  "baseExpectedHourUtc": "2026071720",
  "targetHourUtc": "2026071721",
  "expectedHourUtc": "2026071721",
  "pendingFreshUpdate": false,
  "data": [
    {
      "code": "AEP",
      "label": "Aeroparque",
      "icaoId": "SABE",
      "station_id": "SABE",
      "rawOb": "172100Z VRB02KT 7000 BKN023 22/18 Q0995 NOSIG",
      "raw_text": "172100Z VRB02KT 7000 BKN023 22/18 Q0995 NOSIG",
      "obsTime": "2026-07-17T21:00:00Z",
      "source": "linux-noaa-txt",
      "updatedAt": "2026-07-17T21:09:59.253056Z",
      "reportHourUtc": "2026071721",
      "baseExpectedHourUtc": "2026071720",
      "targetHourUtc": "2026071721",
      "expectedHourUtc": "2026071721",
      "freshForExpectedHour": true,
      "error": null
    },
    {
      "code": "EZE",
      "label": "Ezeiza",
      "icaoId": "SAEZ",
      "station_id": "SAEZ",
      "rawOb": "172100Z 23002KT 8000 OVC018 22/19 Q0995 NOSIG",
      "raw_text": "172100Z 23002KT 8000 OVC018 22/19 Q0995 NOSIG",
      "obsTime": "2026-07-17T21:00:00Z",
      "source": "linux-noaa-txt",
      "updatedAt": "2026-07-17T21:09:59.253056Z",
      "reportHourUtc": "2026071721",
      "baseExpectedHourUtc": "2026071720",
      "targetHourUtc": "2026071721",
      "expectedHourUtc": "2026071721",
      "freshForExpectedHour": true,
      "error": null
    }
  ]
}
