{
  "generatedAtUtc": "2026-07-21T06:09:59.363815Z",
  "baseExpectedHourUtc": "2026072105",
  "targetHourUtc": "2026072106",
  "expectedHourUtc": "2026072106",
  "pendingFreshUpdate": false,
  "data": [
    {
      "code": "AEP",
      "label": "Aeroparque",
      "icaoId": "SABE",
      "station_id": "SABE",
      "rawOb": "210600Z 18004KT 140V230 3000 -DZ BR BKN005 BKN011 11/10 Q1011 NOSIG",
      "raw_text": "210600Z 18004KT 140V230 3000 -DZ BR BKN005 BKN011 11/10 Q1011 NOSIG",
      "obsTime": "2026-07-21T06:00:00Z",
      "source": "linux-noaa-txt",
      "updatedAt": "2026-07-21T06:09:59.363815Z",
      "reportHourUtc": "2026072106",
      "baseExpectedHourUtc": "2026072105",
      "targetHourUtc": "2026072106",
      "expectedHourUtc": "2026072106",
      "freshForExpectedHour": true,
      "error": null
    },
    {
      "code": "EZE",
      "label": "Ezeiza",
      "icaoId": "SAEZ",
      "station_id": "SAEZ",
      "rawOb": "210600Z 18003KT 5000 -DZ BR BKN004 BKN007 10/10 Q1011 NOSIG",
      "raw_text": "210600Z 18003KT 5000 -DZ BR BKN004 BKN007 10/10 Q1011 NOSIG",
      "obsTime": "2026-07-21T06:00:00Z",
      "source": "linux-noaa-txt",
      "updatedAt": "2026-07-21T06:09:59.363815Z",
      "reportHourUtc": "2026072106",
      "baseExpectedHourUtc": "2026072105",
      "targetHourUtc": "2026072106",
      "expectedHourUtc": "2026072106",
      "freshForExpectedHour": true,
      "error": null
    }
  ]
}
