{
  "generatedAtUtc": "2026-07-17T22:09:59.117066Z",
  "baseExpectedHourUtc": "2026071721",
  "targetHourUtc": "2026071722",
  "expectedHourUtc": "2026071722",
  "pendingFreshUpdate": false,
  "data": [
    {
      "code": "AEP",
      "label": "Aeroparque",
      "icaoId": "SABE",
      "station_id": "SABE",
      "rawOb": "172200Z VRB02KT 6000 FEW025 BKN200 22/18 Q0997 BECMG 5000 BR BKN010",
      "raw_text": "172200Z VRB02KT 6000 FEW025 BKN200 22/18 Q0997 BECMG 5000 BR BKN010",
      "obsTime": "2026-07-17T22:00:00Z",
      "source": "linux-noaa-txt",
      "updatedAt": "2026-07-17T22:09:59.117066Z",
      "reportHourUtc": "2026071722",
      "baseExpectedHourUtc": "2026071721",
      "targetHourUtc": "2026071722",
      "expectedHourUtc": "2026071722",
      "freshForExpectedHour": true,
      "error": null
    },
    {
      "code": "EZE",
      "label": "Ezeiza",
      "icaoId": "SAEZ",
      "station_id": "SAEZ",
      "rawOb": "172200Z 23004KT 9000 OVC013 21/19 Q0997 NOSIG",
      "raw_text": "172200Z 23004KT 9000 OVC013 21/19 Q0997 NOSIG",
      "obsTime": "2026-07-17T22:00:00Z",
      "source": "linux-noaa-txt",
      "updatedAt": "2026-07-17T22:09:59.117066Z",
      "reportHourUtc": "2026071722",
      "baseExpectedHourUtc": "2026071721",
      "targetHourUtc": "2026071722",
      "expectedHourUtc": "2026071722",
      "freshForExpectedHour": true,
      "error": null
    }
  ]
}
