{
  "generatedAtUtc": "2026-07-16T08:09:59.301676Z",
  "baseExpectedHourUtc": "2026071607",
  "targetHourUtc": "2026071608",
  "expectedHourUtc": "2026071608",
  "pendingFreshUpdate": false,
  "data": [
    {
      "code": "AEP",
      "label": "Aeroparque",
      "icaoId": "SABE",
      "station_id": "SABE",
      "rawOb": "160800Z 07005KT 030V130 9999 SCT047 OVC070 15/12 Q1007 NOSIG",
      "raw_text": "160800Z 07005KT 030V130 9999 SCT047 OVC070 15/12 Q1007 NOSIG",
      "obsTime": "2026-07-16T08:00:00Z",
      "source": "linux-noaa-txt",
      "updatedAt": "2026-07-16T08:09:59.301676Z",
      "reportHourUtc": "2026071608",
      "baseExpectedHourUtc": "2026071607",
      "targetHourUtc": "2026071608",
      "expectedHourUtc": "2026071608",
      "freshForExpectedHour": true,
      "error": null
    },
    {
      "code": "EZE",
      "label": "Ezeiza",
      "icaoId": "SAEZ",
      "station_id": "SAEZ",
      "rawOb": "160800Z 04005KT CAVOK 18/12 Q1006 NOSIG",
      "raw_text": "160800Z 04005KT CAVOK 18/12 Q1006 NOSIG",
      "obsTime": "2026-07-16T08:00:00Z",
      "source": "linux-noaa-txt",
      "updatedAt": "2026-07-16T08:09:59.301676Z",
      "reportHourUtc": "2026071608",
      "baseExpectedHourUtc": "2026071607",
      "targetHourUtc": "2026071608",
      "expectedHourUtc": "2026071608",
      "freshForExpectedHour": true,
      "error": null
    }
  ]
}
