{
  "generatedAtUtc": "2026-07-24T00:09:59.633246Z",
  "baseExpectedHourUtc": "2026072323",
  "targetHourUtc": "2026072400",
  "expectedHourUtc": "2026072400",
  "pendingFreshUpdate": false,
  "data": [
    {
      "code": "AEP",
      "label": "Aeroparque",
      "icaoId": "SABE",
      "station_id": "SABE",
      "rawOb": "240000Z 02008KT 350V060 9999 FEW028 BKN043 BKN200 14/10 Q1019 NOSIG",
      "raw_text": "240000Z 02008KT 350V060 9999 FEW028 BKN043 BKN200 14/10 Q1019 NOSIG",
      "obsTime": "2026-07-24T00:00:00Z",
      "source": "linux-noaa-txt",
      "updatedAt": "2026-07-24T00:09:59.633246Z",
      "reportHourUtc": "2026072400",
      "baseExpectedHourUtc": "2026072323",
      "targetHourUtc": "2026072400",
      "expectedHourUtc": "2026072400",
      "freshForExpectedHour": true,
      "error": null
    },
    {
      "code": "EZE",
      "label": "Ezeiza",
      "icaoId": "SAEZ",
      "station_id": "SAEZ",
      "rawOb": "240000Z 06005KT 9999 FEW026 BKN032 BKN200 13/11 Q1019 NOSIG",
      "raw_text": "240000Z 06005KT 9999 FEW026 BKN032 BKN200 13/11 Q1019 NOSIG",
      "obsTime": "2026-07-24T00:00:00Z",
      "source": "linux-noaa-txt",
      "updatedAt": "2026-07-24T00:09:59.633246Z",
      "reportHourUtc": "2026072400",
      "baseExpectedHourUtc": "2026072323",
      "targetHourUtc": "2026072400",
      "expectedHourUtc": "2026072400",
      "freshForExpectedHour": true,
      "error": null
    }
  ]
}
