{
  "generatedAtUtc": "2026-07-22T17:09:59.957799Z",
  "baseExpectedHourUtc": "2026072216",
  "targetHourUtc": "2026072217",
  "expectedHourUtc": "2026072217",
  "pendingFreshUpdate": false,
  "data": [
    {
      "code": "AEP",
      "label": "Aeroparque",
      "icaoId": "SABE",
      "station_id": "SABE",
      "rawOb": "221700Z 16006KT 120V230 9999 SCT032 13/06 Q1020 NOSIG",
      "raw_text": "221700Z 16006KT 120V230 9999 SCT032 13/06 Q1020 NOSIG",
      "obsTime": "2026-07-22T17:00:00Z",
      "source": "linux-noaa-txt",
      "updatedAt": "2026-07-22T17:09:59.957799Z",
      "reportHourUtc": "2026072217",
      "baseExpectedHourUtc": "2026072216",
      "targetHourUtc": "2026072217",
      "expectedHourUtc": "2026072217",
      "freshForExpectedHour": true,
      "error": null
    },
    {
      "code": "EZE",
      "label": "Ezeiza",
      "icaoId": "SAEZ",
      "station_id": "SAEZ",
      "rawOb": "221700Z 14009KT 9999 FEW020 SCT100 13/08 Q1020 NOSIG",
      "raw_text": "221700Z 14009KT 9999 FEW020 SCT100 13/08 Q1020 NOSIG",
      "obsTime": "2026-07-22T17:00:00Z",
      "source": "linux-noaa-txt",
      "updatedAt": "2026-07-22T17:09:59.957799Z",
      "reportHourUtc": "2026072217",
      "baseExpectedHourUtc": "2026072216",
      "targetHourUtc": "2026072217",
      "expectedHourUtc": "2026072217",
      "freshForExpectedHour": true,
      "error": null
    }
  ]
}
