{
  "generatedAtUtc": "2026-07-23T08:09:59.353199Z",
  "baseExpectedHourUtc": "2026072307",
  "targetHourUtc": "2026072308",
  "expectedHourUtc": "2026072308",
  "pendingFreshUpdate": false,
  "data": [
    {
      "code": "AEP",
      "label": "Aeroparque",
      "icaoId": "SABE",
      "station_id": "SABE",
      "rawOb": "230800Z 07010KT 9999 OVC012 11/08 Q1023 NOSIG",
      "raw_text": "230800Z 07010KT 9999 OVC012 11/08 Q1023 NOSIG",
      "obsTime": "2026-07-23T08:00:00Z",
      "source": "linux-noaa-txt",
      "updatedAt": "2026-07-23T08:09:59.353199Z",
      "reportHourUtc": "2026072308",
      "baseExpectedHourUtc": "2026072307",
      "targetHourUtc": "2026072308",
      "expectedHourUtc": "2026072308",
      "freshForExpectedHour": true,
      "error": null
    },
    {
      "code": "EZE",
      "label": "Ezeiza",
      "icaoId": "SAEZ",
      "station_id": "SAEZ",
      "rawOb": "230800Z 12002KT 9999 BKN019 OVC100 07/06 Q1023 NOSIG",
      "raw_text": "230800Z 12002KT 9999 BKN019 OVC100 07/06 Q1023 NOSIG",
      "obsTime": "2026-07-23T08:00:00Z",
      "source": "linux-noaa-txt",
      "updatedAt": "2026-07-23T08:09:59.353199Z",
      "reportHourUtc": "2026072308",
      "baseExpectedHourUtc": "2026072307",
      "targetHourUtc": "2026072308",
      "expectedHourUtc": "2026072308",
      "freshForExpectedHour": true,
      "error": null
    }
  ]
}
