{
  "generatedAtUtc": "2026-07-14T18:09:59.977041Z",
  "baseExpectedHourUtc": "2026071417",
  "targetHourUtc": "2026071418",
  "expectedHourUtc": "2026071418",
  "pendingFreshUpdate": false,
  "data": [
    {
      "code": "AEP",
      "label": "Aeroparque",
      "icaoId": "SABE",
      "station_id": "SABE",
      "rawOb": "141800Z VRB06KT CAVOK 14/10 Q1015 NOSIG",
      "raw_text": "141800Z VRB06KT CAVOK 14/10 Q1015 NOSIG",
      "obsTime": "2026-07-14T18:00:00Z",
      "source": "linux-noaa-txt",
      "updatedAt": "2026-07-14T18:09:59.977041Z",
      "reportHourUtc": "2026071418",
      "baseExpectedHourUtc": "2026071417",
      "targetHourUtc": "2026071418",
      "expectedHourUtc": "2026071418",
      "freshForExpectedHour": true,
      "error": null
    },
    {
      "code": "EZE",
      "label": "Ezeiza",
      "icaoId": "SAEZ",
      "station_id": "SAEZ",
      "rawOb": "141800Z 02009KT CAVOK 15/08 Q1014 NOSIG",
      "raw_text": "141800Z 02009KT CAVOK 15/08 Q1014 NOSIG",
      "obsTime": "2026-07-14T18:00:00Z",
      "source": "linux-noaa-txt",
      "updatedAt": "2026-07-14T18:09:59.977041Z",
      "reportHourUtc": "2026071418",
      "baseExpectedHourUtc": "2026071417",
      "targetHourUtc": "2026071418",
      "expectedHourUtc": "2026071418",
      "freshForExpectedHour": true,
      "error": null
    }
  ]
}
