{
  "generatedAtUtc": "2026-07-18T17:09:59.833064Z",
  "baseExpectedHourUtc": "2026071816",
  "targetHourUtc": "2026071817",
  "expectedHourUtc": "2026071817",
  "pendingFreshUpdate": false,
  "data": [
    {
      "code": "AEP",
      "label": "Aeroparque",
      "icaoId": "SABE",
      "station_id": "SABE",
      "rawOb": "181700Z 14006KT 110V190 5000 BR OVC011 16/14 Q1000 BECMG 7000 OVC012",
      "raw_text": "181700Z 14006KT 110V190 5000 BR OVC011 16/14 Q1000 BECMG 7000 OVC012",
      "obsTime": "2026-07-18T17:00:00Z",
      "source": "linux-noaa-txt",
      "updatedAt": "2026-07-18T17:09:59.833064Z",
      "reportHourUtc": "2026071817",
      "baseExpectedHourUtc": "2026071816",
      "targetHourUtc": "2026071817",
      "expectedHourUtc": "2026071817",
      "freshForExpectedHour": true,
      "error": null
    },
    {
      "code": "EZE",
      "label": "Ezeiza",
      "icaoId": "SAEZ",
      "station_id": "SAEZ",
      "rawOb": "181700Z 16007KT 6000 OVC005 15/14 Q1000 NOSIG",
      "raw_text": "181700Z 16007KT 6000 OVC005 15/14 Q1000 NOSIG",
      "obsTime": "2026-07-18T17:00:00Z",
      "source": "linux-noaa-txt",
      "updatedAt": "2026-07-18T17:09:59.833064Z",
      "reportHourUtc": "2026071817",
      "baseExpectedHourUtc": "2026071816",
      "targetHourUtc": "2026071817",
      "expectedHourUtc": "2026071817",
      "freshForExpectedHour": true,
      "error": null
    }
  ]
}
