{
  "generatedAtUtc": "2026-07-22T01:10:00.029603Z",
  "baseExpectedHourUtc": "2026072201",
  "targetHourUtc": "2026072201",
  "expectedHourUtc": "2026072201",
  "pendingFreshUpdate": false,
  "data": [
    {
      "code": "AEP",
      "label": "Aeroparque",
      "icaoId": "SABE",
      "station_id": "SABE",
      "rawOb": "220100Z 17006KT 130V240 8000 OVC007 11/10 Q1015 NOSIG",
      "raw_text": "220100Z 17006KT 130V240 8000 OVC007 11/10 Q1015 NOSIG",
      "obsTime": "2026-07-22T01:00:00Z",
      "source": "linux-noaa-txt",
      "updatedAt": "2026-07-22T01:10:00.029603Z",
      "reportHourUtc": "2026072201",
      "baseExpectedHourUtc": "2026072201",
      "targetHourUtc": "2026072201",
      "expectedHourUtc": "2026072201",
      "freshForExpectedHour": true,
      "error": null
    },
    {
      "code": "EZE",
      "label": "Ezeiza",
      "icaoId": "SAEZ",
      "station_id": "SAEZ",
      "rawOb": "220100Z 17006KT 130V190 9999 BKN021 OVC047 11/10 Q1015 NOSIG",
      "raw_text": "220100Z 17006KT 130V190 9999 BKN021 OVC047 11/10 Q1015 NOSIG",
      "obsTime": "2026-07-22T01:00:00Z",
      "source": "linux-noaa-txt",
      "updatedAt": "2026-07-22T01:10:00.029603Z",
      "reportHourUtc": "2026072201",
      "baseExpectedHourUtc": "2026072201",
      "targetHourUtc": "2026072201",
      "expectedHourUtc": "2026072201",
      "freshForExpectedHour": true,
      "error": null
    }
  ]
}
