{
  "generatedAtUtc": "2026-07-18T16:10:00.065775Z",
  "baseExpectedHourUtc": "2026071816",
  "targetHourUtc": "2026071816",
  "expectedHourUtc": "2026071816",
  "pendingFreshUpdate": false,
  "data": [
    {
      "code": "AEP",
      "label": "Aeroparque",
      "icaoId": "SABE",
      "station_id": "SABE",
      "rawOb": "181600Z 12007KT 090V160 8000 OVC011 17/14 Q1001 NOSIG",
      "raw_text": "181600Z 12007KT 090V160 8000 OVC011 17/14 Q1001 NOSIG",
      "obsTime": "2026-07-18T16:00:00Z",
      "source": "linux-noaa-txt",
      "updatedAt": "2026-07-18T16:10:00.065775Z",
      "reportHourUtc": "2026071816",
      "baseExpectedHourUtc": "2026071816",
      "targetHourUtc": "2026071816",
      "expectedHourUtc": "2026071816",
      "freshForExpectedHour": true,
      "error": null
    },
    {
      "code": "EZE",
      "label": "Ezeiza",
      "icaoId": "SAEZ",
      "station_id": "SAEZ",
      "rawOb": "181600Z 16006KT 5000 BR OVC006 15/14 Q1001 BECMG 16006KT 8000 OVC008",
      "raw_text": "181600Z 16006KT 5000 BR OVC006 15/14 Q1001 BECMG 16006KT 8000 OVC008",
      "obsTime": "2026-07-18T16:00:00Z",
      "source": "linux-noaa-txt",
      "updatedAt": "2026-07-18T16:10:00.065775Z",
      "reportHourUtc": "2026071816",
      "baseExpectedHourUtc": "2026071816",
      "targetHourUtc": "2026071816",
      "expectedHourUtc": "2026071816",
      "freshForExpectedHour": true,
      "error": null
    }
  ]
}
