{
  "generatedAtUtc": "2026-07-19T07:09:59.598318Z",
  "baseExpectedHourUtc": "2026071906",
  "targetHourUtc": "2026071907",
  "expectedHourUtc": "2026071907",
  "pendingFreshUpdate": false,
  "data": [
    {
      "code": "AEP",
      "label": "Aeroparque",
      "icaoId": "SABE",
      "station_id": "SABE",
      "rawOb": "190700Z 16007KT 130V230 4000 BR OVC006 11/10 Q1002 NOSIG",
      "raw_text": "190700Z 16007KT 130V230 4000 BR OVC006 11/10 Q1002 NOSIG",
      "obsTime": "2026-07-19T07:00:00Z",
      "source": "linux-noaa-txt",
      "updatedAt": "2026-07-19T07:09:59.598318Z",
      "reportHourUtc": "2026071907",
      "baseExpectedHourUtc": "2026071906",
      "targetHourUtc": "2026071907",
      "expectedHourUtc": "2026071907",
      "freshForExpectedHour": true,
      "error": null
    },
    {
      "code": "EZE",
      "label": "Ezeiza",
      "icaoId": "SAEZ",
      "station_id": "SAEZ",
      "rawOb": "190700Z 18008KT 5000 DZ BR OVC005 10/09 Q1003 TEMPO 2000 -DZ OVC005",
      "raw_text": "190700Z 18008KT 5000 DZ BR OVC005 10/09 Q1003 TEMPO 2000 -DZ OVC005",
      "obsTime": "2026-07-19T07:00:00Z",
      "source": "linux-noaa-txt",
      "updatedAt": "2026-07-19T07:09:59.598318Z",
      "reportHourUtc": "2026071907",
      "baseExpectedHourUtc": "2026071906",
      "targetHourUtc": "2026071907",
      "expectedHourUtc": "2026071907",
      "freshForExpectedHour": true,
      "error": null
    }
  ]
}
