{
  "generatedAtUtc": "2026-07-11T13:10:00.001287Z",
  "expectedHourUtc": "2026071113",
  "pendingFreshUpdate": false,
  "data": [
    {
      "code": "AEP",
      "label": "Aeroparque",
      "icaoId": "SABE",
      "station_id": "SABE",
      "rawOb": "111300Z 22004KT 150V280 9999 SCT007 11/09 Q1018 NOSIG",
      "raw_text": "111300Z 22004KT 150V280 9999 SCT007 11/09 Q1018 NOSIG",
      "obsTime": "2026-07-11T13:00:00Z",
      "source": "linux-noaa-txt",
      "updatedAt": "2026-07-11T13:10:00.001287Z",
      "reportHourUtc": "2026071113",
      "expectedHourUtc": "2026071113",
      "freshForExpectedHour": true,
      "error": null
    },
    {
      "code": "EZE",
      "label": "Ezeiza",
      "icaoId": "SAEZ",
      "station_id": "SAEZ",
      "rawOb": "111300Z 28005KT 9999 BKN005 BKN100 11/11 Q1018 NOSIG",
      "raw_text": "111300Z 28005KT 9999 BKN005 BKN100 11/11 Q1018 NOSIG",
      "obsTime": "2026-07-11T13:00:00Z",
      "source": "linux-noaa-txt",
      "updatedAt": "2026-07-11T13:10:00.001287Z",
      "reportHourUtc": "2026071113",
      "expectedHourUtc": "2026071113",
      "freshForExpectedHour": true,
      "error": null
    }
  ]
}
