{
  "generatedAtUtc": "2026-07-11T03:09:59.653073Z",
  "expectedHourUtc": "2026071102",
  "pendingFreshUpdate": false,
  "data": [
    {
      "code": "AEP",
      "label": "Aeroparque",
      "icaoId": "SABE",
      "station_id": "SABE",
      "rawOb": "110300Z 16004KT 120V220 6000 FEW008 BKN100 12/10 Q1016 NOSIG",
      "raw_text": "110300Z 16004KT 120V220 6000 FEW008 BKN100 12/10 Q1016 NOSIG",
      "obsTime": "2026-07-11T03:00:00Z",
      "source": "linux-noaa-txt",
      "updatedAt": "2026-07-11T03:09:59.653073Z",
      "reportHourUtc": "2026071103",
      "expectedHourUtc": "2026071102",
      "freshForExpectedHour": true,
      "error": null
    },
    {
      "code": "EZE",
      "label": "Ezeiza",
      "icaoId": "SAEZ",
      "station_id": "SAEZ",
      "rawOb": "110300Z 18003KT 9999 OVC005 11/10 Q1016 NOSIG",
      "raw_text": "110300Z 18003KT 9999 OVC005 11/10 Q1016 NOSIG",
      "obsTime": "2026-07-11T03:00:00Z",
      "source": "linux-noaa-txt",
      "updatedAt": "2026-07-11T03:09:59.653073Z",
      "reportHourUtc": "2026071103",
      "expectedHourUtc": "2026071102",
      "freshForExpectedHour": true,
      "error": null
    }
  ]
}
