{
  "generatedAtUtc": "2026-07-13T16:09:59.859153Z",
  "baseExpectedHourUtc": "2026071315",
  "targetHourUtc": "2026071316",
  "expectedHourUtc": "2026071316",
  "pendingFreshUpdate": false,
  "data": [
    {
      "code": "AEP",
      "label": "Aeroparque",
      "icaoId": "SABE",
      "station_id": "SABE",
      "rawOb": "131600Z 36010KT 310V020 9999 OVC009 08/05 Q1024 NOSIG",
      "raw_text": "131600Z 36010KT 310V020 9999 OVC009 08/05 Q1024 NOSIG",
      "obsTime": "2026-07-13T16:00:00Z",
      "source": "linux-noaa-txt",
      "updatedAt": "2026-07-13T16:09:59.859153Z",
      "reportHourUtc": "2026071316",
      "baseExpectedHourUtc": "2026071315",
      "targetHourUtc": "2026071316",
      "expectedHourUtc": "2026071316",
      "freshForExpectedHour": true,
      "error": null
    },
    {
      "code": "EZE",
      "label": "Ezeiza",
      "icaoId": "SAEZ",
      "station_id": "SAEZ",
      "rawOb": "131600Z 01009KT 9999 OVC013 09/05 Q1023 NOSIG",
      "raw_text": "131600Z 01009KT 9999 OVC013 09/05 Q1023 NOSIG",
      "obsTime": "2026-07-13T16:00:00Z",
      "source": "linux-noaa-txt",
      "updatedAt": "2026-07-13T16:09:59.859153Z",
      "reportHourUtc": "2026071316",
      "baseExpectedHourUtc": "2026071315",
      "targetHourUtc": "2026071316",
      "expectedHourUtc": "2026071316",
      "freshForExpectedHour": true,
      "error": null
    }
  ]
}
