{
  "generatedAtUtc": "2026-07-22T09:09:59.430037Z",
  "baseExpectedHourUtc": "2026072208",
  "targetHourUtc": "2026072209",
  "expectedHourUtc": "2026072209",
  "pendingFreshUpdate": false,
  "data": [
    {
      "code": "AEP",
      "label": "Aeroparque",
      "icaoId": "SABE",
      "station_id": "SABE",
      "rawOb": "220900Z 17006KT 100V220 CAVOK 10/07 Q1017 NOSIG",
      "raw_text": "220900Z 17006KT 100V220 CAVOK 10/07 Q1017 NOSIG",
      "obsTime": "2026-07-22T09:00:00Z",
      "source": "linux-noaa-txt",
      "updatedAt": "2026-07-22T09:09:59.430037Z",
      "reportHourUtc": "2026072209",
      "baseExpectedHourUtc": "2026072208",
      "targetHourUtc": "2026072209",
      "expectedHourUtc": "2026072209",
      "freshForExpectedHour": true,
      "error": null
    },
    {
      "code": "EZE",
      "label": "Ezeiza",
      "icaoId": "SAEZ",
      "station_id": "SAEZ",
      "rawOb": "220900Z 17006KT 130V210 9999 OVC039 09/07 Q1018 NOSIG",
      "raw_text": "220900Z 17006KT 130V210 9999 OVC039 09/07 Q1018 NOSIG",
      "obsTime": "2026-07-22T09:00:00Z",
      "source": "linux-noaa-txt",
      "updatedAt": "2026-07-22T09:09:59.430037Z",
      "reportHourUtc": "2026072209",
      "baseExpectedHourUtc": "2026072208",
      "targetHourUtc": "2026072209",
      "expectedHourUtc": "2026072209",
      "freshForExpectedHour": true,
      "error": null
    }
  ]
}
