{
  "generatedAtUtc": "2026-07-15T00:09:59.229420Z",
  "baseExpectedHourUtc": "2026071423",
  "targetHourUtc": "2026071500",
  "expectedHourUtc": "2026071500",
  "pendingFreshUpdate": false,
  "data": [
    {
      "code": "AEP",
      "label": "Aeroparque",
      "icaoId": "SABE",
      "station_id": "SABE",
      "rawOb": "150000Z 10006KT CAVOK 12/10 Q1014 NOSIG",
      "raw_text": "150000Z 10006KT CAVOK 12/10 Q1014 NOSIG",
      "obsTime": "2026-07-15T00:00:00Z",
      "source": "linux-noaa-txt",
      "updatedAt": "2026-07-15T00:09:59.229420Z",
      "reportHourUtc": "2026071500",
      "baseExpectedHourUtc": "2026071423",
      "targetHourUtc": "2026071500",
      "expectedHourUtc": "2026071500",
      "freshForExpectedHour": true,
      "error": null
    },
    {
      "code": "EZE",
      "label": "Ezeiza",
      "icaoId": "SAEZ",
      "station_id": "SAEZ",
      "rawOb": "150000Z 07008KT CAVOK 11/09 Q1014 NOSIG",
      "raw_text": "150000Z 07008KT CAVOK 11/09 Q1014 NOSIG",
      "obsTime": "2026-07-15T00:00:00Z",
      "source": "linux-noaa-txt",
      "updatedAt": "2026-07-15T00:09:59.229420Z",
      "reportHourUtc": "2026071500",
      "baseExpectedHourUtc": "2026071423",
      "targetHourUtc": "2026071500",
      "expectedHourUtc": "2026071500",
      "freshForExpectedHour": true,
      "error": null
    }
  ]
}
