{
  "generatedAtUtc": "2026-07-22T06:09:59.917337Z",
  "baseExpectedHourUtc": "2026072205",
  "targetHourUtc": "2026072206",
  "expectedHourUtc": "2026072206",
  "pendingFreshUpdate": false,
  "data": [
    {
      "code": "AEP",
      "label": "Aeroparque",
      "icaoId": "SABE",
      "station_id": "SABE",
      "rawOb": "220600Z 16006KT 130V200 9999 OVC030 10/08 Q1017 NOSIG",
      "raw_text": "220600Z 16006KT 130V200 9999 OVC030 10/08 Q1017 NOSIG",
      "obsTime": "2026-07-22T06:00:00Z",
      "source": "linux-noaa-txt",
      "updatedAt": "2026-07-22T06:09:59.917337Z",
      "reportHourUtc": "2026072206",
      "baseExpectedHourUtc": "2026072205",
      "targetHourUtc": "2026072206",
      "expectedHourUtc": "2026072206",
      "freshForExpectedHour": true,
      "error": null
    },
    {
      "code": "EZE",
      "label": "Ezeiza",
      "icaoId": "SAEZ",
      "station_id": "SAEZ",
      "rawOb": "220600Z 17005KT 130V190 9999 FEW021 OVC042 09/08 Q1017 NOSIG",
      "raw_text": "220600Z 17005KT 130V190 9999 FEW021 OVC042 09/08 Q1017 NOSIG",
      "obsTime": "2026-07-22T06:00:00Z",
      "source": "linux-noaa-txt",
      "updatedAt": "2026-07-22T06:09:59.917337Z",
      "reportHourUtc": "2026072206",
      "baseExpectedHourUtc": "2026072205",
      "targetHourUtc": "2026072206",
      "expectedHourUtc": "2026072206",
      "freshForExpectedHour": true,
      "error": null
    }
  ]
}
