{
  "generatedAtUtc": "2026-07-21T14:09:59.578331Z",
  "baseExpectedHourUtc": "2026072113",
  "targetHourUtc": "2026072114",
  "expectedHourUtc": "2026072114",
  "pendingFreshUpdate": false,
  "data": [
    {
      "code": "AEP",
      "label": "Aeroparque",
      "icaoId": "SABE",
      "station_id": "SABE",
      "rawOb": "211400Z 17004KT 110V220 4000 -DZ BR OVC007 11/10 Q1013 NOSIG",
      "raw_text": "211400Z 17004KT 110V220 4000 -DZ BR OVC007 11/10 Q1013 NOSIG",
      "obsTime": "2026-07-21T14:00:00Z",
      "source": "linux-noaa-txt",
      "updatedAt": "2026-07-21T14:09:59.578331Z",
      "reportHourUtc": "2026072114",
      "baseExpectedHourUtc": "2026072113",
      "targetHourUtc": "2026072114",
      "expectedHourUtc": "2026072114",
      "freshForExpectedHour": true,
      "error": null
    },
    {
      "code": "EZE",
      "label": "Ezeiza",
      "icaoId": "SAEZ",
      "station_id": "SAEZ",
      "rawOb": "211400Z 16009KT 9000 -DZ BKN006 OVC010 11/10 Q1013 NOSIG",
      "raw_text": "211400Z 16009KT 9000 -DZ BKN006 OVC010 11/10 Q1013 NOSIG",
      "obsTime": "2026-07-21T14:00:00Z",
      "source": "linux-noaa-txt",
      "updatedAt": "2026-07-21T14:09:59.578331Z",
      "reportHourUtc": "2026072114",
      "baseExpectedHourUtc": "2026072113",
      "targetHourUtc": "2026072114",
      "expectedHourUtc": "2026072114",
      "freshForExpectedHour": true,
      "error": null
    }
  ]
}
