{
  "generatedAtUtc": "2026-07-17T15:09:59.101240Z",
  "baseExpectedHourUtc": "2026071714",
  "targetHourUtc": "2026071715",
  "expectedHourUtc": "2026071715",
  "pendingFreshUpdate": false,
  "data": [
    {
      "code": "AEP",
      "label": "Aeroparque",
      "icaoId": "SABE",
      "station_id": "SABE",
      "rawOb": "171500Z 34003KT 9999 BKN034 BKN044 20/16 Q0995 NOSIG",
      "raw_text": "171500Z 34003KT 9999 BKN034 BKN044 20/16 Q0995 NOSIG",
      "obsTime": "2026-07-17T15:00:00Z",
      "source": "linux-noaa-txt",
      "updatedAt": "2026-07-17T15:09:59.101240Z",
      "reportHourUtc": "2026071715",
      "baseExpectedHourUtc": "2026071714",
      "targetHourUtc": "2026071715",
      "expectedHourUtc": "2026071715",
      "freshForExpectedHour": true,
      "error": null
    },
    {
      "code": "EZE",
      "label": "Ezeiza",
      "icaoId": "SAEZ",
      "station_id": "SAEZ",
      "rawOb": "171500Z 35007KT 9000 OVC033 22/18 Q0994",
      "raw_text": "171500Z 35007KT 9000 OVC033 22/18 Q0994",
      "obsTime": "2026-07-17T15:00:00Z",
      "source": "linux-noaa-txt",
      "updatedAt": "2026-07-17T15:09:59.101240Z",
      "reportHourUtc": "2026071715",
      "baseExpectedHourUtc": "2026071714",
      "targetHourUtc": "2026071715",
      "expectedHourUtc": "2026071715",
      "freshForExpectedHour": true,
      "error": null
    }
  ]
}
