{
  "generatedAtUtc": "2026-07-20T01:11:04.121915Z",
  "baseExpectedHourUtc": "2026072001",
  "targetHourUtc": "2026072001",
  "expectedHourUtc": "2026072001",
  "pendingFreshUpdate": false,
  "data": [
    {
      "code": "AEP",
      "label": "Aeroparque",
      "icaoId": "SABE",
      "station_id": "SABE",
      "rawOb": "200100Z 14010KT 110V180 9999 OVC014 12/08 Q1011 NOSIG",
      "raw_text": "200100Z 14010KT 110V180 9999 OVC014 12/08 Q1011 NOSIG",
      "obsTime": "2026-07-20T01:00:00Z",
      "source": "linux-noaa-txt",
      "updatedAt": "2026-07-20T01:11:04.121915Z",
      "reportHourUtc": "2026072001",
      "baseExpectedHourUtc": "2026072001",
      "targetHourUtc": "2026072001",
      "expectedHourUtc": "2026072001",
      "freshForExpectedHour": true,
      "error": null
    },
    {
      "code": "EZE",
      "label": "Ezeiza",
      "icaoId": "SAEZ",
      "station_id": "SAEZ",
      "rawOb": "200100Z 15011KT 9999 SCT018 BKN022 12/08 Q1011 NOSIG",
      "raw_text": "200100Z 15011KT 9999 SCT018 BKN022 12/08 Q1011 NOSIG",
      "obsTime": "2026-07-20T01:00:00Z",
      "source": "linux-noaa-txt",
      "updatedAt": "2026-07-20T01:11:04.121915Z",
      "reportHourUtc": "2026072001",
      "baseExpectedHourUtc": "2026072001",
      "targetHourUtc": "2026072001",
      "expectedHourUtc": "2026072001",
      "freshForExpectedHour": true,
      "error": null
    }
  ]
}
