{
  "generatedAtUtc": "2026-07-18T07:09:59.346606Z",
  "baseExpectedHourUtc": "2026071806",
  "targetHourUtc": "2026071807",
  "expectedHourUtc": "2026071807",
  "pendingFreshUpdate": false,
  "data": [
    {
      "code": "AEP",
      "label": "Aeroparque",
      "icaoId": "SABE",
      "station_id": "SABE",
      "rawOb": "180700Z 16006KT 140V200 5000 BR OVC005 18/17 Q0998 BECMG 2500 BR OVC005",
      "raw_text": "180700Z 16006KT 140V200 5000 BR OVC005 18/17 Q0998 BECMG 2500 BR OVC005",
      "obsTime": "2026-07-18T07:00:00Z",
      "source": "linux-noaa-txt",
      "updatedAt": "2026-07-18T07:09:59.346606Z",
      "reportHourUtc": "2026071807",
      "baseExpectedHourUtc": "2026071806",
      "targetHourUtc": "2026071807",
      "expectedHourUtc": "2026071807",
      "freshForExpectedHour": true,
      "error": null
    },
    {
      "code": "EZE",
      "label": "Ezeiza",
      "icaoId": "SAEZ",
      "station_id": "SAEZ",
      "rawOb": "180700Z 16006KT 110V170 3000 -DZ BR OVC004 17/17 Q0998 NOSIG",
      "raw_text": "180700Z 16006KT 110V170 3000 -DZ BR OVC004 17/17 Q0998 NOSIG",
      "obsTime": "2026-07-18T07:00:00Z",
      "source": "linux-noaa-txt",
      "updatedAt": "2026-07-18T07:09:59.346606Z",
      "reportHourUtc": "2026071807",
      "baseExpectedHourUtc": "2026071806",
      "targetHourUtc": "2026071807",
      "expectedHourUtc": "2026071807",
      "freshForExpectedHour": true,
      "error": null
    }
  ]
}
