{
  "generatedAtUtc": "2026-07-21T04:09:59.787259Z",
  "baseExpectedHourUtc": "2026072103",
  "targetHourUtc": "2026072104",
  "expectedHourUtc": "2026072104",
  "pendingFreshUpdate": false,
  "data": [
    {
      "code": "AEP",
      "label": "Aeroparque",
      "icaoId": "SABE",
      "station_id": "SABE",
      "rawOb": "210400Z 17004KT 120V220 2000 -DZ BR OVC005 11/10 Q1011 NOSIG",
      "raw_text": "210400Z 17004KT 120V220 2000 -DZ BR OVC005 11/10 Q1011 NOSIG",
      "obsTime": "2026-07-21T04:00:00Z",
      "source": "linux-noaa-txt",
      "updatedAt": "2026-07-21T04:09:59.787259Z",
      "reportHourUtc": "2026072104",
      "baseExpectedHourUtc": "2026072103",
      "targetHourUtc": "2026072104",
      "expectedHourUtc": "2026072104",
      "freshForExpectedHour": true,
      "error": null
    },
    {
      "code": "EZE",
      "label": "Ezeiza",
      "icaoId": "SAEZ",
      "station_id": "SAEZ",
      "rawOb": "210400Z 17005KT 2000 DZ BR OVC004 10/10 Q1011 NOSIG",
      "raw_text": "210400Z 17005KT 2000 DZ BR OVC004 10/10 Q1011 NOSIG",
      "obsTime": "2026-07-21T04:00:00Z",
      "source": "linux-noaa-txt",
      "updatedAt": "2026-07-21T04:09:59.787259Z",
      "reportHourUtc": "2026072104",
      "baseExpectedHourUtc": "2026072103",
      "targetHourUtc": "2026072104",
      "expectedHourUtc": "2026072104",
      "freshForExpectedHour": true,
      "error": null
    }
  ]
}
