{
  "generatedAtUtc": "2026-07-18T22:09:59.961938Z",
  "baseExpectedHourUtc": "2026071821",
  "targetHourUtc": "2026071822",
  "expectedHourUtc": "2026071822",
  "pendingFreshUpdate": false,
  "data": [
    {
      "code": "AEP",
      "label": "Aeroparque",
      "icaoId": "SABE",
      "station_id": "SABE",
      "rawOb": "182200Z 16007KT 120V210 4000 BR OVC007 15/13 Q1002 NOSIG",
      "raw_text": "182200Z 16007KT 120V210 4000 BR OVC007 15/13 Q1002 NOSIG",
      "obsTime": "2026-07-18T22:00:00Z",
      "source": "linux-noaa-txt",
      "updatedAt": "2026-07-18T22:09:59.961938Z",
      "reportHourUtc": "2026071822",
      "baseExpectedHourUtc": "2026071821",
      "targetHourUtc": "2026071822",
      "expectedHourUtc": "2026071822",
      "freshForExpectedHour": true,
      "error": null
    },
    {
      "code": "EZE",
      "label": "Ezeiza",
      "icaoId": "SAEZ",
      "station_id": "SAEZ",
      "rawOb": "182200Z 16007KT 5000 -DZ BR OVC005 14/13 Q1002 TEMPO 1200 DZ BR OVC004",
      "raw_text": "182200Z 16007KT 5000 -DZ BR OVC005 14/13 Q1002 TEMPO 1200 DZ BR OVC004",
      "obsTime": "2026-07-18T22:00:00Z",
      "source": "linux-noaa-txt",
      "updatedAt": "2026-07-18T22:09:59.961938Z",
      "reportHourUtc": "2026071822",
      "baseExpectedHourUtc": "2026071821",
      "targetHourUtc": "2026071822",
      "expectedHourUtc": "2026071822",
      "freshForExpectedHour": true,
      "error": null
    }
  ]
}
