{
  "generatedAtUtc": "2026-07-14T04:09:59.974113Z",
  "baseExpectedHourUtc": "2026071403",
  "targetHourUtc": "2026071404",
  "expectedHourUtc": "2026071404",
  "pendingFreshUpdate": false,
  "data": [
    {
      "code": "AEP",
      "label": "Aeroparque",
      "icaoId": "SABE",
      "station_id": "SABE",
      "rawOb": "140400Z 01012KT 9999 BKN010 BKN200 10/07 Q1021 NOSIG",
      "raw_text": "140400Z 01012KT 9999 BKN010 BKN200 10/07 Q1021 NOSIG",
      "obsTime": "2026-07-14T04:00:00Z",
      "source": "linux-noaa-txt",
      "updatedAt": "2026-07-14T04:09:59.974113Z",
      "reportHourUtc": "2026071404",
      "baseExpectedHourUtc": "2026071403",
      "targetHourUtc": "2026071404",
      "expectedHourUtc": "2026071404",
      "freshForExpectedHour": true,
      "error": null
    },
    {
      "code": "EZE",
      "label": "Ezeiza",
      "icaoId": "SAEZ",
      "station_id": "SAEZ",
      "rawOb": "140400Z 03008KT CAVOK 09/07 Q1020 NOSIG",
      "raw_text": "140400Z 03008KT CAVOK 09/07 Q1020 NOSIG",
      "obsTime": "2026-07-14T04:00:00Z",
      "source": "linux-noaa-txt",
      "updatedAt": "2026-07-14T04:09:59.974113Z",
      "reportHourUtc": "2026071404",
      "baseExpectedHourUtc": "2026071403",
      "targetHourUtc": "2026071404",
      "expectedHourUtc": "2026071404",
      "freshForExpectedHour": true,
      "error": null
    }
  ]
}
