{
  "generatedAtUtc": "2026-07-20T21:09:59.347043Z",
  "baseExpectedHourUtc": "2026072020",
  "targetHourUtc": "2026072021",
  "expectedHourUtc": "2026072021",
  "pendingFreshUpdate": false,
  "data": [
    {
      "code": "AEP",
      "label": "Aeroparque",
      "icaoId": "SABE",
      "station_id": "SABE",
      "rawOb": "202100Z 13013KT 2000 -DZ BR BKN006 OVC024 12/11 Q1010 TEMPO 2000 DZ BR OVC008",
      "raw_text": "202100Z 13013KT 2000 -DZ BR BKN006 OVC024 12/11 Q1010 TEMPO 2000 DZ BR OVC008",
      "obsTime": "2026-07-20T21:00:00Z",
      "source": "linux-noaa-txt",
      "updatedAt": "2026-07-20T21:09:59.347043Z",
      "reportHourUtc": "2026072021",
      "baseExpectedHourUtc": "2026072020",
      "targetHourUtc": "2026072021",
      "expectedHourUtc": "2026072021",
      "freshForExpectedHour": true,
      "error": null
    },
    {
      "code": "EZE",
      "label": "Ezeiza",
      "icaoId": "SAEZ",
      "station_id": "SAEZ",
      "rawOb": "202100Z 12009KT 5000 -DZ BNK013 OVC020 12/11 Q1010 NOSIG",
      "raw_text": "202100Z 12009KT 5000 -DZ BNK013 OVC020 12/11 Q1010 NOSIG",
      "obsTime": "2026-07-20T21:00:00Z",
      "source": "linux-noaa-txt",
      "updatedAt": "2026-07-20T21:09:59.347043Z",
      "reportHourUtc": "2026072021",
      "baseExpectedHourUtc": "2026072020",
      "targetHourUtc": "2026072021",
      "expectedHourUtc": "2026072021",
      "freshForExpectedHour": true,
      "error": null
    }
  ]
}
