{
  "generatedAtUtc": "2026-07-13T09:09:59.157071Z",
  "baseExpectedHourUtc": "2026071308",
  "targetHourUtc": "2026071309",
  "expectedHourUtc": "2026071309",
  "pendingFreshUpdate": false,
  "data": [
    {
      "code": "AEP",
      "label": "Aeroparque",
      "icaoId": "SABE",
      "station_id": "SABE",
      "rawOb": "130900Z 32004KT 290V360 8000 SCT007 06/04 Q1024 NOSIG",
      "raw_text": "130900Z 32004KT 290V360 8000 SCT007 06/04 Q1024 NOSIG",
      "obsTime": "2026-07-13T09:00:00Z",
      "source": "linux-noaa-txt",
      "updatedAt": "2026-07-13T09:09:59.157071Z",
      "reportHourUtc": "2026071309",
      "baseExpectedHourUtc": "2026071308",
      "targetHourUtc": "2026071309",
      "expectedHourUtc": "2026071309",
      "freshForExpectedHour": true,
      "error": null
    },
    {
      "code": "EZE",
      "label": "Ezeiza",
      "icaoId": "SAEZ",
      "station_id": "SAEZ",
      "rawOb": "130900Z 00000KT 5000 BR FEW003 M02/M02 Q1024 BECMG 3000 BR",
      "raw_text": "130900Z 00000KT 5000 BR FEW003 M02/M02 Q1024 BECMG 3000 BR",
      "obsTime": "2026-07-13T09:00:00Z",
      "source": "linux-noaa-txt",
      "updatedAt": "2026-07-13T09:09:59.157071Z",
      "reportHourUtc": "2026071309",
      "baseExpectedHourUtc": "2026071308",
      "targetHourUtc": "2026071309",
      "expectedHourUtc": "2026071309",
      "freshForExpectedHour": true,
      "error": null
    }
  ]
}
