{
  "generatedAtUtc": "2026-07-13T23:09:59.829468Z",
  "baseExpectedHourUtc": "2026071322",
  "targetHourUtc": "2026071323",
  "expectedHourUtc": "2026071323",
  "pendingFreshUpdate": false,
  "data": [
    {
      "code": "AEP",
      "label": "Aeroparque",
      "icaoId": "SABE",
      "station_id": "SABE",
      "rawOb": "132300Z 02011KT 350V070 9999 SCT013 09/06 Q1020 NOSIG",
      "raw_text": "132300Z 02011KT 350V070 9999 SCT013 09/06 Q1020 NOSIG",
      "obsTime": "2026-07-13T23:00:00Z",
      "source": "linux-noaa-txt",
      "updatedAt": "2026-07-13T23:09:59.829468Z",
      "reportHourUtc": "2026071323",
      "baseExpectedHourUtc": "2026071322",
      "targetHourUtc": "2026071323",
      "expectedHourUtc": "2026071323",
      "freshForExpectedHour": true,
      "error": null
    },
    {
      "code": "EZE",
      "label": "Ezeiza",
      "icaoId": "SAEZ",
      "station_id": "SAEZ",
      "rawOb": "132300Z 03008KT CAVOK 08/06 Q1019 NOSIG",
      "raw_text": "132300Z 03008KT CAVOK 08/06 Q1019 NOSIG",
      "obsTime": "2026-07-13T23:00:00Z",
      "source": "linux-noaa-txt",
      "updatedAt": "2026-07-13T23:09:59.829468Z",
      "reportHourUtc": "2026071323",
      "baseExpectedHourUtc": "2026071322",
      "targetHourUtc": "2026071323",
      "expectedHourUtc": "2026071323",
      "freshForExpectedHour": true,
      "error": null
    }
  ]
}
