{
  "generatedAtUtc": "2026-07-20T11:09:59.377327Z",
  "baseExpectedHourUtc": "2026072010",
  "targetHourUtc": "2026072011",
  "expectedHourUtc": "2026072011",
  "pendingFreshUpdate": false,
  "data": [
    {
      "code": "AEP",
      "label": "Aeroparque",
      "icaoId": "SABE",
      "station_id": "SABE",
      "rawOb": "201100Z 15008KT 120V180 4000 -DZ OVC006 10/09 Q1011 TEMPO 5000 DZ OVC006",
      "raw_text": "201100Z 15008KT 120V180 4000 -DZ OVC006 10/09 Q1011 TEMPO 5000 DZ OVC006",
      "obsTime": "2026-07-20T11:00:00Z",
      "source": "linux-noaa-txt",
      "updatedAt": "2026-07-20T11:09:59.377327Z",
      "reportHourUtc": "2026072011",
      "baseExpectedHourUtc": "2026072010",
      "targetHourUtc": "2026072011",
      "expectedHourUtc": "2026072011",
      "freshForExpectedHour": true,
      "error": null
    },
    {
      "code": "EZE",
      "label": "Ezeiza",
      "icaoId": "SAEZ",
      "station_id": "SAEZ",
      "rawOb": "201100Z 15007KT 9999 OVC005 10/08 Q1011 NOSIG",
      "raw_text": "201100Z 15007KT 9999 OVC005 10/08 Q1011 NOSIG",
      "obsTime": "2026-07-20T11:00:00Z",
      "source": "linux-noaa-txt",
      "updatedAt": "2026-07-20T11:09:59.377327Z",
      "reportHourUtc": "2026072011",
      "baseExpectedHourUtc": "2026072010",
      "targetHourUtc": "2026072011",
      "expectedHourUtc": "2026072011",
      "freshForExpectedHour": true,
      "error": null
    }
  ]
}
