{
  "generatedAtUtc": "2026-07-20T10:09:59.525171Z",
  "baseExpectedHourUtc": "2026072009",
  "targetHourUtc": "2026072010",
  "expectedHourUtc": "2026072010",
  "pendingFreshUpdate": false,
  "data": [
    {
      "code": "AEP",
      "label": "Aeroparque",
      "icaoId": "SABE",
      "station_id": "SABE",
      "rawOb": "201000Z 13011KT 120V190 2000 DZ OVC005 10/09 Q1011 NOSIG",
      "raw_text": "201000Z 13011KT 120V190 2000 DZ OVC005 10/09 Q1011 NOSIG",
      "obsTime": "2026-07-20T10:00:00Z",
      "source": "linux-noaa-txt",
      "updatedAt": "2026-07-20T10:09:59.525171Z",
      "reportHourUtc": "2026072010",
      "baseExpectedHourUtc": "2026072009",
      "targetHourUtc": "2026072010",
      "expectedHourUtc": "2026072010",
      "freshForExpectedHour": true,
      "error": null
    },
    {
      "code": "EZE",
      "label": "Ezeiza",
      "icaoId": "SAEZ",
      "station_id": "SAEZ",
      "rawOb": "201000Z 12008KT 9999 OVC008 10/08 Q1011 NOSIG",
      "raw_text": "201000Z 12008KT 9999 OVC008 10/08 Q1011 NOSIG",
      "obsTime": "2026-07-20T10:00:00Z",
      "source": "linux-noaa-txt",
      "updatedAt": "2026-07-20T10:09:59.525171Z",
      "reportHourUtc": "2026072010",
      "baseExpectedHourUtc": "2026072009",
      "targetHourUtc": "2026072010",
      "expectedHourUtc": "2026072010",
      "freshForExpectedHour": true,
      "error": null
    }
  ]
}
