{
  "generatedAtUtc": "2026-07-13T10:09:59.885454Z",
  "baseExpectedHourUtc": "2026071309",
  "targetHourUtc": "2026071310",
  "expectedHourUtc": "2026071310",
  "pendingFreshUpdate": false,
  "data": [
    {
      "code": "AEP",
      "label": "Aeroparque",
      "icaoId": "SABE",
      "station_id": "SABE",
      "rawOb": "131000Z 31004KT 8000 SCT005 06/05 Q1024 TEMPO 5000 BR BKN006",
      "raw_text": "131000Z 31004KT 8000 SCT005 06/05 Q1024 TEMPO 5000 BR BKN006",
      "obsTime": "2026-07-13T10:00:00Z",
      "source": "linux-noaa-txt",
      "updatedAt": "2026-07-13T10:09:59.885454Z",
      "reportHourUtc": "2026071310",
      "baseExpectedHourUtc": "2026071309",
      "targetHourUtc": "2026071310",
      "expectedHourUtc": "2026071310",
      "freshForExpectedHour": true,
      "error": null
    },
    {
      "code": "EZE",
      "label": "Ezeiza",
      "icaoId": "SAEZ",
      "station_id": "SAEZ",
      "rawOb": "131000Z 08004KT 2000 BCFG BR SCT003 00/00 Q1023 TEMPO 0300 BCFG BKN003",
      "raw_text": "131000Z 08004KT 2000 BCFG BR SCT003 00/00 Q1023 TEMPO 0300 BCFG BKN003",
      "obsTime": "2026-07-13T10:00:00Z",
      "source": "linux-noaa-txt",
      "updatedAt": "2026-07-13T10:09:59.885454Z",
      "reportHourUtc": "2026071310",
      "baseExpectedHourUtc": "2026071309",
      "targetHourUtc": "2026071310",
      "expectedHourUtc": "2026071310",
      "freshForExpectedHour": true,
      "error": null
    }
  ]
}
