{
  "generatedAtUtc": "2026-07-11T23:09:59.761381Z",
  "baseExpectedHourUtc": "2026071122",
  "targetHourUtc": "2026071123",
  "expectedHourUtc": "2026071123",
  "pendingFreshUpdate": false,
  "data": [
    {
      "code": "AEP",
      "label": "Aeroparque",
      "icaoId": "SABE",
      "station_id": "SABE",
      "rawOb": "112300Z 25005KT 190V320 9999 BKN008 OVC016 10/09 Q1020 NOSIG",
      "raw_text": "112300Z 25005KT 190V320 9999 BKN008 OVC016 10/09 Q1020 NOSIG",
      "obsTime": "2026-07-11T23:00:00Z",
      "source": "linux-noaa-txt",
      "updatedAt": "2026-07-11T23:09:59.761381Z",
      "reportHourUtc": "2026071123",
      "baseExpectedHourUtc": "2026071122",
      "targetHourUtc": "2026071123",
      "expectedHourUtc": "2026071123",
      "freshForExpectedHour": true,
      "error": null
    },
    {
      "code": "EZE",
      "label": "Ezeiza",
      "icaoId": "SAEZ",
      "station_id": "SAEZ",
      "rawOb": "112300Z 26008KT 5000 -DZ BKN005 BKN010 10/09 Q1019 NOSIG",
      "raw_text": "112300Z 26008KT 5000 -DZ BKN005 BKN010 10/09 Q1019 NOSIG",
      "obsTime": "2026-07-11T23:00:00Z",
      "source": "linux-noaa-txt",
      "updatedAt": "2026-07-11T23:09:59.761381Z",
      "reportHourUtc": "2026071123",
      "baseExpectedHourUtc": "2026071122",
      "targetHourUtc": "2026071123",
      "expectedHourUtc": "2026071123",
      "freshForExpectedHour": true,
      "error": null
    }
  ]
}
