{
  "generatedAtUtc": "2026-07-13T01:09:59.402396Z",
  "baseExpectedHourUtc": "2026071300",
  "targetHourUtc": "2026071301",
  "expectedHourUtc": "2026071301",
  "pendingFreshUpdate": false,
  "data": [
    {
      "code": "AEP",
      "label": "Aeroparque",
      "icaoId": "SABE",
      "station_id": "SABE",
      "rawOb": "130100Z VRB02KT CAVOK 09/03 Q1026 NOSIG",
      "raw_text": "130100Z VRB02KT CAVOK 09/03 Q1026 NOSIG",
      "obsTime": "2026-07-13T01:00:00Z",
      "source": "linux-noaa-txt",
      "updatedAt": "2026-07-13T01:09:59.402396Z",
      "reportHourUtc": "2026071301",
      "baseExpectedHourUtc": "2026071300",
      "targetHourUtc": "2026071301",
      "expectedHourUtc": "2026071301",
      "freshForExpectedHour": true,
      "error": null
    },
    {
      "code": "EZE",
      "label": "Ezeiza",
      "icaoId": "SAEZ",
      "station_id": "SAEZ",
      "rawOb": "130100Z 00000KT CAVOK 02/01 Q1025 NOSIG",
      "raw_text": "130100Z 00000KT CAVOK 02/01 Q1025 NOSIG",
      "obsTime": "2026-07-13T01:00:00Z",
      "source": "linux-noaa-txt",
      "updatedAt": "2026-07-13T01:09:59.402396Z",
      "reportHourUtc": "2026071301",
      "baseExpectedHourUtc": "2026071300",
      "targetHourUtc": "2026071301",
      "expectedHourUtc": "2026071301",
      "freshForExpectedHour": true,
      "error": null
    }
  ]
}
