{
  "generatedAtUtc": "2026-07-16T20:09:59.985838Z",
  "baseExpectedHourUtc": "2026071619",
  "targetHourUtc": "2026071620",
  "expectedHourUtc": "2026071620",
  "pendingFreshUpdate": false,
  "data": [
    {
      "code": "AEP",
      "label": "Aeroparque",
      "icaoId": "SABE",
      "station_id": "SABE",
      "rawOb": "162000Z 03005KT 330V080 CAVOK 19/14 Q0998 NOSIG",
      "raw_text": "162000Z 03005KT 330V080 CAVOK 19/14 Q0998 NOSIG",
      "obsTime": "2026-07-16T20:00:00Z",
      "source": "linux-noaa-txt",
      "updatedAt": "2026-07-16T20:09:59.985838Z",
      "reportHourUtc": "2026071620",
      "baseExpectedHourUtc": "2026071619",
      "targetHourUtc": "2026071620",
      "expectedHourUtc": "2026071620",
      "freshForExpectedHour": true,
      "error": null
    },
    {
      "code": "EZE",
      "label": "Ezeiza",
      "icaoId": "SAEZ",
      "station_id": "SAEZ",
      "rawOb": "162000Z 05009KT CAVOK 23/14 Q0998 NOSIG",
      "raw_text": "162000Z 05009KT CAVOK 23/14 Q0998 NOSIG",
      "obsTime": "2026-07-16T20:00:00Z",
      "source": "linux-noaa-txt",
      "updatedAt": "2026-07-16T20:09:59.985838Z",
      "reportHourUtc": "2026071620",
      "baseExpectedHourUtc": "2026071619",
      "targetHourUtc": "2026071620",
      "expectedHourUtc": "2026071620",
      "freshForExpectedHour": true,
      "error": null
    }
  ]
}
