{
  "generatedAtUtc": "2026-07-15T10:09:59.993649Z",
  "baseExpectedHourUtc": "2026071509",
  "targetHourUtc": "2026071510",
  "expectedHourUtc": "2026071510",
  "pendingFreshUpdate": false,
  "data": [
    {
      "code": "AEP",
      "label": "Aeroparque",
      "icaoId": "SABE",
      "station_id": "SABE",
      "rawOb": "151000Z 35004KT 250V030 CAVOK 13/09 Q1013 NOSIG",
      "raw_text": "151000Z 35004KT 250V030 CAVOK 13/09 Q1013 NOSIG",
      "obsTime": "2026-07-15T10:00:00Z",
      "source": "linux-noaa-txt",
      "updatedAt": "2026-07-15T10:09:59.993649Z",
      "reportHourUtc": "2026071510",
      "baseExpectedHourUtc": "2026071509",
      "targetHourUtc": "2026071510",
      "expectedHourUtc": "2026071510",
      "freshForExpectedHour": true,
      "error": null
    },
    {
      "code": "EZE",
      "label": "Ezeiza",
      "icaoId": "SAEZ",
      "station_id": "SAEZ",
      "rawOb": "151000Z 03004KT 9999 FEW021 BKN100 12/09 Q1012 NOSIG",
      "raw_text": "151000Z 03004KT 9999 FEW021 BKN100 12/09 Q1012 NOSIG",
      "obsTime": "2026-07-15T10:00:00Z",
      "source": "linux-noaa-txt",
      "updatedAt": "2026-07-15T10:09:59.993649Z",
      "reportHourUtc": "2026071510",
      "baseExpectedHourUtc": "2026071509",
      "targetHourUtc": "2026071510",
      "expectedHourUtc": "2026071510",
      "freshForExpectedHour": true,
      "error": null
    }
  ]
}
