{
  "generatedAtUtc": "2026-07-12T11:09:59.729635Z",
  "baseExpectedHourUtc": "2026071210",
  "targetHourUtc": "2026071211",
  "expectedHourUtc": "2026071211",
  "pendingFreshUpdate": false,
  "data": [
    {
      "code": "AEP",
      "label": "Aeroparque",
      "icaoId": "SABE",
      "station_id": "SABE",
      "rawOb": "121100Z 19007KT 100V240 9999 OVC010 07/05 Q1024 NOSIG",
      "raw_text": "121100Z 19007KT 100V240 9999 OVC010 07/05 Q1024 NOSIG",
      "obsTime": "2026-07-12T11:00:00Z",
      "source": "linux-noaa-txt",
      "updatedAt": "2026-07-12T11:09:59.729635Z",
      "reportHourUtc": "2026071211",
      "baseExpectedHourUtc": "2026071210",
      "targetHourUtc": "2026071211",
      "expectedHourUtc": "2026071211",
      "freshForExpectedHour": true,
      "error": null
    },
    {
      "code": "EZE",
      "label": "Ezeiza",
      "icaoId": "SAEZ",
      "station_id": "SAEZ",
      "rawOb": "121100Z 20007KT 160V220 9000 -DZ OVC009 07/06 Q1023 NOSIG",
      "raw_text": "121100Z 20007KT 160V220 9000 -DZ OVC009 07/06 Q1023 NOSIG",
      "obsTime": "2026-07-12T11:00:00Z",
      "source": "linux-noaa-txt",
      "updatedAt": "2026-07-12T11:09:59.729635Z",
      "reportHourUtc": "2026071211",
      "baseExpectedHourUtc": "2026071210",
      "targetHourUtc": "2026071211",
      "expectedHourUtc": "2026071211",
      "freshForExpectedHour": true,
      "error": null
    }
  ]
}
