{
  "generatedAtUtc": "2026-07-16T01:10:00.071892Z",
  "baseExpectedHourUtc": "2026071601",
  "targetHourUtc": "2026071601",
  "expectedHourUtc": "2026071601",
  "pendingFreshUpdate": false,
  "data": [
    {
      "code": "AEP",
      "label": "Aeroparque",
      "icaoId": "SABE",
      "station_id": "SABE",
      "rawOb": "160100Z 09006KT CAVOK 16/12 Q1008 NOSIG",
      "raw_text": "160100Z 09006KT CAVOK 16/12 Q1008 NOSIG",
      "obsTime": "2026-07-16T01:00:00Z",
      "source": "linux-noaa-txt",
      "updatedAt": "2026-07-16T01:10:00.071892Z",
      "reportHourUtc": "2026071601",
      "baseExpectedHourUtc": "2026071601",
      "targetHourUtc": "2026071601",
      "expectedHourUtc": "2026071601",
      "freshForExpectedHour": true,
      "error": null
    },
    {
      "code": "EZE",
      "label": "Ezeiza",
      "icaoId": "SAEZ",
      "station_id": "SAEZ",
      "rawOb": "160100Z 07006KT CAVOK 17/12 Q1007 NOSIG",
      "raw_text": "160100Z 07006KT CAVOK 17/12 Q1007 NOSIG",
      "obsTime": "2026-07-16T01:00:00Z",
      "source": "linux-noaa-txt",
      "updatedAt": "2026-07-16T01:10:00.071892Z",
      "reportHourUtc": "2026071601",
      "baseExpectedHourUtc": "2026071601",
      "targetHourUtc": "2026071601",
      "expectedHourUtc": "2026071601",
      "freshForExpectedHour": true,
      "error": null
    }
  ]
}
