{
  "generatedAtUtc": "2026-07-17T01:09:59.448941Z",
  "baseExpectedHourUtc": "2026071700",
  "targetHourUtc": "2026071701",
  "expectedHourUtc": "2026071701",
  "pendingFreshUpdate": false,
  "data": [
    {
      "code": "AEP",
      "label": "Aeroparque",
      "icaoId": "SABE",
      "station_id": "SABE",
      "rawOb": "170100Z VRB02KT CAVOK 17/14 Q0999 NOSIG",
      "raw_text": "170100Z VRB02KT CAVOK 17/14 Q0999 NOSIG",
      "obsTime": "2026-07-17T01:00:00Z",
      "source": "linux-noaa-txt",
      "updatedAt": "2026-07-17T01:09:59.448941Z",
      "reportHourUtc": "2026071701",
      "baseExpectedHourUtc": "2026071700",
      "targetHourUtc": "2026071701",
      "expectedHourUtc": "2026071701",
      "freshForExpectedHour": true,
      "error": null
    },
    {
      "code": "EZE",
      "label": "Ezeiza",
      "icaoId": "SAEZ",
      "station_id": "SAEZ",
      "rawOb": "170100Z 05007KT CAVOK 21/16 Q0998 NOSIG",
      "raw_text": "170100Z 05007KT CAVOK 21/16 Q0998 NOSIG",
      "obsTime": "2026-07-17T01:00:00Z",
      "source": "linux-noaa-txt",
      "updatedAt": "2026-07-17T01:09:59.448941Z",
      "reportHourUtc": "2026071701",
      "baseExpectedHourUtc": "2026071700",
      "targetHourUtc": "2026071701",
      "expectedHourUtc": "2026071701",
      "freshForExpectedHour": true,
      "error": null
    }
  ]
}
