{
  "generatedAtUtc": "2026-07-12T19:10:00.001370Z",
  "baseExpectedHourUtc": "2026071219",
  "targetHourUtc": "2026071219",
  "expectedHourUtc": "2026071219",
  "pendingFreshUpdate": false,
  "data": [
    {
      "code": "AEP",
      "label": "Aeroparque",
      "icaoId": "SABE",
      "station_id": "SABE",
      "rawOb": "121900Z VRB03KT 9999 FEW025 12/04 Q1024 NOSIG",
      "raw_text": "121900Z VRB03KT 9999 FEW025 12/04 Q1024 NOSIG",
      "obsTime": "2026-07-12T19:00:00Z",
      "source": "linux-noaa-txt",
      "updatedAt": "2026-07-12T19:10:00.001370Z",
      "reportHourUtc": "2026071219",
      "baseExpectedHourUtc": "2026071219",
      "targetHourUtc": "2026071219",
      "expectedHourUtc": "2026071219",
      "freshForExpectedHour": true,
      "error": null
    },
    {
      "code": "EZE",
      "label": "Ezeiza",
      "icaoId": "SAEZ",
      "station_id": "SAEZ",
      "rawOb": "121900Z 26006KT 9999 FEW028 12/04 Q1024 NOSIG",
      "raw_text": "121900Z 26006KT 9999 FEW028 12/04 Q1024 NOSIG",
      "obsTime": "2026-07-12T19:00:00Z",
      "source": "linux-noaa-txt",
      "updatedAt": "2026-07-12T19:10:00.001370Z",
      "reportHourUtc": "2026071219",
      "baseExpectedHourUtc": "2026071219",
      "targetHourUtc": "2026071219",
      "expectedHourUtc": "2026071219",
      "freshForExpectedHour": true,
      "error": null
    }
  ]
}
