{
  "generatedAtUtc": "2026-07-15T06:09:59.778243Z",
  "baseExpectedHourUtc": "2026071505",
  "targetHourUtc": "2026071506",
  "expectedHourUtc": "2026071506",
  "pendingFreshUpdate": false,
  "data": [
    {
      "code": "AEP",
      "label": "Aeroparque",
      "icaoId": "SABE",
      "station_id": "SABE",
      "rawOb": "150600Z 36006KT CAVOK 13/09 Q1013 NOSIG",
      "raw_text": "150600Z 36006KT CAVOK 13/09 Q1013 NOSIG",
      "obsTime": "2026-07-15T06:00:00Z",
      "source": "linux-noaa-txt",
      "updatedAt": "2026-07-15T06:09:59.778243Z",
      "reportHourUtc": "2026071506",
      "baseExpectedHourUtc": "2026071505",
      "targetHourUtc": "2026071506",
      "expectedHourUtc": "2026071506",
      "freshForExpectedHour": true,
      "error": null
    },
    {
      "code": "EZE",
      "label": "Ezeiza",
      "icaoId": "SAEZ",
      "station_id": "SAEZ",
      "rawOb": "150600Z 02011KT CAVOK 14/08 Q1012 NOSIG",
      "raw_text": "150600Z 02011KT CAVOK 14/08 Q1012 NOSIG",
      "obsTime": "2026-07-15T06:00:00Z",
      "source": "linux-noaa-txt",
      "updatedAt": "2026-07-15T06:09:59.778243Z",
      "reportHourUtc": "2026071506",
      "baseExpectedHourUtc": "2026071505",
      "targetHourUtc": "2026071506",
      "expectedHourUtc": "2026071506",
      "freshForExpectedHour": true,
      "error": null
    }
  ]
}
