{
  "generatedAtUtc": "2026-07-21T00:09:59.297172Z",
  "baseExpectedHourUtc": "2026072023",
  "targetHourUtc": "2026072100",
  "expectedHourUtc": "2026072100",
  "pendingFreshUpdate": true,
  "data": [
    {
      "code": "AEP",
      "label": "Aeroparque",
      "icaoId": "SABE",
      "station_id": "SABE",
      "rawOb": "202322Z 12016KT 3000 -DZ BR OVC006 12/11 Q1011 NOSIG",
      "raw_text": "202322Z 12016KT 3000 -DZ BR OVC006 12/11 Q1011 NOSIG",
      "obsTime": "2026-07-20T23:22:00Z",
      "source": "linux-noaa-txt",
      "updatedAt": "2026-07-21T00:09:59.297172Z",
      "reportHourUtc": "2026072023",
      "baseExpectedHourUtc": "2026072023",
      "targetHourUtc": "2026072100",
      "expectedHourUtc": "2026072100",
      "freshForExpectedHour": false,
      "error": "Esperando actualización de 2026072100…"
    },
    {
      "code": "EZE",
      "label": "Ezeiza",
      "icaoId": "SAEZ",
      "station_id": "SAEZ",
      "rawOb": "210000Z 14006KT 1500 DZ BR OVC004 11/11 Q1011 NOSIG",
      "raw_text": "210000Z 14006KT 1500 DZ BR OVC004 11/11 Q1011 NOSIG",
      "obsTime": "2026-07-21T00:00:00Z",
      "source": "linux-noaa-txt",
      "updatedAt": "2026-07-21T00:09:59.297172Z",
      "reportHourUtc": "2026072100",
      "baseExpectedHourUtc": "2026072023",
      "targetHourUtc": "2026072100",
      "expectedHourUtc": "2026072100",
      "freshForExpectedHour": true,
      "error": null
    }
  ]
}
