{
  "generatedAtUtc": "2026-07-19T02:09:59.769385Z",
  "baseExpectedHourUtc": "2026071901",
  "targetHourUtc": "2026071902",
  "expectedHourUtc": "2026071902",
  "pendingFreshUpdate": false,
  "data": [
    {
      "code": "AEP",
      "label": "Aeroparque",
      "icaoId": "SABE",
      "station_id": "SABE",
      "rawOb": "190200Z 11011KT 1000 R13/P2000N BR OVC004 13/12 Q1005 NOSIG",
      "raw_text": "190200Z 11011KT 1000 R13/P2000N BR OVC004 13/12 Q1005 NOSIG",
      "obsTime": "2026-07-19T02:00:00Z",
      "source": "linux-noaa-txt",
      "updatedAt": "2026-07-19T02:09:59.769385Z",
      "reportHourUtc": "2026071902",
      "baseExpectedHourUtc": "2026071901",
      "targetHourUtc": "2026071902",
      "expectedHourUtc": "2026071902",
      "freshForExpectedHour": true,
      "error": null
    },
    {
      "code": "EZE",
      "label": "Ezeiza",
      "icaoId": "SAEZ",
      "station_id": "SAEZ",
      "rawOb": "190200Z 16006KT 9999 OVC008 13/11 Q1005 NOSIG",
      "raw_text": "190200Z 16006KT 9999 OVC008 13/11 Q1005 NOSIG",
      "obsTime": "2026-07-19T02:00:00Z",
      "source": "linux-noaa-txt",
      "updatedAt": "2026-07-19T02:09:59.769385Z",
      "reportHourUtc": "2026071902",
      "baseExpectedHourUtc": "2026071901",
      "targetHourUtc": "2026071902",
      "expectedHourUtc": "2026071902",
      "freshForExpectedHour": true,
      "error": null
    }
  ]
}
