{
  "generatedAtUtc": "2026-07-12T07:09:59.665336Z",
  "baseExpectedHourUtc": "2026071206",
  "targetHourUtc": "2026071207",
  "expectedHourUtc": "2026071207",
  "pendingFreshUpdate": false,
  "data": [
    {
      "code": "AEP",
      "label": "Aeroparque",
      "icaoId": "SABE",
      "station_id": "SABE",
      "rawOb": "120700Z 19006KT 140V230 9999 BKN010 08/06 Q1021 NOSIG",
      "raw_text": "120700Z 19006KT 140V230 9999 BKN010 08/06 Q1021 NOSIG",
      "obsTime": "2026-07-12T07:00:00Z",
      "source": "linux-noaa-txt",
      "updatedAt": "2026-07-12T07:09:59.665336Z",
      "reportHourUtc": "2026071207",
      "baseExpectedHourUtc": "2026071206",
      "targetHourUtc": "2026071207",
      "expectedHourUtc": "2026071207",
      "freshForExpectedHour": true,
      "error": null
    },
    {
      "code": "EZE",
      "label": "Ezeiza",
      "icaoId": "SAEZ",
      "station_id": "SAEZ",
      "rawOb": "120700Z 18007KT 9000 -DZ OVC003 07/06 Q1022 NOSIG",
      "raw_text": "120700Z 18007KT 9000 -DZ OVC003 07/06 Q1022 NOSIG",
      "obsTime": "2026-07-12T07:00:00Z",
      "source": "linux-noaa-txt",
      "updatedAt": "2026-07-12T07:09:59.665336Z",
      "reportHourUtc": "2026071207",
      "baseExpectedHourUtc": "2026071206",
      "targetHourUtc": "2026071207",
      "expectedHourUtc": "2026071207",
      "freshForExpectedHour": true,
      "error": null
    }
  ]
}
