{
  "generatedAtUtc": "2026-07-18T11:09:59.124653Z",
  "baseExpectedHourUtc": "2026071810",
  "targetHourUtc": "2026071811",
  "expectedHourUtc": "2026071811",
  "pendingFreshUpdate": false,
  "data": [
    {
      "code": "AEP",
      "label": "Aeroparque",
      "icaoId": "SABE",
      "station_id": "SABE",
      "rawOb": "181100Z 11010KT 070V130 8000 OVC006 16/15 Q1000 NOSIG",
      "raw_text": "181100Z 11010KT 070V130 8000 OVC006 16/15 Q1000 NOSIG",
      "obsTime": "2026-07-18T11:00:00Z",
      "source": "linux-noaa-txt",
      "updatedAt": "2026-07-18T11:09:59.124653Z",
      "reportHourUtc": "2026071811",
      "baseExpectedHourUtc": "2026071810",
      "targetHourUtc": "2026071811",
      "expectedHourUtc": "2026071811",
      "freshForExpectedHour": true,
      "error": null
    },
    {
      "code": "EZE",
      "label": "Ezeiza",
      "icaoId": "SAEZ",
      "station_id": "SAEZ",
      "rawOb": "181100Z 13008KT 5000 BR OVC004 16/15 Q0999 TEMPO 13008KT 5000 -DZ OVC005",
      "raw_text": "181100Z 13008KT 5000 BR OVC004 16/15 Q0999 TEMPO 13008KT 5000 -DZ OVC005",
      "obsTime": "2026-07-18T11:00:00Z",
      "source": "linux-noaa-txt",
      "updatedAt": "2026-07-18T11:09:59.124653Z",
      "reportHourUtc": "2026071811",
      "baseExpectedHourUtc": "2026071810",
      "targetHourUtc": "2026071811",
      "expectedHourUtc": "2026071811",
      "freshForExpectedHour": true,
      "error": null
    }
  ]
}
