{
  "generatedAtUtc": "2026-07-19T16:11:02.565325Z",
  "baseExpectedHourUtc": "2026071916",
  "targetHourUtc": "2026071916",
  "expectedHourUtc": "2026071916",
  "pendingFreshUpdate": false,
  "data": [
    {
      "code": "AEP",
      "label": "Aeroparque",
      "icaoId": "SABE",
      "station_id": "SABE",
      "rawOb": "191600Z 16009KT 130V200 4500 DZ BKN009 OVC024 10/08 Q1005 NOSIG",
      "raw_text": "191600Z 16009KT 130V200 4500 DZ BKN009 OVC024 10/08 Q1005 NOSIG",
      "obsTime": "2026-07-19T16:00:00Z",
      "source": "linux-noaa-txt",
      "updatedAt": "2026-07-19T16:11:02.565325Z",
      "reportHourUtc": "2026071916",
      "baseExpectedHourUtc": "2026071916",
      "targetHourUtc": "2026071916",
      "expectedHourUtc": "2026071916",
      "freshForExpectedHour": true,
      "error": null
    },
    {
      "code": "EZE",
      "label": "Ezeiza",
      "icaoId": "SAEZ",
      "station_id": "SAEZ",
      "rawOb": "191600Z 15009KT 7000 -DZ SCT007 OVC013 10/09 Q1005 NOSIG",
      "raw_text": "191600Z 15009KT 7000 -DZ SCT007 OVC013 10/09 Q1005 NOSIG",
      "obsTime": "2026-07-19T16:00:00Z",
      "source": "linux-noaa-txt",
      "updatedAt": "2026-07-19T16:11:02.565325Z",
      "reportHourUtc": "2026071916",
      "baseExpectedHourUtc": "2026071916",
      "targetHourUtc": "2026071916",
      "expectedHourUtc": "2026071916",
      "freshForExpectedHour": true,
      "error": null
    }
  ]
}
