{
  "generatedAtUtc": "2026-07-20T16:10:00.025148Z",
  "baseExpectedHourUtc": "2026072016",
  "targetHourUtc": "2026072016",
  "expectedHourUtc": "2026072016",
  "pendingFreshUpdate": false,
  "data": [
    {
      "code": "AEP",
      "label": "Aeroparque",
      "icaoId": "SABE",
      "station_id": "SABE",
      "rawOb": "201600Z 13016KT 9999 OVC011 13/10 Q1010 NOSIG",
      "raw_text": "201600Z 13016KT 9999 OVC011 13/10 Q1010 NOSIG",
      "obsTime": "2026-07-20T16:00:00Z",
      "source": "linux-noaa-txt",
      "updatedAt": "2026-07-20T16:10:00.025148Z",
      "reportHourUtc": "2026072016",
      "baseExpectedHourUtc": "2026072016",
      "targetHourUtc": "2026072016",
      "expectedHourUtc": "2026072016",
      "freshForExpectedHour": true,
      "error": null
    },
    {
      "code": "EZE",
      "label": "Ezeiza",
      "icaoId": "SAEZ",
      "station_id": "SAEZ",
      "rawOb": "201600Z 13007KT 9999 BKN015 OVC020 12/09 Q1011 NOSIG",
      "raw_text": "201600Z 13007KT 9999 BKN015 OVC020 12/09 Q1011 NOSIG",
      "obsTime": "2026-07-20T16:00:00Z",
      "source": "linux-noaa-txt",
      "updatedAt": "2026-07-20T16:10:00.025148Z",
      "reportHourUtc": "2026072016",
      "baseExpectedHourUtc": "2026072016",
      "targetHourUtc": "2026072016",
      "expectedHourUtc": "2026072016",
      "freshForExpectedHour": true,
      "error": null
    }
  ]
}
