{
  "generatedAtUtc": "2026-07-21T20:09:59.582979Z",
  "baseExpectedHourUtc": "2026072119",
  "targetHourUtc": "2026072120",
  "expectedHourUtc": "2026072120",
  "pendingFreshUpdate": false,
  "data": [
    {
      "code": "AEP",
      "label": "Aeroparque",
      "icaoId": "SABE",
      "station_id": "SABE",
      "rawOb": "212000Z 12010KT 1500 DZ BR BKN005 OVC012 12/11 Q1013 NOSIG",
      "raw_text": "212000Z 12010KT 1500 DZ BR BKN005 OVC012 12/11 Q1013 NOSIG",
      "obsTime": "2026-07-21T20:00:00Z",
      "source": "linux-noaa-txt",
      "updatedAt": "2026-07-21T20:09:59.582979Z",
      "reportHourUtc": "2026072120",
      "baseExpectedHourUtc": "2026072119",
      "targetHourUtc": "2026072120",
      "expectedHourUtc": "2026072120",
      "freshForExpectedHour": true,
      "error": null
    },
    {
      "code": "EZE",
      "label": "Ezeiza",
      "icaoId": "SAEZ",
      "station_id": "SAEZ",
      "rawOb": "212000Z 13007KT 3000 -DZ BR BKN005 OVC015 12/11 Q1013 NOSIG",
      "raw_text": "212000Z 13007KT 3000 -DZ BR BKN005 OVC015 12/11 Q1013 NOSIG",
      "obsTime": "2026-07-21T20:00:00Z",
      "source": "linux-noaa-txt",
      "updatedAt": "2026-07-21T20:09:59.582979Z",
      "reportHourUtc": "2026072120",
      "baseExpectedHourUtc": "2026072119",
      "targetHourUtc": "2026072120",
      "expectedHourUtc": "2026072120",
      "freshForExpectedHour": true,
      "error": null
    }
  ]
}
