{
  "generatedAtUtc": "2026-07-13T22:09:59.969023Z",
  "baseExpectedHourUtc": "2026071321",
  "targetHourUtc": "2026071322",
  "expectedHourUtc": "2026071322",
  "pendingFreshUpdate": false,
  "data": [
    {
      "code": "AEP",
      "label": "Aeroparque",
      "icaoId": "SABE",
      "station_id": "SABE",
      "rawOb": "132200Z 01009KT 350V060 9999 FEW017 BKN200 10/06 Q1020 NOSIG",
      "raw_text": "132200Z 01009KT 350V060 9999 FEW017 BKN200 10/06 Q1020 NOSIG",
      "obsTime": "2026-07-13T22:00:00Z",
      "source": "linux-noaa-txt",
      "updatedAt": "2026-07-13T22:09:59.969023Z",
      "reportHourUtc": "2026071322",
      "baseExpectedHourUtc": "2026071321",
      "targetHourUtc": "2026071322",
      "expectedHourUtc": "2026071322",
      "freshForExpectedHour": true,
      "error": null
    },
    {
      "code": "EZE",
      "label": "Ezeiza",
      "icaoId": "SAEZ",
      "station_id": "SAEZ",
      "rawOb": "132200Z 03007KT CAVOK 08/05 Q1019 NOSIG",
      "raw_text": "132200Z 03007KT CAVOK 08/05 Q1019 NOSIG",
      "obsTime": "2026-07-13T22:00:00Z",
      "source": "linux-noaa-txt",
      "updatedAt": "2026-07-13T22:09:59.969023Z",
      "reportHourUtc": "2026071322",
      "baseExpectedHourUtc": "2026071321",
      "targetHourUtc": "2026071322",
      "expectedHourUtc": "2026071322",
      "freshForExpectedHour": true,
      "error": null
    }
  ]
}
