{
  "generatedAtUtc": "2026-07-18T04:09:59.797722Z",
  "baseExpectedHourUtc": "2026071803",
  "targetHourUtc": "2026071804",
  "expectedHourUtc": "2026071804",
  "pendingFreshUpdate": false,
  "data": [
    {
      "code": "AEP",
      "label": "Aeroparque",
      "icaoId": "SABE",
      "station_id": "SABE",
      "rawOb": "180400Z 07004KT 360V130 2500 BR SCT013 OVC200 17/16 Q0999 NOSIG",
      "raw_text": "180400Z 07004KT 360V130 2500 BR SCT013 OVC200 17/16 Q0999 NOSIG",
      "obsTime": "2026-07-18T04:00:00Z",
      "source": "linux-noaa-txt",
      "updatedAt": "2026-07-18T04:09:59.797722Z",
      "reportHourUtc": "2026071804",
      "baseExpectedHourUtc": "2026071803",
      "targetHourUtc": "2026071804",
      "expectedHourUtc": "2026071804",
      "freshForExpectedHour": true,
      "error": null
    },
    {
      "code": "EZE",
      "label": "Ezeiza",
      "icaoId": "SAEZ",
      "station_id": "SAEZ",
      "rawOb": "180400Z 19002KT 3000 BR BKN005 OVC017 19/18 Q0999 NOSIG",
      "raw_text": "180400Z 19002KT 3000 BR BKN005 OVC017 19/18 Q0999 NOSIG",
      "obsTime": "2026-07-18T04:00:00Z",
      "source": "linux-noaa-txt",
      "updatedAt": "2026-07-18T04:09:59.797722Z",
      "reportHourUtc": "2026071804",
      "baseExpectedHourUtc": "2026071803",
      "targetHourUtc": "2026071804",
      "expectedHourUtc": "2026071804",
      "freshForExpectedHour": true,
      "error": null
    }
  ]
}
