{
  "generatedAtUtc": "2026-07-20T08:09:59.973082Z",
  "baseExpectedHourUtc": "2026072007",
  "targetHourUtc": "2026072008",
  "expectedHourUtc": "2026072008",
  "pendingFreshUpdate": false,
  "data": [
    {
      "code": "AEP",
      "label": "Aeroparque",
      "icaoId": "SABE",
      "station_id": "SABE",
      "rawOb": "200800Z 13012KT 8000 -DZ OVC009 10/08 Q1011 NOSIG",
      "raw_text": "200800Z 13012KT 8000 -DZ OVC009 10/08 Q1011 NOSIG",
      "obsTime": "2026-07-20T08:00:00Z",
      "source": "linux-noaa-txt",
      "updatedAt": "2026-07-20T08:09:59.973082Z",
      "reportHourUtc": "2026072008",
      "baseExpectedHourUtc": "2026072007",
      "targetHourUtc": "2026072008",
      "expectedHourUtc": "2026072008",
      "freshForExpectedHour": true,
      "error": null
    },
    {
      "code": "EZE",
      "label": "Ezeiza",
      "icaoId": "SAEZ",
      "station_id": "SAEZ",
      "rawOb": "200800Z 12011KT 9999 OVC009 09/08 Q1011 NOSIG",
      "raw_text": "200800Z 12011KT 9999 OVC009 09/08 Q1011 NOSIG",
      "obsTime": "2026-07-20T08:00:00Z",
      "source": "linux-noaa-txt",
      "updatedAt": "2026-07-20T08:09:59.973082Z",
      "reportHourUtc": "2026072008",
      "baseExpectedHourUtc": "2026072007",
      "targetHourUtc": "2026072008",
      "expectedHourUtc": "2026072008",
      "freshForExpectedHour": true,
      "error": null
    }
  ]
}
