{
  "generatedAtUtc": "2026-07-19T21:09:59.701385Z",
  "baseExpectedHourUtc": "2026071920",
  "targetHourUtc": "2026071921",
  "expectedHourUtc": "2026071921",
  "pendingFreshUpdate": false,
  "data": [
    {
      "code": "AEP",
      "label": "Aeroparque",
      "icaoId": "SABE",
      "station_id": "SABE",
      "rawOb": "192100Z 14012KT 120V190 9999 BKN017 OVC039 13/09 Q1007 NOSIG",
      "raw_text": "192100Z 14012KT 120V190 9999 BKN017 OVC039 13/09 Q1007 NOSIG",
      "obsTime": "2026-07-19T21:00:00Z",
      "source": "linux-noaa-txt",
      "updatedAt": "2026-07-19T21:09:59.701385Z",
      "reportHourUtc": "2026071921",
      "baseExpectedHourUtc": "2026071920",
      "targetHourUtc": "2026071921",
      "expectedHourUtc": "2026071921",
      "freshForExpectedHour": true,
      "error": null
    },
    {
      "code": "EZE",
      "label": "Ezeiza",
      "icaoId": "SAEZ",
      "station_id": "SAEZ",
      "rawOb": "192100Z 16009KT 9999 OVC017 13/10 Q1007 NOSIG",
      "raw_text": "192100Z 16009KT 9999 OVC017 13/10 Q1007 NOSIG",
      "obsTime": "2026-07-19T21:00:00Z",
      "source": "linux-noaa-txt",
      "updatedAt": "2026-07-19T21:09:59.701385Z",
      "reportHourUtc": "2026071921",
      "baseExpectedHourUtc": "2026071920",
      "targetHourUtc": "2026071921",
      "expectedHourUtc": "2026071921",
      "freshForExpectedHour": true,
      "error": null
    }
  ]
}
