{
  "generatedAtUtc": "2026-07-16T05:10:00.005795Z",
  "baseExpectedHourUtc": "2026071605",
  "targetHourUtc": "2026071605",
  "expectedHourUtc": "2026071605",
  "pendingFreshUpdate": false,
  "data": [
    {
      "code": "AEP",
      "label": "Aeroparque",
      "icaoId": "SABE",
      "station_id": "SABE",
      "rawOb": "160500Z 07005KT CAVOK 16/12 Q1007 NOSIG",
      "raw_text": "160500Z 07005KT CAVOK 16/12 Q1007 NOSIG",
      "obsTime": "2026-07-16T05:00:00Z",
      "source": "linux-noaa-txt",
      "updatedAt": "2026-07-16T05:10:00.005795Z",
      "reportHourUtc": "2026071605",
      "baseExpectedHourUtc": "2026071605",
      "targetHourUtc": "2026071605",
      "expectedHourUtc": "2026071605",
      "freshForExpectedHour": true,
      "error": null
    },
    {
      "code": "EZE",
      "label": "Ezeiza",
      "icaoId": "SAEZ",
      "station_id": "SAEZ",
      "rawOb": "160500Z 01008KT 340V040 9999 OVC046 18/12 Q1007 NOSIG",
      "raw_text": "160500Z 01008KT 340V040 9999 OVC046 18/12 Q1007 NOSIG",
      "obsTime": "2026-07-16T05:00:00Z",
      "source": "linux-noaa-txt",
      "updatedAt": "2026-07-16T05:10:00.005795Z",
      "reportHourUtc": "2026071605",
      "baseExpectedHourUtc": "2026071605",
      "targetHourUtc": "2026071605",
      "expectedHourUtc": "2026071605",
      "freshForExpectedHour": true,
      "error": null
    }
  ]
}
