{
  "generatedAtUtc": "2026-07-14T20:09:59.801471Z",
  "baseExpectedHourUtc": "2026071419",
  "targetHourUtc": "2026071420",
  "expectedHourUtc": "2026071420",
  "pendingFreshUpdate": false,
  "data": [
    {
      "code": "AEP",
      "label": "Aeroparque",
      "icaoId": "SABE",
      "station_id": "SABE",
      "rawOb": "142000Z 02004KT 320V070 CAVOK 14/09 Q1014 NOSIG",
      "raw_text": "142000Z 02004KT 320V070 CAVOK 14/09 Q1014 NOSIG",
      "obsTime": "2026-07-14T20:00:00Z",
      "source": "linux-noaa-txt",
      "updatedAt": "2026-07-14T20:09:59.801471Z",
      "reportHourUtc": "2026071420",
      "baseExpectedHourUtc": "2026071419",
      "targetHourUtc": "2026071420",
      "expectedHourUtc": "2026071420",
      "freshForExpectedHour": true,
      "error": null
    },
    {
      "code": "EZE",
      "label": "Ezeiza",
      "icaoId": "SAEZ",
      "station_id": "SAEZ",
      "rawOb": "142000Z 04008KT CAVOK 16/09 Q1014 NOSIG",
      "raw_text": "142000Z 04008KT CAVOK 16/09 Q1014 NOSIG",
      "obsTime": "2026-07-14T20:00:00Z",
      "source": "linux-noaa-txt",
      "updatedAt": "2026-07-14T20:09:59.801471Z",
      "reportHourUtc": "2026071420",
      "baseExpectedHourUtc": "2026071419",
      "targetHourUtc": "2026071420",
      "expectedHourUtc": "2026071420",
      "freshForExpectedHour": true,
      "error": null
    }
  ]
}
