{
  "generatedAtUtc": "2026-07-20T04:10:00.029214Z",
  "baseExpectedHourUtc": "2026072004",
  "targetHourUtc": "2026072004",
  "expectedHourUtc": "2026072004",
  "pendingFreshUpdate": false,
  "data": [
    {
      "code": "AEP",
      "label": "Aeroparque",
      "icaoId": "SABE",
      "station_id": "SABE",
      "rawOb": "200400Z 14012KT 110V180 9999 OVC015 11/08 Q1011 NOSIG",
      "raw_text": "200400Z 14012KT 110V180 9999 OVC015 11/08 Q1011 NOSIG",
      "obsTime": "2026-07-20T04:00:00Z",
      "source": "linux-noaa-txt",
      "updatedAt": "2026-07-20T04:10:00.029214Z",
      "reportHourUtc": "2026072004",
      "baseExpectedHourUtc": "2026072004",
      "targetHourUtc": "2026072004",
      "expectedHourUtc": "2026072004",
      "freshForExpectedHour": true,
      "error": null
    },
    {
      "code": "EZE",
      "label": "Ezeiza",
      "icaoId": "SAEZ",
      "station_id": "SAEZ",
      "rawOb": "200400Z 14009KT 9999 FEW008 BKN014 10/08 Q1011 NOSIG",
      "raw_text": "200400Z 14009KT 9999 FEW008 BKN014 10/08 Q1011 NOSIG",
      "obsTime": "2026-07-20T04:00:00Z",
      "source": "linux-noaa-txt",
      "updatedAt": "2026-07-20T04:10:00.029214Z",
      "reportHourUtc": "2026072004",
      "baseExpectedHourUtc": "2026072004",
      "targetHourUtc": "2026072004",
      "expectedHourUtc": "2026072004",
      "freshForExpectedHour": true,
      "error": null
    }
  ]
}
