{
  "generatedAtUtc": "2026-07-21T10:09:59.934058Z",
  "baseExpectedHourUtc": "2026072109",
  "targetHourUtc": "2026072110",
  "expectedHourUtc": "2026072110",
  "pendingFreshUpdate": false,
  "data": [
    {
      "code": "AEP",
      "label": "Aeroparque",
      "icaoId": "SABE",
      "station_id": "SABE",
      "rawOb": "211000Z 19004KT 150V220 5000 -DZ OVC006 11/10 Q1012 NOSIG",
      "raw_text": "211000Z 19004KT 150V220 5000 -DZ OVC006 11/10 Q1012 NOSIG",
      "obsTime": "2026-07-21T10:00:00Z",
      "source": "linux-noaa-txt",
      "updatedAt": "2026-07-21T10:09:59.934058Z",
      "reportHourUtc": "2026072110",
      "baseExpectedHourUtc": "2026072109",
      "targetHourUtc": "2026072110",
      "expectedHourUtc": "2026072110",
      "freshForExpectedHour": true,
      "error": null
    },
    {
      "code": "EZE",
      "label": "Ezeiza",
      "icaoId": "SAEZ",
      "station_id": "SAEZ",
      "rawOb": "211000Z 19003KT 5000 -DZ BR OVC003 10/10 Q1011 NOSIG",
      "raw_text": "211000Z 19003KT 5000 -DZ BR OVC003 10/10 Q1011 NOSIG",
      "obsTime": "2026-07-21T10:00:00Z",
      "source": "linux-noaa-txt",
      "updatedAt": "2026-07-21T10:09:59.934058Z",
      "reportHourUtc": "2026072110",
      "baseExpectedHourUtc": "2026072109",
      "targetHourUtc": "2026072110",
      "expectedHourUtc": "2026072110",
      "freshForExpectedHour": true,
      "error": null
    }
  ]
}
