{
  "generatedAtUtc": "2026-07-24T12:09:59.601156Z",
  "baseExpectedHourUtc": "2026072411",
  "targetHourUtc": "2026072412",
  "expectedHourUtc": "2026072412",
  "pendingFreshUpdate": false,
  "data": [
    {
      "code": "AEP",
      "label": "Aeroparque",
      "icaoId": "SABE",
      "station_id": "SABE",
      "rawOb": "241200Z 04005KT 010V070 9999 FEW012 OVC050 13/11 Q1020 TEMPO 5000 -DZ BKN013",
      "raw_text": "241200Z 04005KT 010V070 9999 FEW012 OVC050 13/11 Q1020 TEMPO 5000 -DZ BKN013",
      "obsTime": "2026-07-24T12:00:00Z",
      "source": "linux-noaa-txt",
      "updatedAt": "2026-07-24T12:09:59.601156Z",
      "reportHourUtc": "2026072412",
      "baseExpectedHourUtc": "2026072411",
      "targetHourUtc": "2026072412",
      "expectedHourUtc": "2026072412",
      "freshForExpectedHour": true,
      "error": null
    },
    {
      "code": "EZE",
      "label": "Ezeiza",
      "icaoId": "SAEZ",
      "station_id": "SAEZ",
      "rawOb": "241200Z 08005KT CAVOK 13/12 Q1019 TEMPO 6000 -DZ BKN015",
      "raw_text": "241200Z 08005KT CAVOK 13/12 Q1019 TEMPO 6000 -DZ BKN015",
      "obsTime": "2026-07-24T12:00:00Z",
      "source": "linux-noaa-txt",
      "updatedAt": "2026-07-24T12:09:59.601156Z",
      "reportHourUtc": "2026072412",
      "baseExpectedHourUtc": "2026072411",
      "targetHourUtc": "2026072412",
      "expectedHourUtc": "2026072412",
      "freshForExpectedHour": true,
      "error": null
    }
  ]
}
