{
  "generatedAtUtc": "2026-07-19T19:09:59.857090Z",
  "baseExpectedHourUtc": "2026071918",
  "targetHourUtc": "2026071919",
  "expectedHourUtc": "2026071919",
  "pendingFreshUpdate": false,
  "data": [
    {
      "code": "AEP",
      "label": "Aeroparque",
      "icaoId": "SABE",
      "station_id": "SABE",
      "rawOb": "191900Z 15011G21KT 120V190 9999 SCT010 BKN016 OVC039 12/09 Q1006 REDZ NOSIG",
      "raw_text": "191900Z 15011G21KT 120V190 9999 SCT010 BKN016 OVC039 12/09 Q1006 REDZ NOSIG",
      "obsTime": "2026-07-19T19:00:00Z",
      "source": "linux-noaa-txt",
      "updatedAt": "2026-07-19T19:09:59.857090Z",
      "reportHourUtc": "2026071919",
      "baseExpectedHourUtc": "2026071918",
      "targetHourUtc": "2026071919",
      "expectedHourUtc": "2026071919",
      "freshForExpectedHour": true,
      "error": null
    },
    {
      "code": "EZE",
      "label": "Ezeiza",
      "icaoId": "SAEZ",
      "station_id": "SAEZ",
      "rawOb": "191900Z 15011KT 9999 BKN017 OVC040 13/10 Q1006 NOSIG",
      "raw_text": "191900Z 15011KT 9999 BKN017 OVC040 13/10 Q1006 NOSIG",
      "obsTime": "2026-07-19T19:00:00Z",
      "source": "linux-noaa-txt",
      "updatedAt": "2026-07-19T19:09:59.857090Z",
      "reportHourUtc": "2026071919",
      "baseExpectedHourUtc": "2026071918",
      "targetHourUtc": "2026071919",
      "expectedHourUtc": "2026071919",
      "freshForExpectedHour": true,
      "error": null
    }
  ]
}
