{
  "generatedAtUtc": "2026-07-19T10:09:59.325253Z",
  "baseExpectedHourUtc": "2026071909",
  "targetHourUtc": "2026071910",
  "expectedHourUtc": "2026071910",
  "pendingFreshUpdate": false,
  "data": [
    {
      "code": "AEP",
      "label": "Aeroparque",
      "icaoId": "SABE",
      "station_id": "SABE",
      "rawOb": "191000Z 16010KT 120V180 8000 -DZ OVC008 10/08 Q1003 NOSIG",
      "raw_text": "191000Z 16010KT 120V180 8000 -DZ OVC008 10/08 Q1003 NOSIG",
      "obsTime": "2026-07-19T10:00:00Z",
      "source": "linux-noaa-txt",
      "updatedAt": "2026-07-19T10:09:59.325253Z",
      "reportHourUtc": "2026071910",
      "baseExpectedHourUtc": "2026071909",
      "targetHourUtc": "2026071910",
      "expectedHourUtc": "2026071910",
      "freshForExpectedHour": true,
      "error": null
    },
    {
      "code": "EZE",
      "label": "Ezeiza",
      "icaoId": "SAEZ",
      "station_id": "SAEZ",
      "rawOb": "191000Z 15011KT 8000 -DZ SCT013 OVC020 09/08 Q1004 IEMPO 3000 SHRA BKN005 FEW040TCU",
      "raw_text": "191000Z 15011KT 8000 -DZ SCT013 OVC020 09/08 Q1004 IEMPO 3000 SHRA BKN005 FEW040TCU",
      "obsTime": "2026-07-19T10:00:00Z",
      "source": "linux-noaa-txt",
      "updatedAt": "2026-07-19T10:09:59.325253Z",
      "reportHourUtc": "2026071910",
      "baseExpectedHourUtc": "2026071909",
      "targetHourUtc": "2026071910",
      "expectedHourUtc": "2026071910",
      "freshForExpectedHour": true,
      "error": null
    }
  ]
}
