{
  "generatedAtUtc": "2026-07-17T03:09:59.552270Z",
  "baseExpectedHourUtc": "2026071702",
  "targetHourUtc": "2026071703",
  "expectedHourUtc": "2026071703",
  "pendingFreshUpdate": false,
  "data": [
    {
      "code": "AEP",
      "label": "Aeroparque",
      "icaoId": "SABE",
      "station_id": "SABE",
      "rawOb": "170300Z 36004KT 320V050 CAVOK 17/15 Q0998 NOSIG",
      "raw_text": "170300Z 36004KT 320V050 CAVOK 17/15 Q0998 NOSIG",
      "obsTime": "2026-07-17T03:00:00Z",
      "source": "linux-noaa-txt",
      "updatedAt": "2026-07-17T03:09:59.552270Z",
      "reportHourUtc": "2026071703",
      "baseExpectedHourUtc": "2026071702",
      "targetHourUtc": "2026071703",
      "expectedHourUtc": "2026071703",
      "freshForExpectedHour": true,
      "error": null
    },
    {
      "code": "EZE",
      "label": "Ezeiza",
      "icaoId": "SAEZ",
      "station_id": "SAEZ",
      "rawOb": "170300Z 03008KT CAVOK 20/16 Q0998 NOSIG",
      "raw_text": "170300Z 03008KT CAVOK 20/16 Q0998 NOSIG",
      "obsTime": "2026-07-17T03:00:00Z",
      "source": "linux-noaa-txt",
      "updatedAt": "2026-07-17T03:09:59.552270Z",
      "reportHourUtc": "2026071703",
      "baseExpectedHourUtc": "2026071702",
      "targetHourUtc": "2026071703",
      "expectedHourUtc": "2026071703",
      "freshForExpectedHour": true,
      "error": null
    }
  ]
}
