{
  "generatedAtUtc": "2026-07-15T03:09:59.233719Z",
  "baseExpectedHourUtc": "2026071502",
  "targetHourUtc": "2026071503",
  "expectedHourUtc": "2026071503",
  "pendingFreshUpdate": false,
  "data": [
    {
      "code": "AEP",
      "label": "Aeroparque",
      "icaoId": "SABE",
      "station_id": "SABE",
      "rawOb": "150300Z 04005KT 010V080 CAVOK 13/10 Q1013 NOSIG",
      "raw_text": "150300Z 04005KT 010V080 CAVOK 13/10 Q1013 NOSIG",
      "obsTime": "2026-07-15T03:00:00Z",
      "source": "linux-noaa-txt",
      "updatedAt": "2026-07-15T03:09:59.233719Z",
      "reportHourUtc": "2026071503",
      "baseExpectedHourUtc": "2026071502",
      "targetHourUtc": "2026071503",
      "expectedHourUtc": "2026071503",
      "freshForExpectedHour": true,
      "error": null
    },
    {
      "code": "EZE",
      "label": "Ezeiza",
      "icaoId": "SAEZ",
      "station_id": "SAEZ",
      "rawOb": "150300Z 05008KT CAVOK 13/09 Q1012 NOSIG",
      "raw_text": "150300Z 05008KT CAVOK 13/09 Q1012 NOSIG",
      "obsTime": "2026-07-15T03:00:00Z",
      "source": "linux-noaa-txt",
      "updatedAt": "2026-07-15T03:09:59.233719Z",
      "reportHourUtc": "2026071503",
      "baseExpectedHourUtc": "2026071502",
      "targetHourUtc": "2026071503",
      "expectedHourUtc": "2026071503",
      "freshForExpectedHour": true,
      "error": null
    }
  ]
}
