{
  "generatedAtUtc": "2026-07-14T11:09:59.101243Z",
  "baseExpectedHourUtc": "2026071410",
  "targetHourUtc": "2026071411",
  "expectedHourUtc": "2026071411",
  "pendingFreshUpdate": false,
  "data": [
    {
      "code": "AEP",
      "label": "Aeroparque",
      "icaoId": "SABE",
      "station_id": "SABE",
      "rawOb": "141100Z 35013KT 9999 OVC008 09/07 Q1020 NOSIG",
      "raw_text": "141100Z 35013KT 9999 OVC008 09/07 Q1020 NOSIG",
      "obsTime": "2026-07-14T11:00:00Z",
      "source": "linux-noaa-txt",
      "updatedAt": "2026-07-14T11:09:59.101243Z",
      "reportHourUtc": "2026071411",
      "baseExpectedHourUtc": "2026071410",
      "targetHourUtc": "2026071411",
      "expectedHourUtc": "2026071411",
      "freshForExpectedHour": true,
      "error": null
    },
    {
      "code": "EZE",
      "label": "Ezeiza",
      "icaoId": "SAEZ",
      "station_id": "SAEZ",
      "rawOb": "141100Z 01012KT 9999 OVC009 08/07 Q1019 NOSIG",
      "raw_text": "141100Z 01012KT 9999 OVC009 08/07 Q1019 NOSIG",
      "obsTime": "2026-07-14T11:00:00Z",
      "source": "linux-noaa-txt",
      "updatedAt": "2026-07-14T11:09:59.101243Z",
      "reportHourUtc": "2026071411",
      "baseExpectedHourUtc": "2026071410",
      "targetHourUtc": "2026071411",
      "expectedHourUtc": "2026071411",
      "freshForExpectedHour": true,
      "error": null
    }
  ]
}
