{
  "generatedAtUtc": "2026-07-12T03:09:59.999314Z",
  "baseExpectedHourUtc": "2026071202",
  "targetHourUtc": "2026071203",
  "expectedHourUtc": "2026071203",
  "pendingFreshUpdate": false,
  "data": [
    {
      "code": "AEP",
      "label": "Aeroparque",
      "icaoId": "SABE",
      "station_id": "SABE",
      "rawOb": "120300Z 18005KT 130V260 9999 BKN012 10/07 Q1021 NOSIG",
      "raw_text": "120300Z 18005KT 130V260 9999 BKN012 10/07 Q1021 NOSIG",
      "obsTime": "2026-07-12T03:00:00Z",
      "source": "linux-noaa-txt",
      "updatedAt": "2026-07-12T03:09:59.999314Z",
      "reportHourUtc": "2026071203",
      "baseExpectedHourUtc": "2026071202",
      "targetHourUtc": "2026071203",
      "expectedHourUtc": "2026071203",
      "freshForExpectedHour": true,
      "error": null
    },
    {
      "code": "EZE",
      "label": "Ezeiza",
      "icaoId": "SAEZ",
      "station_id": "SAEZ",
      "rawOb": "120300Z 20003KT 9999 FEW016 07/07 Q1021 NOSIG",
      "raw_text": "120300Z 20003KT 9999 FEW016 07/07 Q1021 NOSIG",
      "obsTime": "2026-07-12T03:00:00Z",
      "source": "linux-noaa-txt",
      "updatedAt": "2026-07-12T03:09:59.999314Z",
      "reportHourUtc": "2026071203",
      "baseExpectedHourUtc": "2026071202",
      "targetHourUtc": "2026071203",
      "expectedHourUtc": "2026071203",
      "freshForExpectedHour": true,
      "error": null
    }
  ]
}
