{
  "generatedAtUtc": "2026-07-19T12:10:00.085203Z",
  "baseExpectedHourUtc": "2026071912",
  "targetHourUtc": "2026071912",
  "expectedHourUtc": "2026071912",
  "pendingFreshUpdate": false,
  "data": [
    {
      "code": "AEP",
      "label": "Aeroparque",
      "icaoId": "SABE",
      "station_id": "SABE",
      "rawOb": "191200Z 17011KT 130V220 9000 -RA BKN011 OVC019 09/07 Q1004 TEMPO 8000 -DZ OVC008",
      "raw_text": "191200Z 17011KT 130V220 9000 -RA BKN011 OVC019 09/07 Q1004 TEMPO 8000 -DZ OVC008",
      "obsTime": "2026-07-19T12:00:00Z",
      "source": "linux-noaa-txt",
      "updatedAt": "2026-07-19T12:10:00.085203Z",
      "reportHourUtc": "2026071912",
      "baseExpectedHourUtc": "2026071912",
      "targetHourUtc": "2026071912",
      "expectedHourUtc": "2026071912",
      "freshForExpectedHour": true,
      "error": null
    },
    {
      "code": "EZE",
      "label": "Ezeiza",
      "icaoId": "SAEZ",
      "station_id": "SAEZ",
      "rawOb": "191200Z 16011G24KT 7000 -DZ SCT009 SCT013 OVC022 09/07 Q1004 TEMPO 8000 -DZ OVC010",
      "raw_text": "191200Z 16011G24KT 7000 -DZ SCT009 SCT013 OVC022 09/07 Q1004 TEMPO 8000 -DZ OVC010",
      "obsTime": "2026-07-19T12:00:00Z",
      "source": "linux-noaa-txt",
      "updatedAt": "2026-07-19T12:10:00.085203Z",
      "reportHourUtc": "2026071912",
      "baseExpectedHourUtc": "2026071912",
      "targetHourUtc": "2026071912",
      "expectedHourUtc": "2026071912",
      "freshForExpectedHour": true,
      "error": null
    }
  ]
}
