{
  "generatedAtUtc": "2026-07-18T10:09:59.441435Z",
  "baseExpectedHourUtc": "2026071809",
  "targetHourUtc": "2026071810",
  "expectedHourUtc": "2026071810",
  "pendingFreshUpdate": false,
  "data": [
    {
      "code": "AEP",
      "label": "Aeroparque",
      "icaoId": "SABE",
      "station_id": "SABE",
      "rawOb": "181000Z 11006KT 070V150 8000 BKN010 18/16 Q0998 NOSIG",
      "raw_text": "181000Z 11006KT 070V150 8000 BKN010 18/16 Q0998 NOSIG",
      "obsTime": "2026-07-18T10:00:00Z",
      "source": "linux-noaa-txt",
      "updatedAt": "2026-07-18T10:09:59.441435Z",
      "reportHourUtc": "2026071810",
      "baseExpectedHourUtc": "2026071809",
      "targetHourUtc": "2026071810",
      "expectedHourUtc": "2026071810",
      "freshForExpectedHour": true,
      "error": null
    },
    {
      "code": "EZE",
      "label": "Ezeiza",
      "icaoId": "SAEZ",
      "station_id": "SAEZ",
      "rawOb": "181000Z 17007KT 130V200 8000 OVC004 17/16 Q0998 TEMPO 17007KT 5000 -DZ OVC005",
      "raw_text": "181000Z 17007KT 130V200 8000 OVC004 17/16 Q0998 TEMPO 17007KT 5000 -DZ OVC005",
      "obsTime": "2026-07-18T10:00:00Z",
      "source": "linux-noaa-txt",
      "updatedAt": "2026-07-18T10:09:59.441435Z",
      "reportHourUtc": "2026071810",
      "baseExpectedHourUtc": "2026071809",
      "targetHourUtc": "2026071810",
      "expectedHourUtc": "2026071810",
      "freshForExpectedHour": true,
      "error": null
    }
  ]
}
