{
  "generatedAtUtc": "2026-07-14T22:09:59.534184Z",
  "baseExpectedHourUtc": "2026071421",
  "targetHourUtc": "2026071422",
  "expectedHourUtc": "2026071422",
  "pendingFreshUpdate": false,
  "data": [
    {
      "code": "AEP",
      "label": "Aeroparque",
      "icaoId": "SABE",
      "station_id": "SABE",
      "rawOb": "142200Z 08005KT CAVOK 13/10 Q1014 NOSIG",
      "raw_text": "142200Z 08005KT CAVOK 13/10 Q1014 NOSIG",
      "obsTime": "2026-07-14T22:00:00Z",
      "source": "linux-noaa-txt",
      "updatedAt": "2026-07-14T22:09:59.534184Z",
      "reportHourUtc": "2026071422",
      "baseExpectedHourUtc": "2026071421",
      "targetHourUtc": "2026071422",
      "expectedHourUtc": "2026071422",
      "freshForExpectedHour": true,
      "error": null
    },
    {
      "code": "EZE",
      "label": "Ezeiza",
      "icaoId": "SAEZ",
      "station_id": "SAEZ",
      "rawOb": "142200Z 06007KT CAVOK 13/08 Q1013 NOSIG",
      "raw_text": "142200Z 06007KT CAVOK 13/08 Q1013 NOSIG",
      "obsTime": "2026-07-14T22:00:00Z",
      "source": "linux-noaa-txt",
      "updatedAt": "2026-07-14T22:09:59.534184Z",
      "reportHourUtc": "2026071422",
      "baseExpectedHourUtc": "2026071421",
      "targetHourUtc": "2026071422",
      "expectedHourUtc": "2026071422",
      "freshForExpectedHour": true,
      "error": null
    }
  ]
}
