{
  "generatedAtUtc": "2026-07-24T01:09:59.216950Z",
  "baseExpectedHourUtc": "2026072400",
  "targetHourUtc": "2026072401",
  "expectedHourUtc": "2026072401",
  "pendingFreshUpdate": false,
  "data": [
    {
      "code": "AEP",
      "label": "Aeroparque",
      "icaoId": "SABE",
      "station_id": "SABE",
      "rawOb": "240100Z 03006KT 350V070 9999 FEW034 OVC041 14/11 Q1019 NOSIG",
      "raw_text": "240100Z 03006KT 350V070 9999 FEW034 OVC041 14/11 Q1019 NOSIG",
      "obsTime": "2026-07-24T01:00:00Z",
      "source": "linux-noaa-txt",
      "updatedAt": "2026-07-24T01:09:59.216950Z",
      "reportHourUtc": "2026072401",
      "baseExpectedHourUtc": "2026072400",
      "targetHourUtc": "2026072401",
      "expectedHourUtc": "2026072401",
      "freshForExpectedHour": true,
      "error": null
    },
    {
      "code": "EZE",
      "label": "Ezeiza",
      "icaoId": "SAEZ",
      "station_id": "SAEZ",
      "rawOb": "240100Z 07006KT 9999 FEW024 BKN041 BKN200 14/11 Q1019 NOSIG",
      "raw_text": "240100Z 07006KT 9999 FEW024 BKN041 BKN200 14/11 Q1019 NOSIG",
      "obsTime": "2026-07-24T01:00:00Z",
      "source": "linux-noaa-txt",
      "updatedAt": "2026-07-24T01:09:59.216950Z",
      "reportHourUtc": "2026072401",
      "baseExpectedHourUtc": "2026072400",
      "targetHourUtc": "2026072401",
      "expectedHourUtc": "2026072401",
      "freshForExpectedHour": true,
      "error": null
    }
  ]
}
