{
  "generatedAtUtc": "2026-07-22T12:10:00.053776Z",
  "baseExpectedHourUtc": "2026072212",
  "targetHourUtc": "2026072212",
  "expectedHourUtc": "2026072212",
  "pendingFreshUpdate": false,
  "data": [
    {
      "code": "AEP",
      "label": "Aeroparque",
      "icaoId": "SABE",
      "station_id": "SABE",
      "rawOb": "221200Z 17006KT 130V240 9000 OVC027 10/06 Q1020 NOSIG",
      "raw_text": "221200Z 17006KT 130V240 9000 OVC027 10/06 Q1020 NOSIG",
      "obsTime": "2026-07-22T12:00:00Z",
      "source": "linux-noaa-txt",
      "updatedAt": "2026-07-22T12:10:00.053776Z",
      "reportHourUtc": "2026072212",
      "baseExpectedHourUtc": "2026072212",
      "targetHourUtc": "2026072212",
      "expectedHourUtc": "2026072212",
      "freshForExpectedHour": true,
      "error": null
    },
    {
      "code": "EZE",
      "label": "Ezeiza",
      "icaoId": "SAEZ",
      "station_id": "SAEZ",
      "rawOb": "221200Z 19005KT 9999 FEW033 SCT047 BKN050 09/06 Q1020 NOSIG",
      "raw_text": "221200Z 19005KT 9999 FEW033 SCT047 BKN050 09/06 Q1020 NOSIG",
      "obsTime": "2026-07-22T12:00:00Z",
      "source": "linux-noaa-txt",
      "updatedAt": "2026-07-22T12:10:00.053776Z",
      "reportHourUtc": "2026072212",
      "baseExpectedHourUtc": "2026072212",
      "targetHourUtc": "2026072212",
      "expectedHourUtc": "2026072212",
      "freshForExpectedHour": true,
      "error": null
    }
  ]
}
