{
  "generatedAtUtc": "2026-07-13T05:09:59.415988Z",
  "baseExpectedHourUtc": "2026071304",
  "targetHourUtc": "2026071305",
  "expectedHourUtc": "2026071305",
  "pendingFreshUpdate": false,
  "data": [
    {
      "code": "AEP",
      "label": "Aeroparque",
      "icaoId": "SABE",
      "station_id": "SABE",
      "rawOb": "130500Z 14003KT CAVOK 07/03 Q1025 NOSIG",
      "raw_text": "130500Z 14003KT CAVOK 07/03 Q1025 NOSIG",
      "obsTime": "2026-07-13T05:00:00Z",
      "source": "linux-noaa-txt",
      "updatedAt": "2026-07-13T05:09:59.415988Z",
      "reportHourUtc": "2026071305",
      "baseExpectedHourUtc": "2026071304",
      "targetHourUtc": "2026071305",
      "expectedHourUtc": "2026071305",
      "freshForExpectedHour": true,
      "error": null
    },
    {
      "code": "EZE",
      "label": "Ezeiza",
      "icaoId": "SAEZ",
      "station_id": "SAEZ",
      "rawOb": "130500Z 10003KT 9000 MIFG NSC 01/01 Q1025 BECMG 3000 BR",
      "raw_text": "130500Z 10003KT 9000 MIFG NSC 01/01 Q1025 BECMG 3000 BR",
      "obsTime": "2026-07-13T05:00:00Z",
      "source": "linux-noaa-txt",
      "updatedAt": "2026-07-13T05:09:59.415988Z",
      "reportHourUtc": "2026071305",
      "baseExpectedHourUtc": "2026071304",
      "targetHourUtc": "2026071305",
      "expectedHourUtc": "2026071305",
      "freshForExpectedHour": true,
      "error": null
    }
  ]
}
