{
  "generatedAtUtc": "2026-07-15T23:09:59.869292Z",
  "baseExpectedHourUtc": "2026071522",
  "targetHourUtc": "2026071523",
  "expectedHourUtc": "2026071523",
  "pendingFreshUpdate": false,
  "data": [
    {
      "code": "AEP",
      "label": "Aeroparque",
      "icaoId": "SABE",
      "station_id": "SABE",
      "rawOb": "152300Z 10007KT CAVOK 16/11 Q1008 NOSIG",
      "raw_text": "152300Z 10007KT CAVOK 16/11 Q1008 NOSIG",
      "obsTime": "2026-07-15T23:00:00Z",
      "source": "linux-noaa-txt",
      "updatedAt": "2026-07-15T23:09:59.869292Z",
      "reportHourUtc": "2026071523",
      "baseExpectedHourUtc": "2026071522",
      "targetHourUtc": "2026071523",
      "expectedHourUtc": "2026071523",
      "freshForExpectedHour": true,
      "error": null
    },
    {
      "code": "EZE",
      "label": "Ezeiza",
      "icaoId": "SAEZ",
      "station_id": "SAEZ",
      "rawOb": "152300Z 07008KT CAVOK 16/11 Q1007 NOSIG",
      "raw_text": "152300Z 07008KT CAVOK 16/11 Q1007 NOSIG",
      "obsTime": "2026-07-15T23:00:00Z",
      "source": "linux-noaa-txt",
      "updatedAt": "2026-07-15T23:09:59.869292Z",
      "reportHourUtc": "2026071523",
      "baseExpectedHourUtc": "2026071522",
      "targetHourUtc": "2026071523",
      "expectedHourUtc": "2026071523",
      "freshForExpectedHour": true,
      "error": null
    }
  ]
}
