{
  "generatedAtUtc": "2026-07-15T19:09:59.473063Z",
  "baseExpectedHourUtc": "2026071518",
  "targetHourUtc": "2026071519",
  "expectedHourUtc": "2026071519",
  "pendingFreshUpdate": false,
  "data": [
    {
      "code": "AEP",
      "label": "Aeroparque",
      "icaoId": "SABE",
      "station_id": "SABE",
      "rawOb": "151900Z 08005KT CAVOK 15/11 Q1009 NOSIG",
      "raw_text": "151900Z 08005KT CAVOK 15/11 Q1009 NOSIG",
      "obsTime": "2026-07-15T19:00:00Z",
      "source": "linux-noaa-txt",
      "updatedAt": "2026-07-15T19:09:59.473063Z",
      "reportHourUtc": "2026071519",
      "baseExpectedHourUtc": "2026071518",
      "targetHourUtc": "2026071519",
      "expectedHourUtc": "2026071519",
      "freshForExpectedHour": true,
      "error": null
    },
    {
      "code": "EZE",
      "label": "Ezeiza",
      "icaoId": "SAEZ",
      "station_id": "SAEZ",
      "rawOb": "151900Z 04008KT CAVOK 17/11 Q1008 NOSIG",
      "raw_text": "151900Z 04008KT CAVOK 17/11 Q1008 NOSIG",
      "obsTime": "2026-07-15T19:00:00Z",
      "source": "linux-noaa-txt",
      "updatedAt": "2026-07-15T19:09:59.473063Z",
      "reportHourUtc": "2026071519",
      "baseExpectedHourUtc": "2026071518",
      "targetHourUtc": "2026071519",
      "expectedHourUtc": "2026071519",
      "freshForExpectedHour": true,
      "error": null
    }
  ]
}
