{
  "generatedAtUtc": "2026-07-11T11:09:59.193346Z",
  "expectedHourUtc": "2026071110",
  "pendingFreshUpdate": false,
  "data": [
    {
      "code": "AEP",
      "label": "Aeroparque",
      "icaoId": "SABE",
      "station_id": "SABE",
      "rawOb": "111100Z 20004KT 140V310 9999 SCT004 SCT040 10/08 Q1018 NOSIG",
      "raw_text": "111100Z 20004KT 140V310 9999 SCT004 SCT040 10/08 Q1018 NOSIG",
      "obsTime": "2026-07-11T11:00:00Z",
      "source": "linux-noaa-txt",
      "updatedAt": "2026-07-11T11:09:59.193346Z",
      "reportHourUtc": "2026071111",
      "expectedHourUtc": "2026071110",
      "freshForExpectedHour": true,
      "error": null
    },
    {
      "code": "EZE",
      "label": "Ezeiza",
      "icaoId": "SAEZ",
      "station_id": "SAEZ",
      "rawOb": "111106Z 26003KT 0500 R11/1500D BCFG OVC002 09/09 Q1017 NOSIG",
      "raw_text": "111106Z 26003KT 0500 R11/1500D BCFG OVC002 09/09 Q1017 NOSIG",
      "obsTime": "2026-07-11T11:06:00Z",
      "source": "linux-noaa-txt",
      "updatedAt": "2026-07-11T11:09:59.193346Z",
      "reportHourUtc": "2026071111",
      "expectedHourUtc": "2026071110",
      "freshForExpectedHour": true,
      "error": null
    }
  ]
}
