{
  "generatedAtUtc": "2026-07-13T03:09:59.181411Z",
  "baseExpectedHourUtc": "2026071302",
  "targetHourUtc": "2026071303",
  "expectedHourUtc": "2026071303",
  "pendingFreshUpdate": false,
  "data": [
    {
      "code": "AEP",
      "label": "Aeroparque",
      "icaoId": "SABE",
      "station_id": "SABE",
      "rawOb": "130300Z 00000KT CAVOK 07/03 Q1025 NOSIG",
      "raw_text": "130300Z 00000KT CAVOK 07/03 Q1025 NOSIG",
      "obsTime": "2026-07-13T03:00:00Z",
      "source": "linux-noaa-txt",
      "updatedAt": "2026-07-13T03:09:59.181411Z",
      "reportHourUtc": "2026071303",
      "baseExpectedHourUtc": "2026071302",
      "targetHourUtc": "2026071303",
      "expectedHourUtc": "2026071303",
      "freshForExpectedHour": true,
      "error": null
    },
    {
      "code": "EZE",
      "label": "Ezeiza",
      "icaoId": "SAEZ",
      "station_id": "SAEZ",
      "rawOb": "130300Z 00000KT 9999 R11/1000N MIFG NSC 02/01 Q1025 BECMG 3000 BR",
      "raw_text": "130300Z 00000KT 9999 R11/1000N MIFG NSC 02/01 Q1025 BECMG 3000 BR",
      "obsTime": "2026-07-13T03:00:00Z",
      "source": "linux-noaa-txt",
      "updatedAt": "2026-07-13T03:09:59.181411Z",
      "reportHourUtc": "2026071303",
      "baseExpectedHourUtc": "2026071302",
      "targetHourUtc": "2026071303",
      "expectedHourUtc": "2026071303",
      "freshForExpectedHour": true,
      "error": null
    }
  ]
}
