{
  "generatedAtUtc": "2026-07-18T09:09:59.410171Z",
  "baseExpectedHourUtc": "2026071808",
  "targetHourUtc": "2026071809",
  "expectedHourUtc": "2026071809",
  "pendingFreshUpdate": false,
  "data": [
    {
      "code": "AEP",
      "label": "Aeroparque",
      "icaoId": "SABE",
      "station_id": "SABE",
      "rawOb": "180900Z 17005KT 120V220 6000 OVC007 18/16 Q0997 NOSIG",
      "raw_text": "180900Z 17005KT 120V220 6000 OVC007 18/16 Q0997 NOSIG",
      "obsTime": "2026-07-18T09:00:00Z",
      "source": "linux-noaa-txt",
      "updatedAt": "2026-07-18T09:09:59.410171Z",
      "reportHourUtc": "2026071809",
      "baseExpectedHourUtc": "2026071808",
      "targetHourUtc": "2026071809",
      "expectedHourUtc": "2026071809",
      "freshForExpectedHour": true,
      "error": null
    },
    {
      "code": "EZE",
      "label": "Ezeiza",
      "icaoId": "SAEZ",
      "station_id": "SAEZ",
      "rawOb": "180900Z 16005KT 6000 OVC005 18/17 Q0997 NOSIG",
      "raw_text": "180900Z 16005KT 6000 OVC005 18/17 Q0997 NOSIG",
      "obsTime": "2026-07-18T09:00:00Z",
      "source": "linux-noaa-txt",
      "updatedAt": "2026-07-18T09:09:59.410171Z",
      "reportHourUtc": "2026071809",
      "baseExpectedHourUtc": "2026071808",
      "targetHourUtc": "2026071809",
      "expectedHourUtc": "2026071809",
      "freshForExpectedHour": true,
      "error": null
    }
  ]
}
