{
  "generatedAtUtc": "2026-07-23T06:09:59.525291Z",
  "baseExpectedHourUtc": "2026072305",
  "targetHourUtc": "2026072306",
  "expectedHourUtc": "2026072306",
  "pendingFreshUpdate": false,
  "data": [
    {
      "code": "AEP",
      "label": "Aeroparque",
      "icaoId": "SABE",
      "station_id": "SABE",
      "rawOb": "230600Z 13005KT 100V160 8000 -DZ SCT009 BKN013 OVC015 10/09 Q1023 NOSIG",
      "raw_text": "230600Z 13005KT 100V160 8000 -DZ SCT009 BKN013 OVC015 10/09 Q1023 NOSIG",
      "obsTime": "2026-07-23T06:00:00Z",
      "source": "linux-noaa-txt",
      "updatedAt": "2026-07-23T06:09:59.525291Z",
      "reportHourUtc": "2026072306",
      "baseExpectedHourUtc": "2026072305",
      "targetHourUtc": "2026072306",
      "expectedHourUtc": "2026072306",
      "freshForExpectedHour": true,
      "error": null
    },
    {
      "code": "EZE",
      "label": "Ezeiza",
      "icaoId": "SAEZ",
      "station_id": "SAEZ",
      "rawOb": "230600Z 16003KT 9999 OVC016 08/06 Q1023 NOSIG",
      "raw_text": "230600Z 16003KT 9999 OVC016 08/06 Q1023 NOSIG",
      "obsTime": "2026-07-23T06:00:00Z",
      "source": "linux-noaa-txt",
      "updatedAt": "2026-07-23T06:09:59.525291Z",
      "reportHourUtc": "2026072306",
      "baseExpectedHourUtc": "2026072305",
      "targetHourUtc": "2026072306",
      "expectedHourUtc": "2026072306",
      "freshForExpectedHour": true,
      "error": null
    }
  ]
}
