{
  "generatedAtUtc": "2026-07-11T12:10:00.072340Z",
  "expectedHourUtc": "2026071112",
  "pendingFreshUpdate": false,
  "data": [
    {
      "code": "AEP",
      "label": "Aeroparque",
      "icaoId": "SABE",
      "station_id": "SABE",
      "rawOb": "111200Z 19005KT 120V240 9999 SCT007 BKN080 10/08 Q1018 NOSIG",
      "raw_text": "111200Z 19005KT 120V240 9999 SCT007 BKN080 10/08 Q1018 NOSIG",
      "obsTime": "2026-07-11T12:00:00Z",
      "source": "linux-noaa-txt",
      "updatedAt": "2026-07-11T12:10:00.072340Z",
      "reportHourUtc": "2026071112",
      "expectedHourUtc": "2026071112",
      "freshForExpectedHour": true,
      "error": null
    },
    {
      "code": "EZE",
      "label": "Ezeiza",
      "icaoId": "SAEZ",
      "station_id": "SAEZ",
      "rawOb": "111200Z 23003KT 5000 BR OVC003 10/10 Q1018 NOSIG",
      "raw_text": "111200Z 23003KT 5000 BR OVC003 10/10 Q1018 NOSIG",
      "obsTime": "2026-07-11T12:00:00Z",
      "source": "linux-noaa-txt",
      "updatedAt": "2026-07-11T12:10:00.072340Z",
      "reportHourUtc": "2026071112",
      "expectedHourUtc": "2026071112",
      "freshForExpectedHour": true,
      "error": null
    }
  ]
}
