{
  "generatedAtUtc": "2026-07-15T07:09:59.689696Z",
  "baseExpectedHourUtc": "2026071506",
  "targetHourUtc": "2026071507",
  "expectedHourUtc": "2026071507",
  "pendingFreshUpdate": false,
  "data": [
    {
      "code": "AEP",
      "label": "Aeroparque",
      "icaoId": "SABE",
      "station_id": "SABE",
      "rawOb": "150700Z 01005KT CAVOK 13/10 Q1013 NOSIG",
      "raw_text": "150700Z 01005KT CAVOK 13/10 Q1013 NOSIG",
      "obsTime": "2026-07-15T07:00:00Z",
      "source": "linux-noaa-txt",
      "updatedAt": "2026-07-15T07:09:59.689696Z",
      "reportHourUtc": "2026071507",
      "baseExpectedHourUtc": "2026071506",
      "targetHourUtc": "2026071507",
      "expectedHourUtc": "2026071507",
      "freshForExpectedHour": true,
      "error": null
    },
    {
      "code": "EZE",
      "label": "Ezeiza",
      "icaoId": "SAEZ",
      "station_id": "SAEZ",
      "rawOb": "150700Z 01012KT CAVOK 14/08 Q1011 NOSIG",
      "raw_text": "150700Z 01012KT CAVOK 14/08 Q1011 NOSIG",
      "obsTime": "2026-07-15T07:00:00Z",
      "source": "linux-noaa-txt",
      "updatedAt": "2026-07-15T07:09:59.689696Z",
      "reportHourUtc": "2026071507",
      "baseExpectedHourUtc": "2026071506",
      "targetHourUtc": "2026071507",
      "expectedHourUtc": "2026071507",
      "freshForExpectedHour": true,
      "error": null
    }
  ]
}
