{
  "generatedAtUtc": "2026-07-16T13:09:59.921508Z",
  "baseExpectedHourUtc": "2026071612",
  "targetHourUtc": "2026071613",
  "expectedHourUtc": "2026071613",
  "pendingFreshUpdate": false,
  "data": [
    {
      "code": "AEP",
      "label": "Aeroparque",
      "icaoId": "SABE",
      "station_id": "SABE",
      "rawOb": "161300Z 08004KT 050V110 CAVOK 16/12 Q1006 NOSIG",
      "raw_text": "161300Z 08004KT 050V110 CAVOK 16/12 Q1006 NOSIG",
      "obsTime": "2026-07-16T13:00:00Z",
      "source": "linux-noaa-txt",
      "updatedAt": "2026-07-16T13:09:59.921508Z",
      "reportHourUtc": "2026071613",
      "baseExpectedHourUtc": "2026071612",
      "targetHourUtc": "2026071613",
      "expectedHourUtc": "2026071613",
      "freshForExpectedHour": true,
      "error": null
    },
    {
      "code": "EZE",
      "label": "Ezeiza",
      "icaoId": "SAEZ",
      "station_id": "SAEZ",
      "rawOb": "161300Z 03008KT CAVOK 18/12 Q1005 NOSIG",
      "raw_text": "161300Z 03008KT CAVOK 18/12 Q1005 NOSIG",
      "obsTime": "2026-07-16T13:00:00Z",
      "source": "linux-noaa-txt",
      "updatedAt": "2026-07-16T13:09:59.921508Z",
      "reportHourUtc": "2026071613",
      "baseExpectedHourUtc": "2026071612",
      "targetHourUtc": "2026071613",
      "expectedHourUtc": "2026071613",
      "freshForExpectedHour": true,
      "error": null
    }
  ]
}
