{
  "generatedAtUtc": "2026-07-17T00:09:59.342019Z",
  "baseExpectedHourUtc": "2026071623",
  "targetHourUtc": "2026071700",
  "expectedHourUtc": "2026071700",
  "pendingFreshUpdate": false,
  "data": [
    {
      "code": "AEP",
      "label": "Aeroparque",
      "icaoId": "SABE",
      "station_id": "SABE",
      "rawOb": "170000Z 06004KT 030V100 CAVOK 17/15 Q0999 NOSIG",
      "raw_text": "170000Z 06004KT 030V100 CAVOK 17/15 Q0999 NOSIG",
      "obsTime": "2026-07-17T00:00:00Z",
      "source": "linux-noaa-txt",
      "updatedAt": "2026-07-17T00:09:59.342019Z",
      "reportHourUtc": "2026071700",
      "baseExpectedHourUtc": "2026071623",
      "targetHourUtc": "2026071700",
      "expectedHourUtc": "2026071700",
      "freshForExpectedHour": true,
      "error": null
    },
    {
      "code": "EZE",
      "label": "Ezeiza",
      "icaoId": "SAEZ",
      "station_id": "SAEZ",
      "rawOb": "170000Z 06010KT CAVOK 21/16 Q0998 NOSIG",
      "raw_text": "170000Z 06010KT CAVOK 21/16 Q0998 NOSIG",
      "obsTime": "2026-07-17T00:00:00Z",
      "source": "linux-noaa-txt",
      "updatedAt": "2026-07-17T00:09:59.342019Z",
      "reportHourUtc": "2026071700",
      "baseExpectedHourUtc": "2026071623",
      "targetHourUtc": "2026071700",
      "expectedHourUtc": "2026071700",
      "freshForExpectedHour": true,
      "error": null
    }
  ]
}
