{
  "generatedAtUtc": "2026-07-16T02:09:59.221133Z",
  "baseExpectedHourUtc": "2026071601",
  "targetHourUtc": "2026071602",
  "expectedHourUtc": "2026071602",
  "pendingFreshUpdate": false,
  "data": [
    {
      "code": "AEP",
      "label": "Aeroparque",
      "icaoId": "SABE",
      "station_id": "SABE",
      "rawOb": "160200Z 10004KT CAVOK 15/12 Q1008 NOSIG",
      "raw_text": "160200Z 10004KT CAVOK 15/12 Q1008 NOSIG",
      "obsTime": "2026-07-16T02:00:00Z",
      "source": "linux-noaa-txt",
      "updatedAt": "2026-07-16T02:09:59.221133Z",
      "reportHourUtc": "2026071602",
      "baseExpectedHourUtc": "2026071601",
      "targetHourUtc": "2026071602",
      "expectedHourUtc": "2026071602",
      "freshForExpectedHour": true,
      "error": null
    },
    {
      "code": "EZE",
      "label": "Ezeiza",
      "icaoId": "SAEZ",
      "station_id": "SAEZ",
      "rawOb": "160200Z 05006KT 9999 BKN038 OVC070 17/12 Q1007 NOSIG",
      "raw_text": "160200Z 05006KT 9999 BKN038 OVC070 17/12 Q1007 NOSIG",
      "obsTime": "2026-07-16T02:00:00Z",
      "source": "linux-noaa-txt",
      "updatedAt": "2026-07-16T02:09:59.221133Z",
      "reportHourUtc": "2026071602",
      "baseExpectedHourUtc": "2026071601",
      "targetHourUtc": "2026071602",
      "expectedHourUtc": "2026071602",
      "freshForExpectedHour": true,
      "error": null
    }
  ]
}
