{
  "generatedAtUtc": "2026-07-12T05:09:59.765574Z",
  "baseExpectedHourUtc": "2026071204",
  "targetHourUtc": "2026071205",
  "expectedHourUtc": "2026071205",
  "pendingFreshUpdate": false,
  "data": [
    {
      "code": "AEP",
      "label": "Aeroparque",
      "icaoId": "SABE",
      "station_id": "SABE",
      "rawOb": "120500Z VRB06KT 9999 BKN011 09/06 Q1021 NOSIG",
      "raw_text": "120500Z VRB06KT 9999 BKN011 09/06 Q1021 NOSIG",
      "obsTime": "2026-07-12T05:00:00Z",
      "source": "linux-noaa-txt",
      "updatedAt": "2026-07-12T05:09:59.765574Z",
      "reportHourUtc": "2026071205",
      "baseExpectedHourUtc": "2026071204",
      "targetHourUtc": "2026071205",
      "expectedHourUtc": "2026071205",
      "freshForExpectedHour": true,
      "error": null
    },
    {
      "code": "EZE",
      "label": "Ezeiza",
      "icaoId": "SAEZ",
      "station_id": "SAEZ",
      "rawOb": "120500Z 25004KT 9999 BKN008 BKN013 06/06 Q1021 NOSIG",
      "raw_text": "120500Z 25004KT 9999 BKN008 BKN013 06/06 Q1021 NOSIG",
      "obsTime": "2026-07-12T05:00:00Z",
      "source": "linux-noaa-txt",
      "updatedAt": "2026-07-12T05:09:59.765574Z",
      "reportHourUtc": "2026071205",
      "baseExpectedHourUtc": "2026071204",
      "targetHourUtc": "2026071205",
      "expectedHourUtc": "2026071205",
      "freshForExpectedHour": true,
      "error": null
    }
  ]
}
