{
  "generatedAtUtc": "2026-07-20T09:09:59.377464Z",
  "baseExpectedHourUtc": "2026072008",
  "targetHourUtc": "2026072009",
  "expectedHourUtc": "2026072009",
  "pendingFreshUpdate": false,
  "data": [
    {
      "code": "AEP",
      "label": "Aeroparque",
      "icaoId": "SABE",
      "station_id": "SABE",
      "rawOb": "200900Z 13012KT 8000 -DZ OVC009 10/08 Q1011 NOSIG",
      "raw_text": "200900Z 13012KT 8000 -DZ OVC009 10/08 Q1011 NOSIG",
      "obsTime": "2026-07-20T09:00:00Z",
      "source": "linux-noaa-txt",
      "updatedAt": "2026-07-20T09:09:59.377464Z",
      "reportHourUtc": "2026072009",
      "baseExpectedHourUtc": "2026072008",
      "targetHourUtc": "2026072009",
      "expectedHourUtc": "2026072009",
      "freshForExpectedHour": true,
      "error": null
    },
    {
      "code": "EZE",
      "label": "Ezeiza",
      "icaoId": "SAEZ",
      "station_id": "SAEZ",
      "rawOb": "200900Z 13008KT 9999 OVC008 09/08 Q1011 NOSIG",
      "raw_text": "200900Z 13008KT 9999 OVC008 09/08 Q1011 NOSIG",
      "obsTime": "2026-07-20T09:00:00Z",
      "source": "linux-noaa-txt",
      "updatedAt": "2026-07-20T09:09:59.377464Z",
      "reportHourUtc": "2026072009",
      "baseExpectedHourUtc": "2026072008",
      "targetHourUtc": "2026072009",
      "expectedHourUtc": "2026072009",
      "freshForExpectedHour": true,
      "error": null
    }
  ]
}
