{
  "generatedAtUtc": "2026-07-20T02:09:59.812932Z",
  "baseExpectedHourUtc": "2026072001",
  "targetHourUtc": "2026072002",
  "expectedHourUtc": "2026072002",
  "pendingFreshUpdate": false,
  "data": [
    {
      "code": "AEP",
      "label": "Aeroparque",
      "icaoId": "SABE",
      "station_id": "SABE",
      "rawOb": "200200Z 15011KT 9999 OVC014 11/08 Q1011 NOSIG",
      "raw_text": "200200Z 15011KT 9999 OVC014 11/08 Q1011 NOSIG",
      "obsTime": "2026-07-20T02:00:00Z",
      "source": "linux-noaa-txt",
      "updatedAt": "2026-07-20T02:09:59.812932Z",
      "reportHourUtc": "2026072002",
      "baseExpectedHourUtc": "2026072001",
      "targetHourUtc": "2026072002",
      "expectedHourUtc": "2026072002",
      "freshForExpectedHour": true,
      "error": null
    },
    {
      "code": "EZE",
      "label": "Ezeiza",
      "icaoId": "SAEZ",
      "station_id": "SAEZ",
      "rawOb": "200200Z 17007KT 9000 -DZ BKN009 BKN013 11/09 Q1012 NOSIG",
      "raw_text": "200200Z 17007KT 9000 -DZ BKN009 BKN013 11/09 Q1012 NOSIG",
      "obsTime": "2026-07-20T02:00:00Z",
      "source": "linux-noaa-txt",
      "updatedAt": "2026-07-20T02:09:59.812932Z",
      "reportHourUtc": "2026072002",
      "baseExpectedHourUtc": "2026072001",
      "targetHourUtc": "2026072002",
      "expectedHourUtc": "2026072002",
      "freshForExpectedHour": true,
      "error": null
    }
  ]
}
