{
  "generatedAtUtc": "2026-07-12T14:10:00.077984Z",
  "baseExpectedHourUtc": "2026071214",
  "targetHourUtc": "2026071214",
  "expectedHourUtc": "2026071214",
  "pendingFreshUpdate": false,
  "data": [
    {
      "code": "AEP",
      "label": "Aeroparque",
      "icaoId": "SABE",
      "station_id": "SABE",
      "rawOb": "121400Z VRB04KT 9999 OVC009 08/05 Q1026 BECMG 9999 SCT015",
      "raw_text": "121400Z VRB04KT 9999 OVC009 08/05 Q1026 BECMG 9999 SCT015",
      "obsTime": "2026-07-12T14:00:00Z",
      "source": "linux-noaa-txt",
      "updatedAt": "2026-07-12T14:10:00.077984Z",
      "reportHourUtc": "2026071214",
      "baseExpectedHourUtc": "2026071214",
      "targetHourUtc": "2026071214",
      "expectedHourUtc": "2026071214",
      "freshForExpectedHour": true,
      "error": null
    },
    {
      "code": "EZE",
      "label": "Ezeiza",
      "icaoId": "SAEZ",
      "station_id": "SAEZ",
      "rawOb": "121400Z 23006KT 9999 BKN012 OVC020 08/06 Q1025 NOSIG",
      "raw_text": "121400Z 23006KT 9999 BKN012 OVC020 08/06 Q1025 NOSIG",
      "obsTime": "2026-07-12T14:00:00Z",
      "source": "linux-noaa-txt",
      "updatedAt": "2026-07-12T14:10:00.077984Z",
      "reportHourUtc": "2026071214",
      "baseExpectedHourUtc": "2026071214",
      "targetHourUtc": "2026071214",
      "expectedHourUtc": "2026071214",
      "freshForExpectedHour": true,
      "error": null
    }
  ]
}
