{
  "generatedAtUtc": "2026-07-20T20:09:59.425205Z",
  "baseExpectedHourUtc": "2026072019",
  "targetHourUtc": "2026072020",
  "expectedHourUtc": "2026072020",
  "pendingFreshUpdate": false,
  "data": [
    {
      "code": "AEP",
      "label": "Aeroparque",
      "icaoId": "SABE",
      "station_id": "SABE",
      "rawOb": "202000Z 13014KT 2000 -DZ OVC007 12/11 Q1010 TEMPO 3000 RA BKN010 OVC020",
      "raw_text": "202000Z 13014KT 2000 -DZ OVC007 12/11 Q1010 TEMPO 3000 RA BKN010 OVC020",
      "obsTime": "2026-07-20T20:00:00Z",
      "source": "linux-noaa-txt",
      "updatedAt": "2026-07-20T20:09:59.425205Z",
      "reportHourUtc": "2026072020",
      "baseExpectedHourUtc": "2026072019",
      "targetHourUtc": "2026072020",
      "expectedHourUtc": "2026072020",
      "freshForExpectedHour": true,
      "error": null
    },
    {
      "code": "EZE",
      "label": "Ezeiza",
      "icaoId": "SAEZ",
      "station_id": "SAEZ",
      "rawOb": "202000Z 12011KT 3000 -DZ BNK015 OVC025 13/11 Q1009 NOSIG",
      "raw_text": "202000Z 12011KT 3000 -DZ BNK015 OVC025 13/11 Q1009 NOSIG",
      "obsTime": "2026-07-20T20:00:00Z",
      "source": "linux-noaa-txt",
      "updatedAt": "2026-07-20T20:09:59.425205Z",
      "reportHourUtc": "2026072020",
      "baseExpectedHourUtc": "2026072019",
      "targetHourUtc": "2026072020",
      "expectedHourUtc": "2026072020",
      "freshForExpectedHour": true,
      "error": null
    }
  ]
}
