{
  "generatedAtUtc": "2026-07-24T09:09:59.864954Z",
  "baseExpectedHourUtc": "2026072408",
  "targetHourUtc": "2026072409",
  "expectedHourUtc": "2026072409",
  "pendingFreshUpdate": false,
  "data": [
    {
      "code": "AEP",
      "label": "Aeroparque",
      "icaoId": "SABE",
      "station_id": "SABE",
      "rawOb": "240900Z 02007KT 350V050 9999 BKN013 OVC028 13/11 Q1019 NOSIG",
      "raw_text": "240900Z 02007KT 350V050 9999 BKN013 OVC028 13/11 Q1019 NOSIG",
      "obsTime": "2026-07-24T09:00:00Z",
      "source": "linux-noaa-txt",
      "updatedAt": "2026-07-24T09:09:59.864954Z",
      "reportHourUtc": "2026072409",
      "baseExpectedHourUtc": "2026072408",
      "targetHourUtc": "2026072409",
      "expectedHourUtc": "2026072409",
      "freshForExpectedHour": true,
      "error": null
    },
    {
      "code": "EZE",
      "label": "Ezeiza",
      "icaoId": "SAEZ",
      "station_id": "SAEZ",
      "rawOb": "240900Z 04004KT 5000 DZ BKN013 OVC028 13/11 Q1018 NOSIG",
      "raw_text": "240900Z 04004KT 5000 DZ BKN013 OVC028 13/11 Q1018 NOSIG",
      "obsTime": "2026-07-24T09:00:00Z",
      "source": "linux-noaa-txt",
      "updatedAt": "2026-07-24T09:09:59.864954Z",
      "reportHourUtc": "2026072409",
      "baseExpectedHourUtc": "2026072408",
      "targetHourUtc": "2026072409",
      "expectedHourUtc": "2026072409",
      "freshForExpectedHour": true,
      "error": null
    }
  ]
}
