{
  "generatedAtUtc": "2026-07-13T06:09:59.145471Z",
  "baseExpectedHourUtc": "2026071305",
  "targetHourUtc": "2026071306",
  "expectedHourUtc": "2026071306",
  "pendingFreshUpdate": false,
  "data": [
    {
      "code": "AEP",
      "label": "Aeroparque",
      "icaoId": "SABE",
      "station_id": "SABE",
      "rawOb": "130600Z 16002KT 9000 FEW023 07/04 Q1024 NOSIG",
      "raw_text": "130600Z 16002KT 9000 FEW023 07/04 Q1024 NOSIG",
      "obsTime": "2026-07-13T06:00:00Z",
      "source": "linux-noaa-txt",
      "updatedAt": "2026-07-13T06:09:59.145471Z",
      "reportHourUtc": "2026071306",
      "baseExpectedHourUtc": "2026071305",
      "targetHourUtc": "2026071306",
      "expectedHourUtc": "2026071306",
      "freshForExpectedHour": true,
      "error": null
    },
    {
      "code": "EZE",
      "label": "Ezeiza",
      "icaoId": "SAEZ",
      "station_id": "SAEZ",
      "rawOb": "130600Z 05002KT 8000 NSC 00/00 Q1024 BECMG 05002KT 3000 BR NSC",
      "raw_text": "130600Z 05002KT 8000 NSC 00/00 Q1024 BECMG 05002KT 3000 BR NSC",
      "obsTime": "2026-07-13T06:00:00Z",
      "source": "linux-noaa-txt",
      "updatedAt": "2026-07-13T06:09:59.145471Z",
      "reportHourUtc": "2026071306",
      "baseExpectedHourUtc": "2026071305",
      "targetHourUtc": "2026071306",
      "expectedHourUtc": "2026071306",
      "freshForExpectedHour": true,
      "error": null
    }
  ]
}
