{
  "generatedAtUtc": "2026-07-15T12:10:00.041877Z",
  "baseExpectedHourUtc": "2026071512",
  "targetHourUtc": "2026071512",
  "expectedHourUtc": "2026071512",
  "pendingFreshUpdate": false,
  "data": [
    {
      "code": "AEP",
      "label": "Aeroparque",
      "icaoId": "SABE",
      "station_id": "SABE",
      "rawOb": "151200Z 01004KT 330V040 CAVOK 13/10 Q1013 NOSIG",
      "raw_text": "151200Z 01004KT 330V040 CAVOK 13/10 Q1013 NOSIG",
      "obsTime": "2026-07-15T12:00:00Z",
      "source": "linux-noaa-txt",
      "updatedAt": "2026-07-15T12:10:00.041877Z",
      "reportHourUtc": "2026071512",
      "baseExpectedHourUtc": "2026071512",
      "targetHourUtc": "2026071512",
      "expectedHourUtc": "2026071512",
      "freshForExpectedHour": true,
      "error": null
    },
    {
      "code": "EZE",
      "label": "Ezeiza",
      "icaoId": "SAEZ",
      "station_id": "SAEZ",
      "rawOb": "151200Z 04006KT CAVOK 13/09 Q1012 NOSIG",
      "raw_text": "151200Z 04006KT CAVOK 13/09 Q1012 NOSIG",
      "obsTime": "2026-07-15T12:00:00Z",
      "source": "linux-noaa-txt",
      "updatedAt": "2026-07-15T12:10:00.041877Z",
      "reportHourUtc": "2026071512",
      "baseExpectedHourUtc": "2026071512",
      "targetHourUtc": "2026071512",
      "expectedHourUtc": "2026071512",
      "freshForExpectedHour": true,
      "error": null
    }
  ]
}
