{
  "generatedAtUtc": "2026-07-21T11:09:59.826383Z",
  "baseExpectedHourUtc": "2026072110",
  "targetHourUtc": "2026072111",
  "expectedHourUtc": "2026072111",
  "pendingFreshUpdate": false,
  "data": [
    {
      "code": "AEP",
      "label": "Aeroparque",
      "icaoId": "SABE",
      "station_id": "SABE",
      "rawOb": "211100Z 17004KT 130V220 5000 -DZ OVC007 11/10 Q1011 NOSIG",
      "raw_text": "211100Z 17004KT 130V220 5000 -DZ OVC007 11/10 Q1011 NOSIG",
      "obsTime": "2026-07-21T11:00:00Z",
      "source": "linux-noaa-txt",
      "updatedAt": "2026-07-21T11:09:59.826383Z",
      "reportHourUtc": "2026072111",
      "baseExpectedHourUtc": "2026072110",
      "targetHourUtc": "2026072111",
      "expectedHourUtc": "2026072111",
      "freshForExpectedHour": true,
      "error": null
    },
    {
      "code": "EZE",
      "label": "Ezeiza",
      "icaoId": "SAEZ",
      "station_id": "SAEZ",
      "rawOb": "211100Z 17004KT 130V210 9000 -DZ OVC004 10/10 Q1012 NOSIG",
      "raw_text": "211100Z 17004KT 130V210 9000 -DZ OVC004 10/10 Q1012 NOSIG",
      "obsTime": "2026-07-21T11:00:00Z",
      "source": "linux-noaa-txt",
      "updatedAt": "2026-07-21T11:09:59.826383Z",
      "reportHourUtc": "2026072111",
      "baseExpectedHourUtc": "2026072110",
      "targetHourUtc": "2026072111",
      "expectedHourUtc": "2026072111",
      "freshForExpectedHour": true,
      "error": null
    }
  ]
}
