{
  "generatedAtUtc": "2026-07-14T16:10:00.039538Z",
  "baseExpectedHourUtc": "2026071416",
  "targetHourUtc": "2026071416",
  "expectedHourUtc": "2026071416",
  "pendingFreshUpdate": false,
  "data": [
    {
      "code": "AEP",
      "label": "Aeroparque",
      "icaoId": "SABE",
      "station_id": "SABE",
      "rawOb": "141600Z 01008KT 340V040 9999 FEW011 12/09 Q1018 NOSIG",
      "raw_text": "141600Z 01008KT 340V040 9999 FEW011 12/09 Q1018 NOSIG",
      "obsTime": "2026-07-14T16:00:00Z",
      "source": "linux-noaa-txt",
      "updatedAt": "2026-07-14T16:10:00.039538Z",
      "reportHourUtc": "2026071416",
      "baseExpectedHourUtc": "2026071416",
      "targetHourUtc": "2026071416",
      "expectedHourUtc": "2026071416",
      "freshForExpectedHour": true,
      "error": null
    },
    {
      "code": "EZE",
      "label": "Ezeiza",
      "icaoId": "SAEZ",
      "station_id": "SAEZ",
      "rawOb": "141600Z 02009KT CAVOK 13/08 Q1017 NOSIG",
      "raw_text": "141600Z 02009KT CAVOK 13/08 Q1017 NOSIG",
      "obsTime": "2026-07-14T16:00:00Z",
      "source": "linux-noaa-txt",
      "updatedAt": "2026-07-14T16:10:00.039538Z",
      "reportHourUtc": "2026071416",
      "baseExpectedHourUtc": "2026071416",
      "targetHourUtc": "2026071416",
      "expectedHourUtc": "2026071416",
      "freshForExpectedHour": true,
      "error": null
    }
  ]
}
