{
  "generatedAtUtc": "2026-07-12T15:09:59.897510Z",
  "baseExpectedHourUtc": "2026071214",
  "targetHourUtc": "2026071215",
  "expectedHourUtc": "2026071215",
  "pendingFreshUpdate": false,
  "data": [
    {
      "code": "AEP",
      "label": "Aeroparque",
      "icaoId": "SABE",
      "station_id": "SABE",
      "rawOb": "121500Z VRB04KT 9999 BKN011 08/05 Q1026 BECMG 9999 SCT015",
      "raw_text": "121500Z VRB04KT 9999 BKN011 08/05 Q1026 BECMG 9999 SCT015",
      "obsTime": "2026-07-12T15:00:00Z",
      "source": "linux-noaa-txt",
      "updatedAt": "2026-07-12T15:09:59.897510Z",
      "reportHourUtc": "2026071215",
      "baseExpectedHourUtc": "2026071214",
      "targetHourUtc": "2026071215",
      "expectedHourUtc": "2026071215",
      "freshForExpectedHour": true,
      "error": null
    },
    {
      "code": "EZE",
      "label": "Ezeiza",
      "icaoId": "SAEZ",
      "station_id": "SAEZ",
      "rawOb": "121500Z 19006KT 160V230 9999 BKN015 09/06 Q1025 NOSIG",
      "raw_text": "121500Z 19006KT 160V230 9999 BKN015 09/06 Q1025 NOSIG",
      "obsTime": "2026-07-12T15:00:00Z",
      "source": "linux-noaa-txt",
      "updatedAt": "2026-07-12T15:09:59.897510Z",
      "reportHourUtc": "2026071215",
      "baseExpectedHourUtc": "2026071214",
      "targetHourUtc": "2026071215",
      "expectedHourUtc": "2026071215",
      "freshForExpectedHour": true,
      "error": null
    }
  ]
}
