{
  "generatedAtUtc": "2026-07-18T19:09:59.777236Z",
  "baseExpectedHourUtc": "2026071818",
  "targetHourUtc": "2026071819",
  "expectedHourUtc": "2026071819",
  "pendingFreshUpdate": false,
  "data": [
    {
      "code": "AEP",
      "label": "Aeroparque",
      "icaoId": "SABE",
      "station_id": "SABE",
      "rawOb": "181900Z 16004KT 120V220 3000 BR OVC004 15/14 Q1002 NOSIG",
      "raw_text": "181900Z 16004KT 120V220 3000 BR OVC004 15/14 Q1002 NOSIG",
      "obsTime": "2026-07-18T19:00:00Z",
      "source": "linux-noaa-txt",
      "updatedAt": "2026-07-18T19:09:59.777236Z",
      "reportHourUtc": "2026071819",
      "baseExpectedHourUtc": "2026071818",
      "targetHourUtc": "2026071819",
      "expectedHourUtc": "2026071819",
      "freshForExpectedHour": true,
      "error": null
    },
    {
      "code": "EZE",
      "label": "Ezeiza",
      "icaoId": "SAEZ",
      "station_id": "SAEZ",
      "rawOb": "181900Z 15004KT 0800 R11/1400N -DZ FG OVC003 14/14 Q1002 TEMPO 0700 DZ FG OVC003",
      "raw_text": "181900Z 15004KT 0800 R11/1400N -DZ FG OVC003 14/14 Q1002 TEMPO 0700 DZ FG OVC003",
      "obsTime": "2026-07-18T19:00:00Z",
      "source": "linux-noaa-txt",
      "updatedAt": "2026-07-18T19:09:59.777236Z",
      "reportHourUtc": "2026071819",
      "baseExpectedHourUtc": "2026071818",
      "targetHourUtc": "2026071819",
      "expectedHourUtc": "2026071819",
      "freshForExpectedHour": true,
      "error": null
    }
  ]
}
