{
  "generatedAtUtc": "2026-07-13T11:11:02.909887Z",
  "baseExpectedHourUtc": "2026071311",
  "targetHourUtc": "2026071311",
  "expectedHourUtc": "2026071311",
  "pendingFreshUpdate": false,
  "data": [
    {
      "code": "AEP",
      "label": "Aeroparque",
      "icaoId": "SABE",
      "station_id": "SABE",
      "rawOb": "131100Z 33005KT 300V360 9000 SCT005 06/05 Q1024 NOSIG",
      "raw_text": "131100Z 33005KT 300V360 9000 SCT005 06/05 Q1024 NOSIG",
      "obsTime": "2026-07-13T11:00:00Z",
      "source": "linux-noaa-txt",
      "updatedAt": "2026-07-13T11:11:02.909887Z",
      "reportHourUtc": "2026071311",
      "baseExpectedHourUtc": "2026071311",
      "targetHourUtc": "2026071311",
      "expectedHourUtc": "2026071311",
      "freshForExpectedHour": true,
      "error": null
    },
    {
      "code": "EZE",
      "label": "Ezeiza",
      "icaoId": "SAEZ",
      "station_id": "SAEZ",
      "rawOb": "131100Z 33005KT 0800 R11/P2000 BCFG FEW002 02/02 Q1024 TEMPO 0300 BCFG BKN003",
      "raw_text": "131100Z 33005KT 0800 R11/P2000 BCFG FEW002 02/02 Q1024 TEMPO 0300 BCFG BKN003",
      "obsTime": "2026-07-13T11:00:00Z",
      "source": "linux-noaa-txt",
      "updatedAt": "2026-07-13T11:11:02.909887Z",
      "reportHourUtc": "2026071311",
      "baseExpectedHourUtc": "2026071311",
      "targetHourUtc": "2026071311",
      "expectedHourUtc": "2026071311",
      "freshForExpectedHour": true,
      "error": null
    }
  ]
}
