{
  "generatedAtUtc": "2026-07-18T06:09:59.588056Z",
  "baseExpectedHourUtc": "2026071805",
  "targetHourUtc": "2026071806",
  "expectedHourUtc": "2026071806",
  "pendingFreshUpdate": false,
  "data": [
    {
      "code": "AEP",
      "label": "Aeroparque",
      "icaoId": "SABE",
      "station_id": "SABE",
      "rawOb": "180600Z 18004KT 100V240 5000 BR OVC014 20/18 Q0998 NOSIG",
      "raw_text": "180600Z 18004KT 100V240 5000 BR OVC014 20/18 Q0998 NOSIG",
      "obsTime": "2026-07-18T06:00:00Z",
      "source": "linux-noaa-txt",
      "updatedAt": "2026-07-18T06:09:59.588056Z",
      "reportHourUtc": "2026071806",
      "baseExpectedHourUtc": "2026071805",
      "targetHourUtc": "2026071806",
      "expectedHourUtc": "2026071806",
      "freshForExpectedHour": true,
      "error": null
    },
    {
      "code": "EZE",
      "label": "Ezeiza",
      "icaoId": "SAEZ",
      "station_id": "SAEZ",
      "rawOb": "180600Z 17005KT 120V180 2500 -DZ BR OVC004 18/17 Q0999 NOSIG",
      "raw_text": "180600Z 17005KT 120V180 2500 -DZ BR OVC004 18/17 Q0999 NOSIG",
      "obsTime": "2026-07-18T06:00:00Z",
      "source": "linux-noaa-txt",
      "updatedAt": "2026-07-18T06:09:59.588056Z",
      "reportHourUtc": "2026071806",
      "baseExpectedHourUtc": "2026071805",
      "targetHourUtc": "2026071806",
      "expectedHourUtc": "2026071806",
      "freshForExpectedHour": true,
      "error": null
    }
  ]
}
