{
  "generatedAtUtc": "2026-07-18T03:09:59.607851Z",
  "baseExpectedHourUtc": "2026071802",
  "targetHourUtc": "2026071803",
  "expectedHourUtc": "2026071803",
  "pendingFreshUpdate": false,
  "data": [
    {
      "code": "AEP",
      "label": "Aeroparque",
      "icaoId": "SABE",
      "station_id": "SABE",
      "rawOb": "180300Z 09004KT 040V130 5000 BR FEW011 BKN200 17/17 Q1000 NOSIG",
      "raw_text": "180300Z 09004KT 040V130 5000 BR FEW011 BKN200 17/17 Q1000 NOSIG",
      "obsTime": "2026-07-18T03:00:00Z",
      "source": "linux-noaa-txt",
      "updatedAt": "2026-07-18T03:09:59.607851Z",
      "reportHourUtc": "2026071803",
      "baseExpectedHourUtc": "2026071802",
      "targetHourUtc": "2026071803",
      "expectedHourUtc": "2026071803",
      "freshForExpectedHour": true,
      "error": null
    },
    {
      "code": "EZE",
      "label": "Ezeiza",
      "icaoId": "SAEZ",
      "station_id": "SAEZ",
      "rawOb": "180300Z 16002KT 3000 BR SCT017 OVC100 19/18 Q0999 NOSIG",
      "raw_text": "180300Z 16002KT 3000 BR SCT017 OVC100 19/18 Q0999 NOSIG",
      "obsTime": "2026-07-18T03:00:00Z",
      "source": "linux-noaa-txt",
      "updatedAt": "2026-07-18T03:09:59.607851Z",
      "reportHourUtc": "2026071803",
      "baseExpectedHourUtc": "2026071802",
      "targetHourUtc": "2026071803",
      "expectedHourUtc": "2026071803",
      "freshForExpectedHour": true,
      "error": null
    }
  ]
}
