{
  "generatedAtUtc": "2026-07-13T13:09:59.717231Z",
  "baseExpectedHourUtc": "2026071312",
  "targetHourUtc": "2026071313",
  "expectedHourUtc": "2026071313",
  "pendingFreshUpdate": false,
  "data": [
    {
      "code": "AEP",
      "label": "Aeroparque",
      "icaoId": "SABE",
      "station_id": "SABE",
      "rawOb": "131300Z 34009KT 320V020 9999 OVC008 07/05 Q1025 NOSIG",
      "raw_text": "131300Z 34009KT 320V020 9999 OVC008 07/05 Q1025 NOSIG",
      "obsTime": "2026-07-13T13:00:00Z",
      "source": "linux-noaa-txt",
      "updatedAt": "2026-07-13T13:09:59.717231Z",
      "reportHourUtc": "2026071313",
      "baseExpectedHourUtc": "2026071312",
      "targetHourUtc": "2026071313",
      "expectedHourUtc": "2026071313",
      "freshForExpectedHour": true,
      "error": null
    },
    {
      "code": "EZE",
      "label": "Ezeiza",
      "icaoId": "SAEZ",
      "station_id": "SAEZ",
      "rawOb": "131300Z 01006KT 7000 NSC 07/05 Q1024 NOSIG",
      "raw_text": "131300Z 01006KT 7000 NSC 07/05 Q1024 NOSIG",
      "obsTime": "2026-07-13T13:00:00Z",
      "source": "linux-noaa-txt",
      "updatedAt": "2026-07-13T13:09:59.717231Z",
      "reportHourUtc": "2026071313",
      "baseExpectedHourUtc": "2026071312",
      "targetHourUtc": "2026071313",
      "expectedHourUtc": "2026071313",
      "freshForExpectedHour": true,
      "error": null
    }
  ]
}
