{
  "generatedAtUtc": "2026-07-24T08:09:59.969166Z",
  "baseExpectedHourUtc": "2026072407",
  "targetHourUtc": "2026072408",
  "expectedHourUtc": "2026072408",
  "pendingFreshUpdate": false,
  "data": [
    {
      "code": "AEP",
      "label": "Aeroparque",
      "icaoId": "SABE",
      "station_id": "SABE",
      "rawOb": "240800Z 03008KT 360V070 8000 -DZ FEW013 BKN025 OVC032 14/11 Q1019 NOSIG",
      "raw_text": "240800Z 03008KT 360V070 8000 -DZ FEW013 BKN025 OVC032 14/11 Q1019 NOSIG",
      "obsTime": "2026-07-24T08:00:00Z",
      "source": "linux-noaa-txt",
      "updatedAt": "2026-07-24T08:09:59.969166Z",
      "reportHourUtc": "2026072408",
      "baseExpectedHourUtc": "2026072407",
      "targetHourUtc": "2026072408",
      "expectedHourUtc": "2026072408",
      "freshForExpectedHour": true,
      "error": null
    },
    {
      "code": "EZE",
      "label": "Ezeiza",
      "icaoId": "SAEZ",
      "station_id": "SAEZ",
      "rawOb": "240800Z 02002KT 9000 -DZ BKN012 OVC024 13/11 Q1018 NOSIG",
      "raw_text": "240800Z 02002KT 9000 -DZ BKN012 OVC024 13/11 Q1018 NOSIG",
      "obsTime": "2026-07-24T08:00:00Z",
      "source": "linux-noaa-txt",
      "updatedAt": "2026-07-24T08:09:59.969166Z",
      "reportHourUtc": "2026072408",
      "baseExpectedHourUtc": "2026072407",
      "targetHourUtc": "2026072408",
      "expectedHourUtc": "2026072408",
      "freshForExpectedHour": true,
      "error": null
    }
  ]
}
