{
  "generatedAtUtc": "2026-07-18T05:09:59.781823Z",
  "baseExpectedHourUtc": "2026071804",
  "targetHourUtc": "2026071805",
  "expectedHourUtc": "2026071805",
  "pendingFreshUpdate": false,
  "data": [
    {
      "code": "AEP",
      "label": "Aeroparque",
      "icaoId": "SABE",
      "station_id": "SABE",
      "rawOb": "180500Z VRB01KT 6000 OVC014 19/17 Q1000 NOSIG",
      "raw_text": "180500Z VRB01KT 6000 OVC014 19/17 Q1000 NOSIG",
      "obsTime": "2026-07-18T05:00:00Z",
      "source": "linux-noaa-txt",
      "updatedAt": "2026-07-18T05:09:59.781823Z",
      "reportHourUtc": "2026071805",
      "baseExpectedHourUtc": "2026071804",
      "targetHourUtc": "2026071805",
      "expectedHourUtc": "2026071805",
      "freshForExpectedHour": true,
      "error": null
    },
    {
      "code": "EZE",
      "label": "Ezeiza",
      "icaoId": "SAEZ",
      "station_id": "SAEZ",
      "rawOb": "180500Z 18005KT 150V220 7000 OVC004 18/18 Q1000 NOSIG",
      "raw_text": "180500Z 18005KT 150V220 7000 OVC004 18/18 Q1000 NOSIG",
      "obsTime": "2026-07-18T05:00:00Z",
      "source": "linux-noaa-txt",
      "updatedAt": "2026-07-18T05:09:59.781823Z",
      "reportHourUtc": "2026071805",
      "baseExpectedHourUtc": "2026071804",
      "targetHourUtc": "2026071805",
      "expectedHourUtc": "2026071805",
      "freshForExpectedHour": true,
      "error": null
    }
  ]
}
