{
  "generatedAtUtc": "2026-07-21T05:09:59.882291Z",
  "baseExpectedHourUtc": "2026072104",
  "targetHourUtc": "2026072105",
  "expectedHourUtc": "2026072105",
  "pendingFreshUpdate": false,
  "data": [
    {
      "code": "AEP",
      "label": "Aeroparque",
      "icaoId": "SABE",
      "station_id": "SABE",
      "rawOb": "210500Z 19003KT 140V230 2000 -DZ BR OVC005 11/11 Q1011 NOSIG",
      "raw_text": "210500Z 19003KT 140V230 2000 -DZ BR OVC005 11/11 Q1011 NOSIG",
      "obsTime": "2026-07-21T05:00:00Z",
      "source": "linux-noaa-txt",
      "updatedAt": "2026-07-21T05:09:59.882291Z",
      "reportHourUtc": "2026072105",
      "baseExpectedHourUtc": "2026072104",
      "targetHourUtc": "2026072105",
      "expectedHourUtc": "2026072105",
      "freshForExpectedHour": true,
      "error": null
    },
    {
      "code": "EZE",
      "label": "Ezeiza",
      "icaoId": "SAEZ",
      "station_id": "SAEZ",
      "rawOb": "210500Z 15004KT 3000 DZ BR OVC004 10/10 Q1011 NOSIG",
      "raw_text": "210500Z 15004KT 3000 DZ BR OVC004 10/10 Q1011 NOSIG",
      "obsTime": "2026-07-21T05:00:00Z",
      "source": "linux-noaa-txt",
      "updatedAt": "2026-07-21T05:09:59.882291Z",
      "reportHourUtc": "2026072105",
      "baseExpectedHourUtc": "2026072104",
      "targetHourUtc": "2026072105",
      "expectedHourUtc": "2026072105",
      "freshForExpectedHour": true,
      "error": null
    }
  ]
}
