{
  "generatedAtUtc": "2026-07-18T14:09:59.765418Z",
  "baseExpectedHourUtc": "2026071813",
  "targetHourUtc": "2026071814",
  "expectedHourUtc": "2026071814",
  "pendingFreshUpdate": false,
  "data": [
    {
      "code": "AEP",
      "label": "Aeroparque",
      "icaoId": "SABE",
      "station_id": "SABE",
      "rawOb": "181400Z 18004KT 120V240 5000 BR OVC007 16/14 Q1001 NOSIG",
      "raw_text": "181400Z 18004KT 120V240 5000 BR OVC007 16/14 Q1001 NOSIG",
      "obsTime": "2026-07-18T14:00:00Z",
      "source": "linux-noaa-txt",
      "updatedAt": "2026-07-18T14:09:59.765418Z",
      "reportHourUtc": "2026071814",
      "baseExpectedHourUtc": "2026071813",
      "targetHourUtc": "2026071814",
      "expectedHourUtc": "2026071814",
      "freshForExpectedHour": true,
      "error": null
    },
    {
      "code": "EZE",
      "label": "Ezeiza",
      "icaoId": "SAEZ",
      "station_id": "SAEZ",
      "rawOb": "181400Z 14005KT 5000 BR OVC005 15/14 Q1001 TEMPO 14005KT 2000 -DZ BR OVC004",
      "raw_text": "181400Z 14005KT 5000 BR OVC005 15/14 Q1001 TEMPO 14005KT 2000 -DZ BR OVC004",
      "obsTime": "2026-07-18T14:00:00Z",
      "source": "linux-noaa-txt",
      "updatedAt": "2026-07-18T14:09:59.765418Z",
      "reportHourUtc": "2026071814",
      "baseExpectedHourUtc": "2026071813",
      "targetHourUtc": "2026071814",
      "expectedHourUtc": "2026071814",
      "freshForExpectedHour": true,
      "error": null
    }
  ]
}
