{
  "generatedAtUtc": "2026-07-23T03:09:59.258893Z",
  "baseExpectedHourUtc": "2026072302",
  "targetHourUtc": "2026072303",
  "expectedHourUtc": "2026072303",
  "pendingFreshUpdate": false,
  "data": [
    {
      "code": "AEP",
      "label": "Aeroparque",
      "icaoId": "SABE",
      "station_id": "SABE",
      "rawOb": "230300Z 13009KT 100V160 9999 BKN015 OVC018 09/07 Q1024 NOSIG",
      "raw_text": "230300Z 13009KT 100V160 9999 BKN015 OVC018 09/07 Q1024 NOSIG",
      "obsTime": "2026-07-23T03:00:00Z",
      "source": "linux-noaa-txt",
      "updatedAt": "2026-07-23T03:09:59.258893Z",
      "reportHourUtc": "2026072303",
      "baseExpectedHourUtc": "2026072302",
      "targetHourUtc": "2026072303",
      "expectedHourUtc": "2026072303",
      "freshForExpectedHour": true,
      "error": null
    },
    {
      "code": "EZE",
      "label": "Ezeiza",
      "icaoId": "SAEZ",
      "station_id": "SAEZ",
      "rawOb": "230300Z 11004KT 9999 BKN016 06/05 Q1024 NOSIG",
      "raw_text": "230300Z 11004KT 9999 BKN016 06/05 Q1024 NOSIG",
      "obsTime": "2026-07-23T03:00:00Z",
      "source": "linux-noaa-txt",
      "updatedAt": "2026-07-23T03:09:59.258893Z",
      "reportHourUtc": "2026072303",
      "baseExpectedHourUtc": "2026072302",
      "targetHourUtc": "2026072303",
      "expectedHourUtc": "2026072303",
      "freshForExpectedHour": true,
      "error": null
    }
  ]
}
