{
  "generatedAtUtc": "2026-07-21T00:11:02.077851Z",
  "baseExpectedHourUtc": "2026072100",
  "targetHourUtc": "2026072100",
  "expectedHourUtc": "2026072100",
  "pendingFreshUpdate": false,
  "data": [
    {
      "code": "AEP",
      "label": "Aeroparque",
      "icaoId": "SABE",
      "station_id": "SABE",
      "rawOb": "210000Z 13012KT 5000 -DZ BR OVC006 12/11 Q1011 NOSIG",
      "raw_text": "210000Z 13012KT 5000 -DZ BR OVC006 12/11 Q1011 NOSIG",
      "obsTime": "2026-07-21T00:00:00Z",
      "source": "linux-noaa-txt",
      "updatedAt": "2026-07-21T00:11:02.077851Z",
      "reportHourUtc": "2026072100",
      "baseExpectedHourUtc": "2026072100",
      "targetHourUtc": "2026072100",
      "expectedHourUtc": "2026072100",
      "freshForExpectedHour": true,
      "error": null
    },
    {
      "code": "EZE",
      "label": "Ezeiza",
      "icaoId": "SAEZ",
      "station_id": "SAEZ",
      "rawOb": "210000Z 14006KT 1500 DZ BR OVC004 11/11 Q1011 NOSIG",
      "raw_text": "210000Z 14006KT 1500 DZ BR OVC004 11/11 Q1011 NOSIG",
      "obsTime": "2026-07-21T00:00:00Z",
      "source": "linux-noaa-txt",
      "updatedAt": "2026-07-21T00:11:02.077851Z",
      "reportHourUtc": "2026072100",
      "baseExpectedHourUtc": "2026072100",
      "targetHourUtc": "2026072100",
      "expectedHourUtc": "2026072100",
      "freshForExpectedHour": true,
      "error": null
    }
  ]
}
