{
  "generatedAtUtc": "2026-07-14T17:09:59.725857Z",
  "baseExpectedHourUtc": "2026071416",
  "targetHourUtc": "2026071417",
  "expectedHourUtc": "2026071417",
  "pendingFreshUpdate": false,
  "data": [
    {
      "code": "AEP",
      "label": "Aeroparque",
      "icaoId": "SABE",
      "station_id": "SABE",
      "rawOb": "141700Z 01007KT CAVOK 13/09 Q1016 NOSIG",
      "raw_text": "141700Z 01007KT CAVOK 13/09 Q1016 NOSIG",
      "obsTime": "2026-07-14T17:00:00Z",
      "source": "linux-noaa-txt",
      "updatedAt": "2026-07-14T17:09:59.725857Z",
      "reportHourUtc": "2026071417",
      "baseExpectedHourUtc": "2026071416",
      "targetHourUtc": "2026071417",
      "expectedHourUtc": "2026071417",
      "freshForExpectedHour": true,
      "error": null
    },
    {
      "code": "EZE",
      "label": "Ezeiza",
      "icaoId": "SAEZ",
      "station_id": "SAEZ",
      "rawOb": "141700Z 03010KT CAVOK 14/08 Q1015 NOSIG",
      "raw_text": "141700Z 03010KT CAVOK 14/08 Q1015 NOSIG",
      "obsTime": "2026-07-14T17:00:00Z",
      "source": "linux-noaa-txt",
      "updatedAt": "2026-07-14T17:09:59.725857Z",
      "reportHourUtc": "2026071417",
      "baseExpectedHourUtc": "2026071416",
      "targetHourUtc": "2026071417",
      "expectedHourUtc": "2026071417",
      "freshForExpectedHour": true,
      "error": null
    }
  ]
}
