{
  "generatedAtUtc": "2026-07-23T21:09:59.301281Z",
  "baseExpectedHourUtc": "2026072320",
  "targetHourUtc": "2026072321",
  "expectedHourUtc": "2026072321",
  "pendingFreshUpdate": false,
  "data": [
    {
      "code": "AEP",
      "label": "Aeroparque",
      "icaoId": "SABE",
      "station_id": "SABE",
      "rawOb": "232100Z 09011KT 9999 FEW019 BKN029 13/11 Q1020 NOSIG",
      "raw_text": "232100Z 09011KT 9999 FEW019 BKN029 13/11 Q1020 NOSIG",
      "obsTime": "2026-07-23T21:00:00Z",
      "source": "linux-noaa-txt",
      "updatedAt": "2026-07-23T21:09:59.301281Z",
      "reportHourUtc": "2026072321",
      "baseExpectedHourUtc": "2026072320",
      "targetHourUtc": "2026072321",
      "expectedHourUtc": "2026072321",
      "freshForExpectedHour": true,
      "error": null
    },
    {
      "code": "EZE",
      "label": "Ezeiza",
      "icaoId": "SAEZ",
      "station_id": "SAEZ",
      "rawOb": "232100Z 08010KT 9999 BKN042 OVC200 14/10 Q1019 NOSIG",
      "raw_text": "232100Z 08010KT 9999 BKN042 OVC200 14/10 Q1019 NOSIG",
      "obsTime": "2026-07-23T21:00:00Z",
      "source": "linux-noaa-txt",
      "updatedAt": "2026-07-23T21:09:59.301281Z",
      "reportHourUtc": "2026072321",
      "baseExpectedHourUtc": "2026072320",
      "targetHourUtc": "2026072321",
      "expectedHourUtc": "2026072321",
      "freshForExpectedHour": true,
      "error": null
    }
  ]
}
