{
  "generatedAtUtc": "2026-07-23T14:09:59.557079Z",
  "baseExpectedHourUtc": "2026072313",
  "targetHourUtc": "2026072314",
  "expectedHourUtc": "2026072314",
  "pendingFreshUpdate": false,
  "data": [
    {
      "code": "AEP",
      "label": "Aeroparque",
      "icaoId": "SABE",
      "station_id": "SABE",
      "rawOb": "231400Z 08008KT 9999 SCT006 11/09 Q1023 NOSIG",
      "raw_text": "231400Z 08008KT 9999 SCT006 11/09 Q1023 NOSIG",
      "obsTime": "2026-07-23T14:00:00Z",
      "source": "linux-noaa-txt",
      "updatedAt": "2026-07-23T14:09:59.557079Z",
      "reportHourUtc": "2026072314",
      "baseExpectedHourUtc": "2026072313",
      "targetHourUtc": "2026072314",
      "expectedHourUtc": "2026072314",
      "freshForExpectedHour": true,
      "error": null
    },
    {
      "code": "EZE",
      "label": "Ezeiza",
      "icaoId": "SAEZ",
      "station_id": "SAEZ",
      "rawOb": "231400Z 06011KT 9999 FEW017 BKN200 14/10 Q1022 NOSIG",
      "raw_text": "231400Z 06011KT 9999 FEW017 BKN200 14/10 Q1022 NOSIG",
      "obsTime": "2026-07-23T14:00:00Z",
      "source": "linux-noaa-txt",
      "updatedAt": "2026-07-23T14:09:59.557079Z",
      "reportHourUtc": "2026072314",
      "baseExpectedHourUtc": "2026072313",
      "targetHourUtc": "2026072314",
      "expectedHourUtc": "2026072314",
      "freshForExpectedHour": true,
      "error": null
    }
  ]
}
