{
  "generatedAtUtc": "2026-07-18T15:09:59.645309Z",
  "baseExpectedHourUtc": "2026071814",
  "targetHourUtc": "2026071815",
  "expectedHourUtc": "2026071815",
  "pendingFreshUpdate": false,
  "data": [
    {
      "code": "AEP",
      "label": "Aeroparque",
      "icaoId": "SABE",
      "station_id": "SABE",
      "rawOb": "181500Z 17003KT 130V220 8000 OVC010 17/14 Q1001 BECMG 8000 OVC010",
      "raw_text": "181500Z 17003KT 130V220 8000 OVC010 17/14 Q1001 BECMG 8000 OVC010",
      "obsTime": "2026-07-18T15:00:00Z",
      "source": "linux-noaa-txt",
      "updatedAt": "2026-07-18T15:09:59.645309Z",
      "reportHourUtc": "2026071815",
      "baseExpectedHourUtc": "2026071814",
      "targetHourUtc": "2026071815",
      "expectedHourUtc": "2026071815",
      "freshForExpectedHour": true,
      "error": null
    },
    {
      "code": "EZE",
      "label": "Ezeiza",
      "icaoId": "SAEZ",
      "station_id": "SAEZ",
      "rawOb": "181500Z 16006KT 5000 BR OVC005 15/14 Q1001 BECMG 8000 OVC008",
      "raw_text": "181500Z 16006KT 5000 BR OVC005 15/14 Q1001 BECMG 8000 OVC008",
      "obsTime": "2026-07-18T15:00:00Z",
      "source": "linux-noaa-txt",
      "updatedAt": "2026-07-18T15:09:59.645309Z",
      "reportHourUtc": "2026071815",
      "baseExpectedHourUtc": "2026071814",
      "targetHourUtc": "2026071815",
      "expectedHourUtc": "2026071815",
      "freshForExpectedHour": true,
      "error": null
    }
  ]
}
