{
  "generatedAtUtc": "2026-07-15T04:09:59.217305Z",
  "baseExpectedHourUtc": "2026071503",
  "targetHourUtc": "2026071504",
  "expectedHourUtc": "2026071504",
  "pendingFreshUpdate": false,
  "data": [
    {
      "code": "AEP",
      "label": "Aeroparque",
      "icaoId": "SABE",
      "station_id": "SABE",
      "rawOb": "150400Z 03004KT 360V060 CAVOK 12/10 Q1013 NOSIG",
      "raw_text": "150400Z 03004KT 360V060 CAVOK 12/10 Q1013 NOSIG",
      "obsTime": "2026-07-15T04:00:00Z",
      "source": "linux-noaa-txt",
      "updatedAt": "2026-07-15T04:09:59.217305Z",
      "reportHourUtc": "2026071504",
      "baseExpectedHourUtc": "2026071503",
      "targetHourUtc": "2026071504",
      "expectedHourUtc": "2026071504",
      "freshForExpectedHour": true,
      "error": null
    },
    {
      "code": "EZE",
      "label": "Ezeiza",
      "icaoId": "SAEZ",
      "station_id": "SAEZ",
      "rawOb": "150400Z 02008KT CAVOK 13/08 Q1013 NOSIG",
      "raw_text": "150400Z 02008KT CAVOK 13/08 Q1013 NOSIG",
      "obsTime": "2026-07-15T04:00:00Z",
      "source": "linux-noaa-txt",
      "updatedAt": "2026-07-15T04:09:59.217305Z",
      "reportHourUtc": "2026071504",
      "baseExpectedHourUtc": "2026071503",
      "targetHourUtc": "2026071504",
      "expectedHourUtc": "2026071504",
      "freshForExpectedHour": true,
      "error": null
    }
  ]
}
