{
  "generatedAtUtc": "2026-07-15T13:09:59.946269Z",
  "baseExpectedHourUtc": "2026071512",
  "targetHourUtc": "2026071513",
  "expectedHourUtc": "2026071513",
  "pendingFreshUpdate": false,
  "data": [
    {
      "code": "AEP",
      "label": "Aeroparque",
      "icaoId": "SABE",
      "station_id": "SABE",
      "rawOb": "151300Z 03005KT 360V060 CAVOK 13/10 Q1013 NOSIG",
      "raw_text": "151300Z 03005KT 360V060 CAVOK 13/10 Q1013 NOSIG",
      "obsTime": "2026-07-15T13:00:00Z",
      "source": "linux-noaa-txt",
      "updatedAt": "2026-07-15T13:09:59.946269Z",
      "reportHourUtc": "2026071513",
      "baseExpectedHourUtc": "2026071512",
      "targetHourUtc": "2026071513",
      "expectedHourUtc": "2026071513",
      "freshForExpectedHour": true,
      "error": null
    },
    {
      "code": "EZE",
      "label": "Ezeiza",
      "icaoId": "SAEZ",
      "station_id": "SAEZ",
      "rawOb": "151300Z 02009KT CAVOK 15/10 Q1012 NOSIG",
      "raw_text": "151300Z 02009KT CAVOK 15/10 Q1012 NOSIG",
      "obsTime": "2026-07-15T13:00:00Z",
      "source": "linux-noaa-txt",
      "updatedAt": "2026-07-15T13:09:59.946269Z",
      "reportHourUtc": "2026071513",
      "baseExpectedHourUtc": "2026071512",
      "targetHourUtc": "2026071513",
      "expectedHourUtc": "2026071513",
      "freshForExpectedHour": true,
      "error": null
    }
  ]
}
