{
  "generatedAtUtc": "2026-07-17T23:09:59.981610Z",
  "baseExpectedHourUtc": "2026071722",
  "targetHourUtc": "2026071723",
  "expectedHourUtc": "2026071723",
  "pendingFreshUpdate": false,
  "data": [
    {
      "code": "AEP",
      "label": "Aeroparque",
      "icaoId": "SABE",
      "station_id": "SABE",
      "rawOb": "172300Z 21004KT 160V270 6000 NSC 22/19 Q0998 NOSIG",
      "raw_text": "172300Z 21004KT 160V270 6000 NSC 22/19 Q0998 NOSIG",
      "obsTime": "2026-07-17T23:00:00Z",
      "source": "linux-noaa-txt",
      "updatedAt": "2026-07-17T23:09:59.981610Z",
      "reportHourUtc": "2026071723",
      "baseExpectedHourUtc": "2026071722",
      "targetHourUtc": "2026071723",
      "expectedHourUtc": "2026071723",
      "freshForExpectedHour": true,
      "error": null
    },
    {
      "code": "EZE",
      "label": "Ezeiza",
      "icaoId": "SAEZ",
      "station_id": "SAEZ",
      "rawOb": "172300Z 23004KT 9000 OVC015 20/19 Q0998 NOSIG",
      "raw_text": "172300Z 23004KT 9000 OVC015 20/19 Q0998 NOSIG",
      "obsTime": "2026-07-17T23:00:00Z",
      "source": "linux-noaa-txt",
      "updatedAt": "2026-07-17T23:09:59.981610Z",
      "reportHourUtc": "2026071723",
      "baseExpectedHourUtc": "2026071722",
      "targetHourUtc": "2026071723",
      "expectedHourUtc": "2026071723",
      "freshForExpectedHour": true,
      "error": null
    }
  ]
}
