{
  "generatedAtUtc": "2026-07-21T17:10:00.021568Z",
  "baseExpectedHourUtc": "2026072117",
  "targetHourUtc": "2026072117",
  "expectedHourUtc": "2026072117",
  "pendingFreshUpdate": false,
  "data": [
    {
      "code": "AEP",
      "label": "Aeroparque",
      "icaoId": "SABE",
      "station_id": "SABE",
      "rawOb": "211700Z 16005KT 120V230 8000 OVC010 12/10 Q1012 NOSIG",
      "raw_text": "211700Z 16005KT 120V230 8000 OVC010 12/10 Q1012 NOSIG",
      "obsTime": "2026-07-21T17:00:00Z",
      "source": "linux-noaa-txt",
      "updatedAt": "2026-07-21T17:10:00.021568Z",
      "reportHourUtc": "2026072117",
      "baseExpectedHourUtc": "2026072117",
      "targetHourUtc": "2026072117",
      "expectedHourUtc": "2026072117",
      "freshForExpectedHour": true,
      "error": null
    },
    {
      "code": "EZE",
      "label": "Ezeiza",
      "icaoId": "SAEZ",
      "station_id": "SAEZ",
      "rawOb": "211700Z 14007KT 1500 DZ BKN006 OVC012 12/11 Q1012 NOSIG",
      "raw_text": "211700Z 14007KT 1500 DZ BKN006 OVC012 12/11 Q1012 NOSIG",
      "obsTime": "2026-07-21T17:00:00Z",
      "source": "linux-noaa-txt",
      "updatedAt": "2026-07-21T17:10:00.021568Z",
      "reportHourUtc": "2026072117",
      "baseExpectedHourUtc": "2026072117",
      "targetHourUtc": "2026072117",
      "expectedHourUtc": "2026072117",
      "freshForExpectedHour": true,
      "error": null
    }
  ]
}
