{
  "generatedAtUtc": "2026-07-18T00:09:59.765655Z",
  "baseExpectedHourUtc": "2026071723",
  "targetHourUtc": "2026071800",
  "expectedHourUtc": "2026071800",
  "pendingFreshUpdate": false,
  "data": [
    {
      "code": "AEP",
      "label": "Aeroparque",
      "icaoId": "SABE",
      "station_id": "SABE",
      "rawOb": "180000Z 25004KT 190V330 6000 OVC026 21/18 Q1000 NOSIG",
      "raw_text": "180000Z 25004KT 190V330 6000 OVC026 21/18 Q1000 NOSIG",
      "obsTime": "2026-07-18T00:00:00Z",
      "source": "linux-noaa-txt",
      "updatedAt": "2026-07-18T00:09:59.765655Z",
      "reportHourUtc": "2026071800",
      "baseExpectedHourUtc": "2026071723",
      "targetHourUtc": "2026071800",
      "expectedHourUtc": "2026071800",
      "freshForExpectedHour": true,
      "error": null
    },
    {
      "code": "EZE",
      "label": "Ezeiza",
      "icaoId": "SAEZ",
      "station_id": "SAEZ",
      "rawOb": "180000Z 28004KT 9000 OVC018 20/19 Q0999 NOSIG",
      "raw_text": "180000Z 28004KT 9000 OVC018 20/19 Q0999 NOSIG",
      "obsTime": "2026-07-18T00:00:00Z",
      "source": "linux-noaa-txt",
      "updatedAt": "2026-07-18T00:09:59.765655Z",
      "reportHourUtc": "2026071800",
      "baseExpectedHourUtc": "2026071723",
      "targetHourUtc": "2026071800",
      "expectedHourUtc": "2026071800",
      "freshForExpectedHour": true,
      "error": null
    }
  ]
}
