{
  "generatedAtUtc": "2026-07-19T04:09:59.721717Z",
  "baseExpectedHourUtc": "2026071903",
  "targetHourUtc": "2026071904",
  "expectedHourUtc": "2026071904",
  "pendingFreshUpdate": false,
  "data": [
    {
      "code": "AEP",
      "label": "Aeroparque",
      "icaoId": "SABE",
      "station_id": "SABE",
      "rawOb": "190400Z 17007KT 110V210 4000 BR OVC006 13/12 Q1005 NOSIG",
      "raw_text": "190400Z 17007KT 110V210 4000 BR OVC006 13/12 Q1005 NOSIG",
      "obsTime": "2026-07-19T04:00:00Z",
      "source": "linux-noaa-txt",
      "updatedAt": "2026-07-19T04:09:59.721717Z",
      "reportHourUtc": "2026071904",
      "baseExpectedHourUtc": "2026071903",
      "targetHourUtc": "2026071904",
      "expectedHourUtc": "2026071904",
      "freshForExpectedHour": true,
      "error": null
    },
    {
      "code": "EZE",
      "label": "Ezeiza",
      "icaoId": "SAEZ",
      "station_id": "SAEZ",
      "rawOb": "190400Z 19007KT 3000 -DZ BR OVC006 12/11 Q1005 NOSIG",
      "raw_text": "190400Z 19007KT 3000 -DZ BR OVC006 12/11 Q1005 NOSIG",
      "obsTime": "2026-07-19T04:00:00Z",
      "source": "linux-noaa-txt",
      "updatedAt": "2026-07-19T04:09:59.721717Z",
      "reportHourUtc": "2026071904",
      "baseExpectedHourUtc": "2026071903",
      "targetHourUtc": "2026071904",
      "expectedHourUtc": "2026071904",
      "freshForExpectedHour": true,
      "error": null
    }
  ]
}
