{
  "generatedAtUtc": "2026-07-21T21:09:59.581537Z",
  "baseExpectedHourUtc": "2026072120",
  "targetHourUtc": "2026072121",
  "expectedHourUtc": "2026072121",
  "pendingFreshUpdate": false,
  "data": [
    {
      "code": "AEP",
      "label": "Aeroparque",
      "icaoId": "SABE",
      "station_id": "SABE",
      "rawOb": "212100Z 13006KT 3000 -DZ BR BKN005 OVC011 12/11 Q1013 NOSIG",
      "raw_text": "212100Z 13006KT 3000 -DZ BR BKN005 OVC011 12/11 Q1013 NOSIG",
      "obsTime": "2026-07-21T21:00:00Z",
      "source": "linux-noaa-txt",
      "updatedAt": "2026-07-21T21:09:59.581537Z",
      "reportHourUtc": "2026072121",
      "baseExpectedHourUtc": "2026072120",
      "targetHourUtc": "2026072121",
      "expectedHourUtc": "2026072121",
      "freshForExpectedHour": true,
      "error": null
    },
    {
      "code": "EZE",
      "label": "Ezeiza",
      "icaoId": "SAEZ",
      "station_id": "SAEZ",
      "rawOb": "212100Z 14005KT 1200 R11/1800 DZ BR OVC005 12/11 Q1013 NOSIG",
      "raw_text": "212100Z 14005KT 1200 R11/1800 DZ BR OVC005 12/11 Q1013 NOSIG",
      "obsTime": "2026-07-21T21:00:00Z",
      "source": "linux-noaa-txt",
      "updatedAt": "2026-07-21T21:09:59.581537Z",
      "reportHourUtc": "2026072121",
      "baseExpectedHourUtc": "2026072120",
      "targetHourUtc": "2026072121",
      "expectedHourUtc": "2026072121",
      "freshForExpectedHour": true,
      "error": null
    }
  ]
}
