{
  "generatedAtUtc": "2026-07-11T07:09:59.944940Z",
  "expectedHourUtc": "2026071106",
  "pendingFreshUpdate": false,
  "data": [
    {
      "code": "AEP",
      "label": "Aeroparque",
      "icaoId": "SABE",
      "station_id": "SABE",
      "rawOb": "110700Z 00000KT 8000 MIFG NSC 10/09 Q1016 NOSIG",
      "raw_text": "110700Z 00000KT 8000 MIFG NSC 10/09 Q1016 NOSIG",
      "obsTime": "2026-07-11T07:00:00Z",
      "source": "linux-noaa-txt",
      "updatedAt": "2026-07-11T07:09:59.944940Z",
      "reportHourUtc": "2026071107",
      "expectedHourUtc": "2026071106",
      "freshForExpectedHour": true,
      "error": null
    },
    {
      "code": "EZE",
      "label": "Ezeiza",
      "icaoId": "SAEZ",
      "station_id": "SAEZ",
      "rawOb": "110700Z 32002KT 0200 R11/250N FG OVC002 09/09 Q1016 NOSIG",
      "raw_text": "110700Z 32002KT 0200 R11/250N FG OVC002 09/09 Q1016 NOSIG",
      "obsTime": "2026-07-11T07:00:00Z",
      "source": "linux-noaa-txt",
      "updatedAt": "2026-07-11T07:09:59.944940Z",
      "reportHourUtc": "2026071107",
      "expectedHourUtc": "2026071106",
      "freshForExpectedHour": true,
      "error": null
    }
  ]
}
