{
  "generatedAtUtc": "2026-07-12T23:10:00.089936Z",
  "baseExpectedHourUtc": "2026071223",
  "targetHourUtc": "2026071223",
  "expectedHourUtc": "2026071223",
  "pendingFreshUpdate": false,
  "data": [
    {
      "code": "AEP",
      "label": "Aeroparque",
      "icaoId": "SABE",
      "station_id": "SABE",
      "rawOb": "122300Z 17003KT 120V210 CAVOK 10/04 Q1025 NOSIG",
      "raw_text": "122300Z 17003KT 120V210 CAVOK 10/04 Q1025 NOSIG",
      "obsTime": "2026-07-12T23:00:00Z",
      "source": "linux-noaa-txt",
      "updatedAt": "2026-07-12T23:10:00.089936Z",
      "reportHourUtc": "2026071223",
      "baseExpectedHourUtc": "2026071223",
      "targetHourUtc": "2026071223",
      "expectedHourUtc": "2026071223",
      "freshForExpectedHour": true,
      "error": null
    },
    {
      "code": "EZE",
      "label": "Ezeiza",
      "icaoId": "SAEZ",
      "station_id": "SAEZ",
      "rawOb": "122300Z 21002KT CAVOK 04/02 Q1025 NOSIG",
      "raw_text": "122300Z 21002KT CAVOK 04/02 Q1025 NOSIG",
      "obsTime": "2026-07-12T23:00:00Z",
      "source": "linux-noaa-txt",
      "updatedAt": "2026-07-12T23:10:00.089936Z",
      "reportHourUtc": "2026071223",
      "baseExpectedHourUtc": "2026071223",
      "targetHourUtc": "2026071223",
      "expectedHourUtc": "2026071223",
      "freshForExpectedHour": true,
      "error": null
    }
  ]
}
