{
  "generatedAtUtc": "2026-07-20T23:09:59.245031Z",
  "baseExpectedHourUtc": "2026072022",
  "targetHourUtc": "2026072023",
  "expectedHourUtc": "2026072023",
  "pendingFreshUpdate": false,
  "data": [
    {
      "code": "AEP",
      "label": "Aeroparque",
      "icaoId": "SABE",
      "station_id": "SABE",
      "rawOb": "202300Z 12014KT 5000 -DZ BR OVC006 12/11 Q1011 NOSIG",
      "raw_text": "202300Z 12014KT 5000 -DZ BR OVC006 12/11 Q1011 NOSIG",
      "obsTime": "2026-07-20T23:00:00Z",
      "source": "linux-noaa-txt",
      "updatedAt": "2026-07-20T23:09:59.245031Z",
      "reportHourUtc": "2026072023",
      "baseExpectedHourUtc": "2026072022",
      "targetHourUtc": "2026072023",
      "expectedHourUtc": "2026072023",
      "freshForExpectedHour": true,
      "error": null
    },
    {
      "code": "EZE",
      "label": "Ezeiza",
      "icaoId": "SAEZ",
      "station_id": "SAEZ",
      "rawOb": "202300Z 13006KT 3000 -DZ BR OVC007 12/11 Q1010 NOSIG",
      "raw_text": "202300Z 13006KT 3000 -DZ BR OVC007 12/11 Q1010 NOSIG",
      "obsTime": "2026-07-20T23:00:00Z",
      "source": "linux-noaa-txt",
      "updatedAt": "2026-07-20T23:09:59.245031Z",
      "reportHourUtc": "2026072023",
      "baseExpectedHourUtc": "2026072022",
      "targetHourUtc": "2026072023",
      "expectedHourUtc": "2026072023",
      "freshForExpectedHour": true,
      "error": null
    }
  ]
}
