{
  "generatedAtUtc": "2026-07-17T04:09:59.350103Z",
  "baseExpectedHourUtc": "2026071703",
  "targetHourUtc": "2026071704",
  "expectedHourUtc": "2026071704",
  "pendingFreshUpdate": false,
  "data": [
    {
      "code": "AEP",
      "label": "Aeroparque",
      "icaoId": "SABE",
      "station_id": "SABE",
      "rawOb": "170400Z 32004KT 270V350 CAVOK 17/15 Q0998 NOSIG",
      "raw_text": "170400Z 32004KT 270V350 CAVOK 17/15 Q0998 NOSIG",
      "obsTime": "2026-07-17T04:00:00Z",
      "source": "linux-noaa-txt",
      "updatedAt": "2026-07-17T04:09:59.350103Z",
      "reportHourUtc": "2026071704",
      "baseExpectedHourUtc": "2026071703",
      "targetHourUtc": "2026071704",
      "expectedHourUtc": "2026071704",
      "freshForExpectedHour": true,
      "error": null
    },
    {
      "code": "EZE",
      "label": "Ezeiza",
      "icaoId": "SAEZ",
      "station_id": "SAEZ",
      "rawOb": "170400Z 03006KT CAVOK 20/16 Q0997 NOSIG",
      "raw_text": "170400Z 03006KT CAVOK 20/16 Q0997 NOSIG",
      "obsTime": "2026-07-17T04:00:00Z",
      "source": "linux-noaa-txt",
      "updatedAt": "2026-07-17T04:09:59.350103Z",
      "reportHourUtc": "2026071704",
      "baseExpectedHourUtc": "2026071703",
      "targetHourUtc": "2026071704",
      "expectedHourUtc": "2026071704",
      "freshForExpectedHour": true,
      "error": null
    }
  ]
}
