{
  "generatedAtUtc": "2026-07-24T03:09:59.597880Z",
  "baseExpectedHourUtc": "2026072402",
  "targetHourUtc": "2026072403",
  "expectedHourUtc": "2026072403",
  "pendingFreshUpdate": true,
  "data": [
    {
      "code": "AEP",
      "label": "Aeroparque",
      "icaoId": "SABE",
      "station_id": "SABE",
      "rawOb": "240300Z 04006KT 9999 SCT037 OVC045 14/11 Q1020 NOSIG",
      "raw_text": "240300Z 04006KT 9999 SCT037 OVC045 14/11 Q1020 NOSIG",
      "obsTime": "2026-07-24T03:00:00Z",
      "source": "linux-noaa-txt",
      "updatedAt": "2026-07-24T03:09:59.597880Z",
      "reportHourUtc": "2026072403",
      "baseExpectedHourUtc": "2026072402",
      "targetHourUtc": "2026072403",
      "expectedHourUtc": "2026072403",
      "freshForExpectedHour": true,
      "error": null
    },
    {
      "code": "EZE",
      "label": "Ezeiza",
      "icaoId": "SAEZ",
      "station_id": "SAEZ",
      "rawOb": "240200Z 04005KT 9999 SCT035 OVC045 14/10 Q1019 NOSIG",
      "raw_text": "240200Z 04005KT 9999 SCT035 OVC045 14/10 Q1019 NOSIG",
      "obsTime": "2026-07-24T02:00:00Z",
      "source": "linux-noaa-txt",
      "updatedAt": "2026-07-24T03:09:59.597880Z",
      "reportHourUtc": "2026072402",
      "baseExpectedHourUtc": "2026072402",
      "targetHourUtc": "2026072403",
      "expectedHourUtc": "2026072403",
      "freshForExpectedHour": false,
      "error": "Esperando actualización de 2026072403…"
    }
  ]
}
