{
  "generatedAtUtc": "2026-07-17T06:09:59.350894Z",
  "baseExpectedHourUtc": "2026071705",
  "targetHourUtc": "2026071706",
  "expectedHourUtc": "2026071706",
  "pendingFreshUpdate": false,
  "data": [
    {
      "code": "AEP",
      "label": "Aeroparque",
      "icaoId": "SABE",
      "station_id": "SABE",
      "rawOb": "170600Z VRB02KT 9999 FEW046 BKN200 18/15 Q0997 NOSIG",
      "raw_text": "170600Z VRB02KT 9999 FEW046 BKN200 18/15 Q0997 NOSIG",
      "obsTime": "2026-07-17T06:00:00Z",
      "source": "linux-noaa-txt",
      "updatedAt": "2026-07-17T06:09:59.350894Z",
      "reportHourUtc": "2026071706",
      "baseExpectedHourUtc": "2026071705",
      "targetHourUtc": "2026071706",
      "expectedHourUtc": "2026071706",
      "freshForExpectedHour": true,
      "error": null
    },
    {
      "code": "EZE",
      "label": "Ezeiza",
      "icaoId": "SAEZ",
      "station_id": "SAEZ",
      "rawOb": "170600Z 03007KT 9999 FEW042 BKN200 21/16 Q0996 NOSIG",
      "raw_text": "170600Z 03007KT 9999 FEW042 BKN200 21/16 Q0996 NOSIG",
      "obsTime": "2026-07-17T06:00:00Z",
      "source": "linux-noaa-txt",
      "updatedAt": "2026-07-17T06:09:59.350894Z",
      "reportHourUtc": "2026071706",
      "baseExpectedHourUtc": "2026071705",
      "targetHourUtc": "2026071706",
      "expectedHourUtc": "2026071706",
      "freshForExpectedHour": true,
      "error": null
    }
  ]
}
