{
  "generatedAtUtc": "2026-07-12T21:09:59.338777Z",
  "baseExpectedHourUtc": "2026071220",
  "targetHourUtc": "2026071221",
  "expectedHourUtc": "2026071221",
  "pendingFreshUpdate": false,
  "data": [
    {
      "code": "AEP",
      "label": "Aeroparque",
      "icaoId": "SABE",
      "station_id": "SABE",
      "rawOb": "122100Z 17003KT 130V230 9999 FEW030 11/04 Q1025 NOSIG",
      "raw_text": "122100Z 17003KT 130V230 9999 FEW030 11/04 Q1025 NOSIG",
      "obsTime": "2026-07-12T21:00:00Z",
      "source": "linux-noaa-txt",
      "updatedAt": "2026-07-12T21:09:59.338777Z",
      "reportHourUtc": "2026071221",
      "baseExpectedHourUtc": "2026071220",
      "targetHourUtc": "2026071221",
      "expectedHourUtc": "2026071221",
      "freshForExpectedHour": true,
      "error": null
    },
    {
      "code": "EZE",
      "label": "Ezeiza",
      "icaoId": "SAEZ",
      "station_id": "SAEZ",
      "rawOb": "122100Z 22002KT 9999 FEW035 10/04 Q1024 NOSIG",
      "raw_text": "122100Z 22002KT 9999 FEW035 10/04 Q1024 NOSIG",
      "obsTime": "2026-07-12T21:00:00Z",
      "source": "linux-noaa-txt",
      "updatedAt": "2026-07-12T21:09:59.338777Z",
      "reportHourUtc": "2026071221",
      "baseExpectedHourUtc": "2026071220",
      "targetHourUtc": "2026071221",
      "expectedHourUtc": "2026071221",
      "freshForExpectedHour": true,
      "error": null
    }
  ]
}
