{
  "generatedAtUtc": "2026-07-23T11:09:59.564439Z",
  "baseExpectedHourUtc": "2026072310",
  "targetHourUtc": "2026072311",
  "expectedHourUtc": "2026072311",
  "pendingFreshUpdate": false,
  "data": [
    {
      "code": "AEP",
      "label": "Aeroparque",
      "icaoId": "SABE",
      "station_id": "SABE",
      "rawOb": "231100Z 07007KT 9999 BKN009 11/09 Q1023 NOSIG",
      "raw_text": "231100Z 07007KT 9999 BKN009 11/09 Q1023 NOSIG",
      "obsTime": "2026-07-23T11:00:00Z",
      "source": "linux-noaa-txt",
      "updatedAt": "2026-07-23T11:09:59.564439Z",
      "reportHourUtc": "2026072311",
      "baseExpectedHourUtc": "2026072310",
      "targetHourUtc": "2026072311",
      "expectedHourUtc": "2026072311",
      "freshForExpectedHour": true,
      "error": null
    },
    {
      "code": "EZE",
      "label": "Ezeiza",
      "icaoId": "SAEZ",
      "station_id": "SAEZ",
      "rawOb": "231100Z 12003KT 5000 BR OVC012 09/08 Q1023 NOSIG",
      "raw_text": "231100Z 12003KT 5000 BR OVC012 09/08 Q1023 NOSIG",
      "obsTime": "2026-07-23T11:00:00Z",
      "source": "linux-noaa-txt",
      "updatedAt": "2026-07-23T11:09:59.564439Z",
      "reportHourUtc": "2026072311",
      "baseExpectedHourUtc": "2026072310",
      "targetHourUtc": "2026072311",
      "expectedHourUtc": "2026072311",
      "freshForExpectedHour": true,
      "error": null
    }
  ]
}
