{
  "generatedAtUtc": "2026-07-15T16:09:59.165053Z",
  "baseExpectedHourUtc": "2026071515",
  "targetHourUtc": "2026071516",
  "expectedHourUtc": "2026071516",
  "pendingFreshUpdate": false,
  "data": [
    {
      "code": "AEP",
      "label": "Aeroparque",
      "icaoId": "SABE",
      "station_id": "SABE",
      "rawOb": "151600Z 07004KT 040V100 CAVOK 14/11 Q1012 NOSIG",
      "raw_text": "151600Z 07004KT 040V100 CAVOK 14/11 Q1012 NOSIG",
      "obsTime": "2026-07-15T16:00:00Z",
      "source": "linux-noaa-txt",
      "updatedAt": "2026-07-15T16:09:59.165053Z",
      "reportHourUtc": "2026071516",
      "baseExpectedHourUtc": "2026071515",
      "targetHourUtc": "2026071516",
      "expectedHourUtc": "2026071516",
      "freshForExpectedHour": true,
      "error": null
    },
    {
      "code": "EZE",
      "label": "Ezeiza",
      "icaoId": "SAEZ",
      "station_id": "SAEZ",
      "rawOb": "151600Z 02007KT CAVOK 16/10 Q1011 NOSIG",
      "raw_text": "151600Z 02007KT CAVOK 16/10 Q1011 NOSIG",
      "obsTime": "2026-07-15T16:00:00Z",
      "source": "linux-noaa-txt",
      "updatedAt": "2026-07-15T16:09:59.165053Z",
      "reportHourUtc": "2026071516",
      "baseExpectedHourUtc": "2026071515",
      "targetHourUtc": "2026071516",
      "expectedHourUtc": "2026071516",
      "freshForExpectedHour": true,
      "error": null
    }
  ]
}
