{
  "generatedAtUtc": "2026-07-11T09:09:59.156994Z",
  "expectedHourUtc": "2026071108",
  "pendingFreshUpdate": false,
  "data": [
    {
      "code": "AEP",
      "label": "Aeroparque",
      "icaoId": "SABE",
      "station_id": "SABE",
      "rawOb": "110900Z 19003KT 140V230 9000 FEW030 11/08 Q1016 NOSIG",
      "raw_text": "110900Z 19003KT 140V230 9000 FEW030 11/08 Q1016 NOSIG",
      "obsTime": "2026-07-11T09:00:00Z",
      "source": "linux-noaa-txt",
      "updatedAt": "2026-07-11T09:09:59.156994Z",
      "reportHourUtc": "2026071109",
      "expectedHourUtc": "2026071108",
      "freshForExpectedHour": true,
      "error": null
    },
    {
      "code": "EZE",
      "label": "Ezeiza",
      "icaoId": "SAEZ",
      "station_id": "SAEZ",
      "rawOb": "110900Z 21005KT 0800 R11/1200U FG OVC002 09/09 Q1016 NOSIG",
      "raw_text": "110900Z 21005KT 0800 R11/1200U FG OVC002 09/09 Q1016 NOSIG",
      "obsTime": "2026-07-11T09:00:00Z",
      "source": "linux-noaa-txt",
      "updatedAt": "2026-07-11T09:09:59.156994Z",
      "reportHourUtc": "2026071109",
      "expectedHourUtc": "2026071108",
      "freshForExpectedHour": true,
      "error": null
    }
  ]
}
