{
  "generatedAtUtc": "2026-07-21T03:09:59.960793Z",
  "baseExpectedHourUtc": "2026072102",
  "targetHourUtc": "2026072103",
  "expectedHourUtc": "2026072103",
  "pendingFreshUpdate": true,
  "data": [
    {
      "code": "AEP",
      "label": "Aeroparque",
      "icaoId": "SABE",
      "station_id": "SABE",
      "rawOb": "210200Z 14007KT 3000 -DZ BR OVC007 12/11 Q1011 NOSIG",
      "raw_text": "210200Z 14007KT 3000 -DZ BR OVC007 12/11 Q1011 NOSIG",
      "obsTime": "2026-07-21T02:00:00Z",
      "source": "linux-noaa-txt",
      "updatedAt": "2026-07-21T03:09:59.960793Z",
      "reportHourUtc": "2026072102",
      "baseExpectedHourUtc": "2026072102",
      "targetHourUtc": "2026072103",
      "expectedHourUtc": "2026072103",
      "freshForExpectedHour": false,
      "error": "Esperando actualización de 2026072103…"
    },
    {
      "code": "EZE",
      "label": "Ezeiza",
      "icaoId": "SAEZ",
      "station_id": "SAEZ",
      "rawOb": "210300Z 16006KT 3000 DZ BR OVC004 10/10 Q1011 NOSIG",
      "raw_text": "210300Z 16006KT 3000 DZ BR OVC004 10/10 Q1011 NOSIG",
      "obsTime": "2026-07-21T03:00:00Z",
      "source": "linux-noaa-txt",
      "updatedAt": "2026-07-21T03:09:59.960793Z",
      "reportHourUtc": "2026072103",
      "baseExpectedHourUtc": "2026072102",
      "targetHourUtc": "2026072103",
      "expectedHourUtc": "2026072103",
      "freshForExpectedHour": true,
      "error": null
    }
  ]
}
