{
  "generatedAtUtc": "2026-07-24T07:09:59.895578Z",
  "baseExpectedHourUtc": "2026072406",
  "targetHourUtc": "2026072407",
  "expectedHourUtc": "2026072407",
  "pendingFreshUpdate": false,
  "data": [
    {
      "code": "AEP",
      "label": "Aeroparque",
      "icaoId": "SABE",
      "station_id": "SABE",
      "rawOb": "240700Z 03008KT 9999 -RA OVC018 14/11 Q1019 NOSIG",
      "raw_text": "240700Z 03008KT 9999 -RA OVC018 14/11 Q1019 NOSIG",
      "obsTime": "2026-07-24T07:00:00Z",
      "source": "linux-noaa-txt",
      "updatedAt": "2026-07-24T07:09:59.895578Z",
      "reportHourUtc": "2026072407",
      "baseExpectedHourUtc": "2026072406",
      "targetHourUtc": "2026072407",
      "expectedHourUtc": "2026072407",
      "freshForExpectedHour": true,
      "error": null
    },
    {
      "code": "EZE",
      "label": "Ezeiza",
      "icaoId": "SAEZ",
      "station_id": "SAEZ",
      "rawOb": "240700Z 04003KT 8000 -DZ FEW005 BKN025 OVC050 13/11 Q1019 NOSIG",
      "raw_text": "240700Z 04003KT 8000 -DZ FEW005 BKN025 OVC050 13/11 Q1019 NOSIG",
      "obsTime": "2026-07-24T07:00:00Z",
      "source": "linux-noaa-txt",
      "updatedAt": "2026-07-24T07:09:59.895578Z",
      "reportHourUtc": "2026072407",
      "baseExpectedHourUtc": "2026072406",
      "targetHourUtc": "2026072407",
      "expectedHourUtc": "2026072407",
      "freshForExpectedHour": true,
      "error": null
    }
  ]
}
