{
  "generatedAtUtc": "2026-07-12T12:09:59.882385Z",
  "baseExpectedHourUtc": "2026071211",
  "targetHourUtc": "2026071212",
  "expectedHourUtc": "2026071212",
  "pendingFreshUpdate": false,
  "data": [
    {
      "code": "AEP",
      "label": "Aeroparque",
      "icaoId": "SABE",
      "station_id": "SABE",
      "rawOb": "121200Z 18006KT 140V230 9999 OVC010 07/05 Q1024 NOSIG",
      "raw_text": "121200Z 18006KT 140V230 9999 OVC010 07/05 Q1024 NOSIG",
      "obsTime": "2026-07-12T12:00:00Z",
      "source": "linux-noaa-txt",
      "updatedAt": "2026-07-12T12:09:59.882385Z",
      "reportHourUtc": "2026071212",
      "baseExpectedHourUtc": "2026071211",
      "targetHourUtc": "2026071212",
      "expectedHourUtc": "2026071212",
      "freshForExpectedHour": true,
      "error": null
    },
    {
      "code": "EZE",
      "label": "Ezeiza",
      "icaoId": "SAEZ",
      "station_id": "SAEZ",
      "rawOb": "121200Z 20006KT 170V240 5000 -DZ BR OVC007 07/06 Q1024 NOSIG",
      "raw_text": "121200Z 20006KT 170V240 5000 -DZ BR OVC007 07/06 Q1024 NOSIG",
      "obsTime": "2026-07-12T12:00:00Z",
      "source": "linux-noaa-txt",
      "updatedAt": "2026-07-12T12:09:59.882385Z",
      "reportHourUtc": "2026071212",
      "baseExpectedHourUtc": "2026071211",
      "targetHourUtc": "2026071212",
      "expectedHourUtc": "2026071212",
      "freshForExpectedHour": true,
      "error": null
    }
  ]
}
