{
  "generatedAtUtc": "2026-07-23T01:09:59.459262Z",
  "baseExpectedHourUtc": "2026072300",
  "targetHourUtc": "2026072301",
  "expectedHourUtc": "2026072301",
  "pendingFreshUpdate": false,
  "data": [
    {
      "code": "AEP",
      "label": "Aeroparque",
      "icaoId": "SABE",
      "station_id": "SABE",
      "rawOb": "230100Z 14009KT 120V180 9999 BKN015 OVC026 10/06 Q1024 NOSIG",
      "raw_text": "230100Z 14009KT 120V180 9999 BKN015 OVC026 10/06 Q1024 NOSIG",
      "obsTime": "2026-07-23T01:00:00Z",
      "source": "linux-noaa-txt",
      "updatedAt": "2026-07-23T01:09:59.459262Z",
      "reportHourUtc": "2026072301",
      "baseExpectedHourUtc": "2026072300",
      "targetHourUtc": "2026072301",
      "expectedHourUtc": "2026072301",
      "freshForExpectedHour": true,
      "error": null
    },
    {
      "code": "EZE",
      "label": "Ezeiza",
      "icaoId": "SAEZ",
      "station_id": "SAEZ",
      "rawOb": "230100Z 14003KT 9999 SCT027 08/06 Q1024 NOSIG",
      "raw_text": "230100Z 14003KT 9999 SCT027 08/06 Q1024 NOSIG",
      "obsTime": "2026-07-23T01:00:00Z",
      "source": "linux-noaa-txt",
      "updatedAt": "2026-07-23T01:09:59.459262Z",
      "reportHourUtc": "2026072301",
      "baseExpectedHourUtc": "2026072300",
      "targetHourUtc": "2026072301",
      "expectedHourUtc": "2026072301",
      "freshForExpectedHour": true,
      "error": null
    }
  ]
}
