{
  "generatedAtUtc": "2026-07-17T07:09:59.185501Z",
  "baseExpectedHourUtc": "2026071706",
  "targetHourUtc": "2026071707",
  "expectedHourUtc": "2026071707",
  "pendingFreshUpdate": false,
  "data": [
    {
      "code": "AEP",
      "label": "Aeroparque",
      "icaoId": "SABE",
      "station_id": "SABE",
      "rawOb": "170700Z VRB02KT 9999 BKN048 18/15 Q0996 NOSIG",
      "raw_text": "170700Z VRB02KT 9999 BKN048 18/15 Q0996 NOSIG",
      "obsTime": "2026-07-17T07:00:00Z",
      "source": "linux-noaa-txt",
      "updatedAt": "2026-07-17T07:09:59.185501Z",
      "reportHourUtc": "2026071707",
      "baseExpectedHourUtc": "2026071706",
      "targetHourUtc": "2026071707",
      "expectedHourUtc": "2026071707",
      "freshForExpectedHour": true,
      "error": null
    },
    {
      "code": "EZE",
      "label": "Ezeiza",
      "icaoId": "SAEZ",
      "station_id": "SAEZ",
      "rawOb": "170700Z 02006KT 9999 SCT042 BKN200 21/16 Q0996 NOSIG",
      "raw_text": "170700Z 02006KT 9999 SCT042 BKN200 21/16 Q0996 NOSIG",
      "obsTime": "2026-07-17T07:00:00Z",
      "source": "linux-noaa-txt",
      "updatedAt": "2026-07-17T07:09:59.185501Z",
      "reportHourUtc": "2026071707",
      "baseExpectedHourUtc": "2026071706",
      "targetHourUtc": "2026071707",
      "expectedHourUtc": "2026071707",
      "freshForExpectedHour": true,
      "error": null
    }
  ]
}
