{
  "generatedAtUtc": "2026-07-22T15:09:59.449195Z",
  "baseExpectedHourUtc": "2026072214",
  "targetHourUtc": "2026072215",
  "expectedHourUtc": "2026072215",
  "pendingFreshUpdate": false,
  "data": [
    {
      "code": "AEP",
      "label": "Aeroparque",
      "icaoId": "SABE",
      "station_id": "SABE",
      "rawOb": "221500Z 15006KT 120V190 9999 BKN030 11/06 Q1021 NOSIG",
      "raw_text": "221500Z 15006KT 120V190 9999 BKN030 11/06 Q1021 NOSIG",
      "obsTime": "2026-07-22T15:00:00Z",
      "source": "linux-noaa-txt",
      "updatedAt": "2026-07-22T15:09:59.449195Z",
      "reportHourUtc": "2026072215",
      "baseExpectedHourUtc": "2026072214",
      "targetHourUtc": "2026072215",
      "expectedHourUtc": "2026072215",
      "freshForExpectedHour": true,
      "error": null
    },
    {
      "code": "EZE",
      "label": "Ezeiza",
      "icaoId": "SAEZ",
      "station_id": "SAEZ",
      "rawOb": "221500Z 16007KT CAVOK 11/07 Q1021 NOSIG",
      "raw_text": "221500Z 16007KT CAVOK 11/07 Q1021 NOSIG",
      "obsTime": "2026-07-22T15:00:00Z",
      "source": "linux-noaa-txt",
      "updatedAt": "2026-07-22T15:09:59.449195Z",
      "reportHourUtc": "2026072215",
      "baseExpectedHourUtc": "2026072214",
      "targetHourUtc": "2026072215",
      "expectedHourUtc": "2026072215",
      "freshForExpectedHour": true,
      "error": null
    }
  ]
}
