{
  "generatedAtUtc": "2026-07-22T05:09:59.943142Z",
  "baseExpectedHourUtc": "2026072204",
  "targetHourUtc": "2026072205",
  "expectedHourUtc": "2026072205",
  "pendingFreshUpdate": false,
  "data": [
    {
      "code": "AEP",
      "label": "Aeroparque",
      "icaoId": "SABE",
      "station_id": "SABE",
      "rawOb": "220500Z 17007KT 140V210 9999 FEW011 OVC035 10/08 Q1016 NOSIG",
      "raw_text": "220500Z 17007KT 140V210 9999 FEW011 OVC035 10/08 Q1016 NOSIG",
      "obsTime": "2026-07-22T05:00:00Z",
      "source": "linux-noaa-txt",
      "updatedAt": "2026-07-22T05:09:59.943142Z",
      "reportHourUtc": "2026072205",
      "baseExpectedHourUtc": "2026072204",
      "targetHourUtc": "2026072205",
      "expectedHourUtc": "2026072205",
      "freshForExpectedHour": true,
      "error": null
    },
    {
      "code": "EZE",
      "label": "Ezeiza",
      "icaoId": "SAEZ",
      "station_id": "SAEZ",
      "rawOb": "220500Z 17007KT 130V190 9999 FEW016 OVC037 10/08 Q1016 NOSIG",
      "raw_text": "220500Z 17007KT 130V190 9999 FEW016 OVC037 10/08 Q1016 NOSIG",
      "obsTime": "2026-07-22T05:00:00Z",
      "source": "linux-noaa-txt",
      "updatedAt": "2026-07-22T05:09:59.943142Z",
      "reportHourUtc": "2026072205",
      "baseExpectedHourUtc": "2026072204",
      "targetHourUtc": "2026072205",
      "expectedHourUtc": "2026072205",
      "freshForExpectedHour": true,
      "error": null
    }
  ]
}
