{
  "generatedAtUtc": "2026-07-14T13:09:59.817220Z",
  "baseExpectedHourUtc": "2026071412",
  "targetHourUtc": "2026071413",
  "expectedHourUtc": "2026071413",
  "pendingFreshUpdate": false,
  "data": [
    {
      "code": "AEP",
      "label": "Aeroparque",
      "icaoId": "SABE",
      "station_id": "SABE",
      "rawOb": "141300Z 35009KT 9999 BKN009 10/07 Q1020 NOSIG",
      "raw_text": "141300Z 35009KT 9999 BKN009 10/07 Q1020 NOSIG",
      "obsTime": "2026-07-14T13:00:00Z",
      "source": "linux-noaa-txt",
      "updatedAt": "2026-07-14T13:09:59.817220Z",
      "reportHourUtc": "2026071413",
      "baseExpectedHourUtc": "2026071412",
      "targetHourUtc": "2026071413",
      "expectedHourUtc": "2026071413",
      "freshForExpectedHour": true,
      "error": null
    },
    {
      "code": "EZE",
      "label": "Ezeiza",
      "icaoId": "SAEZ",
      "station_id": "SAEZ",
      "rawOb": "141300Z 02010KT 9999 BKN010 10/07 Q1019 NOSIG",
      "raw_text": "141300Z 02010KT 9999 BKN010 10/07 Q1019 NOSIG",
      "obsTime": "2026-07-14T13:00:00Z",
      "source": "linux-noaa-txt",
      "updatedAt": "2026-07-14T13:09:59.817220Z",
      "reportHourUtc": "2026071413",
      "baseExpectedHourUtc": "2026071412",
      "targetHourUtc": "2026071413",
      "expectedHourUtc": "2026071413",
      "freshForExpectedHour": true,
      "error": null
    }
  ]
}
