{
  "generatedAtUtc": "2026-07-22T03:09:59.281044Z",
  "baseExpectedHourUtc": "2026072202",
  "targetHourUtc": "2026072203",
  "expectedHourUtc": "2026072203",
  "pendingFreshUpdate": false,
  "data": [
    {
      "code": "AEP",
      "label": "Aeroparque",
      "icaoId": "SABE",
      "station_id": "SABE",
      "rawOb": "220300Z 19005KT 140V250 9000 SCT010 OVC020 11/09 Q1016 NOSIG",
      "raw_text": "220300Z 19005KT 140V250 9000 SCT010 OVC020 11/09 Q1016 NOSIG",
      "obsTime": "2026-07-22T03:00:00Z",
      "source": "linux-noaa-txt",
      "updatedAt": "2026-07-22T03:09:59.281044Z",
      "reportHourUtc": "2026072203",
      "baseExpectedHourUtc": "2026072202",
      "targetHourUtc": "2026072203",
      "expectedHourUtc": "2026072203",
      "freshForExpectedHour": true,
      "error": null
    },
    {
      "code": "EZE",
      "label": "Ezeiza",
      "icaoId": "SAEZ",
      "station_id": "SAEZ",
      "rawOb": "220300Z 18006KT 9999 FEW027 OVC036 10/09 Q1016 NOSIG",
      "raw_text": "220300Z 18006KT 9999 FEW027 OVC036 10/09 Q1016 NOSIG",
      "obsTime": "2026-07-22T03:00:00Z",
      "source": "linux-noaa-txt",
      "updatedAt": "2026-07-22T03:09:59.281044Z",
      "reportHourUtc": "2026072203",
      "baseExpectedHourUtc": "2026072202",
      "targetHourUtc": "2026072203",
      "expectedHourUtc": "2026072203",
      "freshForExpectedHour": true,
      "error": null
    }
  ]
}
