{
  "generatedAtUtc": "2026-07-14T23:09:59.213229Z",
  "baseExpectedHourUtc": "2026071422",
  "targetHourUtc": "2026071423",
  "expectedHourUtc": "2026071423",
  "pendingFreshUpdate": false,
  "data": [
    {
      "code": "AEP",
      "label": "Aeroparque",
      "icaoId": "SABE",
      "station_id": "SABE",
      "rawOb": "142300Z 10008KT CAVOK 12/10 Q1015 NOSIG",
      "raw_text": "142300Z 10008KT CAVOK 12/10 Q1015 NOSIG",
      "obsTime": "2026-07-14T23:00:00Z",
      "source": "linux-noaa-txt",
      "updatedAt": "2026-07-14T23:09:59.213229Z",
      "reportHourUtc": "2026071423",
      "baseExpectedHourUtc": "2026071422",
      "targetHourUtc": "2026071423",
      "expectedHourUtc": "2026071423",
      "freshForExpectedHour": true,
      "error": null
    },
    {
      "code": "EZE",
      "label": "Ezeiza",
      "icaoId": "SAEZ",
      "station_id": "SAEZ",
      "rawOb": "142300Z 07006KT CAVOK 12/09 Q1014 NOSIG",
      "raw_text": "142300Z 07006KT CAVOK 12/09 Q1014 NOSIG",
      "obsTime": "2026-07-14T23:00:00Z",
      "source": "linux-noaa-txt",
      "updatedAt": "2026-07-14T23:09:59.213229Z",
      "reportHourUtc": "2026071423",
      "baseExpectedHourUtc": "2026071422",
      "targetHourUtc": "2026071423",
      "expectedHourUtc": "2026071423",
      "freshForExpectedHour": true,
      "error": null
    }
  ]
}
