{
  "generatedAtUtc": "2026-07-15T17:09:59.205452Z",
  "baseExpectedHourUtc": "2026071516",
  "targetHourUtc": "2026071517",
  "expectedHourUtc": "2026071517",
  "pendingFreshUpdate": false,
  "data": [
    {
      "code": "AEP",
      "label": "Aeroparque",
      "icaoId": "SABE",
      "station_id": "SABE",
      "rawOb": "151700Z 05004KT 020V090 CAVOK 14/11 Q1010 NOSIG",
      "raw_text": "151700Z 05004KT 020V090 CAVOK 14/11 Q1010 NOSIG",
      "obsTime": "2026-07-15T17:00:00Z",
      "source": "linux-noaa-txt",
      "updatedAt": "2026-07-15T17:09:59.205452Z",
      "reportHourUtc": "2026071517",
      "baseExpectedHourUtc": "2026071516",
      "targetHourUtc": "2026071517",
      "expectedHourUtc": "2026071517",
      "freshForExpectedHour": true,
      "error": null
    },
    {
      "code": "EZE",
      "label": "Ezeiza",
      "icaoId": "SAEZ",
      "station_id": "SAEZ",
      "rawOb": "151700Z 04007KT CAVOK 17/11 Q1009 NOSIG",
      "raw_text": "151700Z 04007KT CAVOK 17/11 Q1009 NOSIG",
      "obsTime": "2026-07-15T17:00:00Z",
      "source": "linux-noaa-txt",
      "updatedAt": "2026-07-15T17:09:59.205452Z",
      "reportHourUtc": "2026071517",
      "baseExpectedHourUtc": "2026071516",
      "targetHourUtc": "2026071517",
      "expectedHourUtc": "2026071517",
      "freshForExpectedHour": true,
      "error": null
    }
  ]
}
