{
  "generatedAtUtc": "2026-07-22T16:09:59.493112Z",
  "baseExpectedHourUtc": "2026072215",
  "targetHourUtc": "2026072216",
  "expectedHourUtc": "2026072216",
  "pendingFreshUpdate": false,
  "data": [
    {
      "code": "AEP",
      "label": "Aeroparque",
      "icaoId": "SABE",
      "station_id": "SABE",
      "rawOb": "221600Z 15005KT 100V200 9999 BKN031 12/06 Q1021 NOSIG",
      "raw_text": "221600Z 15005KT 100V200 9999 BKN031 12/06 Q1021 NOSIG",
      "obsTime": "2026-07-22T16:00:00Z",
      "source": "linux-noaa-txt",
      "updatedAt": "2026-07-22T16:09:59.493112Z",
      "reportHourUtc": "2026072216",
      "baseExpectedHourUtc": "2026072215",
      "targetHourUtc": "2026072216",
      "expectedHourUtc": "2026072216",
      "freshForExpectedHour": true,
      "error": null
    },
    {
      "code": "EZE",
      "label": "Ezeiza",
      "icaoId": "SAEZ",
      "station_id": "SAEZ",
      "rawOb": "221600Z 15010KT CAVOK 13/07 Q1021 NOSIG",
      "raw_text": "221600Z 15010KT CAVOK 13/07 Q1021 NOSIG",
      "obsTime": "2026-07-22T16:00:00Z",
      "source": "linux-noaa-txt",
      "updatedAt": "2026-07-22T16:09:59.493112Z",
      "reportHourUtc": "2026072216",
      "baseExpectedHourUtc": "2026072215",
      "targetHourUtc": "2026072216",
      "expectedHourUtc": "2026072216",
      "freshForExpectedHour": true,
      "error": null
    }
  ]
}
