{
  "generatedAtUtc": "2026-07-16T22:09:59.781567Z",
  "baseExpectedHourUtc": "2026071621",
  "targetHourUtc": "2026071622",
  "expectedHourUtc": "2026071622",
  "pendingFreshUpdate": false,
  "data": [
    {
      "code": "AEP",
      "label": "Aeroparque",
      "icaoId": "SABE",
      "station_id": "SABE",
      "rawOb": "162200Z VRB03KT CAVOK 18/14 Q0999 NOSIG",
      "raw_text": "162200Z VRB03KT CAVOK 18/14 Q0999 NOSIG",
      "obsTime": "2026-07-16T22:00:00Z",
      "source": "linux-noaa-txt",
      "updatedAt": "2026-07-16T22:09:59.781567Z",
      "reportHourUtc": "2026071622",
      "baseExpectedHourUtc": "2026071621",
      "targetHourUtc": "2026071622",
      "expectedHourUtc": "2026071622",
      "freshForExpectedHour": true,
      "error": null
    },
    {
      "code": "EZE",
      "label": "Ezeiza",
      "icaoId": "SAEZ",
      "station_id": "SAEZ",
      "rawOb": "162200Z 04009KT CAVOK 22/15 Q0998 NOSIG",
      "raw_text": "162200Z 04009KT CAVOK 22/15 Q0998 NOSIG",
      "obsTime": "2026-07-16T22:00:00Z",
      "source": "linux-noaa-txt",
      "updatedAt": "2026-07-16T22:09:59.781567Z",
      "reportHourUtc": "2026071622",
      "baseExpectedHourUtc": "2026071621",
      "targetHourUtc": "2026071622",
      "expectedHourUtc": "2026071622",
      "freshForExpectedHour": true,
      "error": null
    }
  ]
}
