{
  "generatedAtUtc": "2026-07-24T11:09:59.857033Z",
  "baseExpectedHourUtc": "2026072410",
  "targetHourUtc": "2026072411",
  "expectedHourUtc": "2026072411",
  "pendingFreshUpdate": false,
  "data": [
    {
      "code": "AEP",
      "label": "Aeroparque",
      "icaoId": "SABE",
      "station_id": "SABE",
      "rawOb": "241100Z 03005KT 010V070 9999 FEW012 BKN048 13/11 Q1019 TEMPO 5000 -DZ BKN013",
      "raw_text": "241100Z 03005KT 010V070 9999 FEW012 BKN048 13/11 Q1019 TEMPO 5000 -DZ BKN013",
      "obsTime": "2026-07-24T11:00:00Z",
      "source": "linux-noaa-txt",
      "updatedAt": "2026-07-24T11:09:59.857033Z",
      "reportHourUtc": "2026072411",
      "baseExpectedHourUtc": "2026072410",
      "targetHourUtc": "2026072411",
      "expectedHourUtc": "2026072411",
      "freshForExpectedHour": true,
      "error": null
    },
    {
      "code": "EZE",
      "label": "Ezeiza",
      "icaoId": "SAEZ",
      "station_id": "SAEZ",
      "rawOb": "241100Z 09005KT 9999 SCT035 BKN050 12/11 Q1019 TEMPO 6000 -DZ BKN015",
      "raw_text": "241100Z 09005KT 9999 SCT035 BKN050 12/11 Q1019 TEMPO 6000 -DZ BKN015",
      "obsTime": "2026-07-24T11:00:00Z",
      "source": "linux-noaa-txt",
      "updatedAt": "2026-07-24T11:09:59.857033Z",
      "reportHourUtc": "2026072411",
      "baseExpectedHourUtc": "2026072410",
      "targetHourUtc": "2026072411",
      "expectedHourUtc": "2026072411",
      "freshForExpectedHour": true,
      "error": null
    }
  ]
}
