{
  "generatedAtUtc": "2026-07-17T20:09:59.866934Z",
  "baseExpectedHourUtc": "2026071719",
  "targetHourUtc": "2026071720",
  "expectedHourUtc": "2026071720",
  "pendingFreshUpdate": false,
  "data": [
    {
      "code": "AEP",
      "label": "Aeroparque",
      "icaoId": "SABE",
      "station_id": "SABE",
      "rawOb": "172000Z VRB02KT 9000 FEW024 BKN040 24/19 Q0995 NOSIG",
      "raw_text": "172000Z VRB02KT 9000 FEW024 BKN040 24/19 Q0995 NOSIG",
      "obsTime": "2026-07-17T20:00:00Z",
      "source": "linux-noaa-txt",
      "updatedAt": "2026-07-17T20:09:59.866934Z",
      "reportHourUtc": "2026071720",
      "baseExpectedHourUtc": "2026071719",
      "targetHourUtc": "2026071720",
      "expectedHourUtc": "2026071720",
      "freshForExpectedHour": true,
      "error": null
    },
    {
      "code": "EZE",
      "label": "Ezeiza",
      "icaoId": "SAEZ",
      "station_id": "SAEZ",
      "rawOb": "172000Z 26005KT 9999 OVC020 23/20 Q0995",
      "raw_text": "172000Z 26005KT 9999 OVC020 23/20 Q0995",
      "obsTime": "2026-07-17T20:00:00Z",
      "source": "linux-noaa-txt",
      "updatedAt": "2026-07-17T20:09:59.866934Z",
      "reportHourUtc": "2026071720",
      "baseExpectedHourUtc": "2026071719",
      "targetHourUtc": "2026071720",
      "expectedHourUtc": "2026071720",
      "freshForExpectedHour": true,
      "error": null
    }
  ]
}
